{
  "type": "FeatureCollection",
  "features": [
    {
      "type": "Feature",
      "geometry": {
        "type": "Point",
        "coordinates": [
          111.1,
          34.7833
        ]
      },
      "properties": {
        "person": "上官婉儿",
        "name": "陕州陕县",
        "type": "birth",
        "time": "公元664年",
        "modernName": "河南省三门峡市陕州区",
        "ancientName": "陕州陕县"
      }
    },
    {
      "type": "Feature",
      "geometry": {
        "type": "Point",
        "coordinates": [
          108.9426,
          34.2637
        ]
      },
      "properties": {
        "person": "上官婉儿",
        "name": "唐都长安·掖庭",
        "type": "normal",
        "time": "约664年—677年",
        "modernName": "陕西省西安市区）",
        "ancientName": "掖庭（唐长安宫城内，"
      }
    },
    {
      "type": "Feature",
      "geometry": {
        "type": "Point",
        "coordinates": [
          108.9426,
          34.2637
        ]
      },
      "properties": {
        "person": "上官婉儿",
        "name": "唐都长安·武周宫廷",
        "type": "normal",
        "time": "约677年—705年",
        "modernName": "陕西省西安市区）",
        "ancientName": "大明宫、含元殿等（唐长安宫城，"
      }
    },
    {
      "type": "Feature",
      "geometry": {
        "type": "Point",
        "coordinates": [
          112.454,
          34.6197
        ]
      },
      "properties": {
        "person": "上官婉儿",
        "name": "东都洛阳",
        "type": "normal",
        "time": "武则天时期常驻",
        "modernName": "河南省洛阳市",
        "ancientName": "神都洛阳"
      }
    },
    {
      "type": "Feature",
      "geometry": {
        "type": "Point",
        "coordinates": [
          113.2644,
          23.1291
        ]
      },
      "properties": {
        "person": "上官婉儿",
        "name": "岭南（流放地，存疑）",
        "type": "normal",
        "time": "幼年（具体时间存疑）",
        "modernName": "广东省、广西壮族自治区一带",
        "ancientName": "岭南道"
      }
    },
    {
      "type": "Feature",
      "geometry": {
        "type": "Point",
        "coordinates": [
          108.9426,
          34.2637
        ]
      },
      "properties": {
        "person": "上官婉儿",
        "name": "唐都长安·昭文馆",
        "type": "normal",
        "time": "705年—710年（中宗时期）",
        "modernName": "陕西省西安市区）",
        "ancientName": "昭文馆（唐长安宫城内，"
      }
    },
    {
      "type": "Feature",
      "geometry": {
        "type": "Point",
        "coordinates": [
          108.9426,
          34.2637
        ]
      },
      "properties": {
        "person": "上官婉儿",
        "name": "唐都长安·唐隆政变现场",
        "type": "normal",
        "time": "公元710年7月21日",
        "modernName": "陕西省西安市区",
        "ancientName": "唐长安宫城"
      }
    },
    {
      "type": "Feature",
      "geometry": {
        "type": "Point",
        "coordinates": [
          108.9426,
          34.2637
        ]
      },
      "properties": {
        "person": "上官婉儿",
        "name": "唐都长安",
        "type": "death",
        "time": "公元710年7月21日",
        "modernName": "陕西省西安市",
        "ancientName": "唐都长安"
      }
    },
    {
      "type": "Feature",
      "geometry": {
        "type": "LineString",
        "coordinates": [
          [
            111.1,
            34.7833
          ],
          [
            108.9426,
            34.2637
          ],
          [
            108.9426,
            34.2637
          ],
          [
            112.454,
            34.6197
          ],
          [
            113.2644,
            23.1291
          ],
          [
            108.9426,
            34.2637
          ],
          [
            108.9426,
            34.2637
          ],
          [
            108.9426,
            34.2637
          ]
        ]
      },
      "properties": {
        "person": "上官婉儿",
        "name": "轨迹"
      }
    }
  ]
}