{
  "type": "FeatureCollection",
  "features": [
    {
      "type": "Feature",
      "geometry": {
        "type": "Point",
        "coordinates": [
          112.9,
          29.82
        ]
      },
      "properties": {
        "person": "伍子胥",
        "name": "楚国故地",
        "type": "birth",
        "time": "约前559年",
        "modernName": "湖北监利一带",
        "ancientName": "楚国故地"
      }
    },
    {
      "type": "Feature",
      "geometry": {
        "type": "Point",
        "coordinates": [
          112.198552,
          30.386639
        ]
      },
      "properties": {
        "person": "伍子胥",
        "name": "楚国郢都",
        "type": "normal",
        "time": "约前522年",
        "modernName": "湖北荆州纪南城一带",
        "ancientName": "楚国郢都"
      }
    },
    {
      "type": "Feature",
      "geometry": {
        "type": "Point",
        "coordinates": [
          115.656358,
          34.414961
        ]
      },
      "properties": {
        "person": "伍子胥",
        "name": "宋国商丘",
        "type": "normal",
        "time": "约前522年",
        "modernName": "河南商丘",
        "ancientName": "宋国商丘"
      }
    },
    {
      "type": "Feature",
      "geometry": {
        "type": "Point",
        "coordinates": [
          113.73967,
          34.396433
        ]
      },
      "properties": {
        "person": "伍子胥",
        "name": "郑国新郑",
        "type": "normal",
        "time": "约前521年",
        "modernName": "河南新郑",
        "ancientName": "郑国新郑"
      }
    },
    {
      "type": "Feature",
      "geometry": {
        "type": "Point",
        "coordinates": [
          118.061,
          31.716
        ]
      },
      "properties": {
        "person": "伍子胥",
        "name": "昭关",
        "type": "normal",
        "time": "约前521年",
        "modernName": "安徽马鞍山含山北一带",
        "ancientName": "昭关"
      }
    },
    {
      "type": "Feature",
      "geometry": {
        "type": "Point",
        "coordinates": [
          120.585316,
          31.298886
        ]
      },
      "properties": {
        "person": "伍子胥",
        "name": "吴都姑苏",
        "type": "normal",
        "time": "约前515年",
        "modernName": "江苏苏州",
        "ancientName": "吴都姑苏"
      }
    },
    {
      "type": "Feature",
      "geometry": {
        "type": "Point",
        "coordinates": [
          112.198552,
          30.386639
        ]
      },
      "properties": {
        "person": "伍子胥",
        "name": "楚国郢都",
        "type": "normal",
        "time": "约前506年",
        "modernName": "湖北荆州纪南城一带",
        "ancientName": "楚国郢都"
      }
    },
    {
      "type": "Feature",
      "geometry": {
        "type": "Point",
        "coordinates": [
          112.198552,
          30.386639
        ]
      },
      "properties": {
        "person": "伍子胥",
        "name": "楚国郢都",
        "type": "normal",
        "time": "约前506年",
        "modernName": "湖北荆州纪南城一带",
        "ancientName": "楚国郢都"
      }
    },
    {
      "type": "Feature",
      "geometry": {
        "type": "Point",
        "coordinates": [
          120.755486,
          30.746129
        ]
      },
      "properties": {
        "person": "伍子胥",
        "name": "檇李",
        "type": "normal",
        "time": "约前496年",
        "modernName": "浙江嘉兴一带",
        "ancientName": "檇李"
      }
    },
    {
      "type": "Feature",
      "geometry": {
        "type": "Point",
        "coordinates": [
          120.228,
          31.124
        ]
      },
      "properties": {
        "person": "伍子胥",
        "name": "夫椒",
        "type": "normal",
        "time": "约前494年",
        "modernName": "江苏苏州太湖西山一带",
        "ancientName": "夫椒"
      }
    },
    {
      "type": "Feature",
      "geometry": {
        "type": "Point",
        "coordinates": [
          120.585316,
          31.298886
        ]
      },
      "properties": {
        "person": "伍子胥",
        "name": "吴都姑苏",
        "type": "normal",
        "time": "约前484年",
        "modernName": "江苏苏州",
        "ancientName": "吴都姑苏"
      }
    },
    {
      "type": "Feature",
      "geometry": {
        "type": "Point",
        "coordinates": [
          120.575,
          31.286
        ]
      },
      "properties": {
        "person": "伍子胥",
        "name": "胥江",
        "type": "normal",
        "time": "约前484年",
        "modernName": "江苏苏州胥江一带",
        "ancientName": "胥江"
      }
    },
    {
      "type": "Feature",
      "geometry": {
        "type": "LineString",
        "coordinates": [
          [
            112.9,
            29.82
          ],
          [
            112.198552,
            30.386639
          ],
          [
            115.656358,
            34.414961
          ],
          [
            113.73967,
            34.396433
          ],
          [
            118.061,
            31.716
          ],
          [
            120.585316,
            31.298886
          ],
          [
            112.198552,
            30.386639
          ],
          [
            112.198552,
            30.386639
          ],
          [
            120.755486,
            30.746129
          ],
          [
            120.228,
            31.124
          ],
          [
            120.585316,
            31.298886
          ],
          [
            120.575,
            31.286
          ]
        ]
      },
      "properties": {
        "person": "伍子胥",
        "name": "轨迹"
      }
    }
  ]
}