{
  "type": "FeatureCollection",
  "features": [
    {
      "type": "Feature",
      "geometry": {
        "type": "Point",
        "coordinates": [
          116.738642,
          37.706466
        ]
      },
      "properties": {
        "person": "冒顿单于",
        "name": "匈奴王庭",
        "type": "normal",
        "time": "约前209年",
        "modernName": "匈奴王庭",
        "ancientName": "匈奴王庭"
      }
    },
    {
      "type": "Feature",
      "geometry": {
        "type": "Point",
        "coordinates": [
          114.526804,
          33.118734
        ]
      },
      "properties": {
        "person": "冒顿单于",
        "name": "东胡",
        "type": "normal",
        "time": "约前209—前208年",
        "modernName": "东胡",
        "ancientName": "东胡"
      }
    },
    {
      "type": "Feature",
      "geometry": {
        "type": "Point",
        "coordinates": [
          116.362106,
          39.913704
        ]
      },
      "properties": {
        "person": "冒顿单于",
        "name": "楼烦、月氏",
        "type": "normal",
        "time": "约前208—前206年",
        "modernName": "楼烦",
        "ancientName": "楼烦、月氏"
      }
    },
    {
      "type": "Feature",
      "geometry": {
        "type": "Point",
        "coordinates": [
          113.383292,
          40.124214
        ]
      },
      "properties": {
        "person": "冒顿单于",
        "name": "白登山",
        "type": "normal",
        "time": "约前200年",
        "modernName": "白登山",
        "ancientName": "白登山"
      }
    },
    {
      "type": "Feature",
      "geometry": {
        "type": "Point",
        "coordinates": [
          108.301438,
          28.624189
        ]
      },
      "properties": {
        "person": "冒顿单于",
        "name": "汉匈边境",
        "type": "normal",
        "time": "前200年",
        "modernName": "汉匈边境",
        "ancientName": "汉匈边境"
      }
    },
    {
      "type": "Feature",
      "geometry": {
        "type": "LineString",
        "coordinates": [
          [
            116.738642,
            37.706466
          ],
          [
            114.526804,
            33.118734
          ],
          [
            116.362106,
            39.913704
          ],
          [
            113.383292,
            40.124214
          ],
          [
            108.301438,
            28.624189
          ]
        ]
      },
      "properties": {
        "person": "冒顿单于",
        "name": "轨迹"
      }
    }
  ]
}