{
  "type": "FeatureCollection",
  "features": [
    {
      "type": "Feature",
      "geometry": {
        "type": "Point",
        "coordinates": [
          81.320643,
          43.915855
        ]
      },
      "properties": {
        "person": "准噶尔",
        "name": "伊犁",
        "type": "normal",
        "time": "康熙十年（1671年）前后",
        "modernName": "伊犁",
        "ancientName": "伊犁"
      }
    },
    {
      "type": "Feature",
      "geometry": {
        "type": "Point",
        "coordinates": [
          116.362106,
          39.913704
        ]
      },
      "properties": {
        "person": "准噶尔",
        "name": "漠北喀尔喀",
        "type": "normal",
        "time": "康熙二十七年（1688年）",
        "modernName": "漠北喀尔喀",
        "ancientName": "漠北喀尔喀"
      }
    },
    {
      "type": "Feature",
      "geometry": {
        "type": "Point",
        "coordinates": [
          117.538657,
          43.262896
        ]
      },
      "properties": {
        "person": "准噶尔",
        "name": "乌兰布通（今内蒙古克什克腾旗）",
        "type": "normal",
        "time": "康熙二十九年（1690年）",
        "modernName": "内蒙古克什克腾旗",
        "ancientName": "乌兰布通"
      }
    },
    {
      "type": "Feature",
      "geometry": {
        "type": "Point",
        "coordinates": [
          116.362106,
          39.913704
        ]
      },
      "properties": {
        "person": "准噶尔",
        "name": "昭莫多（今蒙古国宗莫德）",
        "type": "normal",
        "time": "康熙三十五年（1696年）",
        "modernName": "蒙古国宗莫德",
        "ancientName": "昭莫多"
      }
    },
    {
      "type": "Feature",
      "geometry": {
        "type": "Point",
        "coordinates": [
          108.190704,
          34.514398
        ]
      },
      "properties": {
        "person": "准噶尔",
        "name": "漠西蒙古",
        "type": "normal",
        "time": "康熙三十六年（1697年）",
        "modernName": "漠西蒙古",
        "ancientName": "漠西蒙古"
      }
    },
    {
      "type": "Feature",
      "geometry": {
        "type": "Point",
        "coordinates": [
          81.320643,
          43.915855
        ]
      },
      "properties": {
        "person": "准噶尔",
        "name": "伊犁",
        "type": "normal",
        "time": "乾隆二十二年（1757年）",
        "modernName": "伊犁",
        "ancientName": "伊犁"
      }
    },
    {
      "type": "Feature",
      "geometry": {
        "type": "Point",
        "coordinates": [
          117.561585,
          35.430633
        ]
      },
      "properties": {
        "person": "准噶尔",
        "name": "伊犁河流域",
        "type": "normal",
        "time": "明末清初",
        "modernName": "伊犁河流域",
        "ancientName": "伊犁河流域"
      }
    },
    {
      "type": "Feature",
      "geometry": {
        "type": "Point",
        "coordinates": [
          128.470318,
          49.576234
        ]
      },
      "properties": {
        "person": "准噶尔",
        "name": "西北边疆",
        "type": "normal",
        "time": "雍正年间",
        "modernName": "西北边疆",
        "ancientName": "西北边疆"
      }
    },
    {
      "type": "Feature",
      "geometry": {
        "type": "LineString",
        "coordinates": [
          [
            81.320643,
            43.915855
          ],
          [
            116.362106,
            39.913704
          ],
          [
            117.538657,
            43.262896
          ],
          [
            116.362106,
            39.913704
          ],
          [
            108.190704,
            34.514398
          ],
          [
            81.320643,
            43.915855
          ],
          [
            117.561585,
            35.430633
          ],
          [
            128.470318,
            49.576234
          ]
        ]
      },
      "properties": {
        "person": "准噶尔",
        "name": "轨迹"
      }
    }
  ]
}