{
  "type": "FeatureCollection",
  "features": [
    {
      "type": "Feature",
      "geometry": {
        "type": "Point",
        "coordinates": [
          116.362106,
          39.913704
        ]
      },
      "properties": {
        "person": "利玛窦",
        "name": "马切拉塔",
        "type": "normal",
        "time": "1552年",
        "modernName": "马切拉塔",
        "ancientName": "马切拉塔"
      }
    },
    {
      "type": "Feature",
      "geometry": {
        "type": "Point",
        "coordinates": [
          99.289201,
          27.246695
        ]
      },
      "properties": {
        "person": "利玛窦",
        "name": "罗马",
        "type": "normal",
        "time": "1568年",
        "modernName": "罗马",
        "ancientName": "罗马"
      }
    },
    {
      "type": "Feature",
      "geometry": {
        "type": "Point",
        "coordinates": [
          113.537971,
          22.18986
        ]
      },
      "properties": {
        "person": "利玛窦",
        "name": "澳门",
        "type": "normal",
        "time": "1582年",
        "modernName": "澳门",
        "ancientName": "澳门"
      }
    },
    {
      "type": "Feature",
      "geometry": {
        "type": "Point",
        "coordinates": [
          112.45999,
          23.050368
        ]
      },
      "properties": {
        "person": "利玛窦",
        "name": "肇庆",
        "type": "normal",
        "time": "1583年",
        "modernName": "肇庆",
        "ancientName": "肇庆"
      }
    },
    {
      "type": "Feature",
      "geometry": {
        "type": "Point",
        "coordinates": [
          113.562019,
          24.71599
        ]
      },
      "properties": {
        "person": "利玛窦",
        "name": "韶州",
        "type": "normal",
        "time": "1589年",
        "modernName": "韶州",
        "ancientName": "韶州"
      }
    },
    {
      "type": "Feature",
      "geometry": {
        "type": "Point",
        "coordinates": [
          115.914825,
          28.665285
        ]
      },
      "properties": {
        "person": "利玛窦",
        "name": "南昌",
        "type": "normal",
        "time": "1595年",
        "modernName": "南昌",
        "ancientName": "南昌"
      }
    },
    {
      "type": "Feature",
      "geometry": {
        "type": "Point",
        "coordinates": [
          116.401145,
          39.902776
        ]
      },
      "properties": {
        "person": "利玛窦",
        "name": "北京",
        "type": "normal",
        "time": "1598年",
        "modernName": "北京",
        "ancientName": "北京"
      }
    },
    {
      "type": "Feature",
      "geometry": {
        "type": "Point",
        "coordinates": [
          118.79144,
          32.061419
        ]
      },
      "properties": {
        "person": "利玛窦",
        "name": "南京",
        "type": "normal",
        "time": "1600年",
        "modernName": "南京",
        "ancientName": "南京"
      }
    },
    {
      "type": "Feature",
      "geometry": {
        "type": "Point",
        "coordinates": [
          116.401145,
          39.902776
        ]
      },
      "properties": {
        "person": "利玛窦",
        "name": "北京",
        "type": "normal",
        "time": "1601年",
        "modernName": "北京",
        "ancientName": "北京"
      }
    },
    {
      "type": "Feature",
      "geometry": {
        "type": "Point",
        "coordinates": [
          116.401145,
          39.902776
        ]
      },
      "properties": {
        "person": "利玛窦",
        "name": "北京",
        "type": "death",
        "time": "1610年",
        "modernName": "北京",
        "ancientName": "北京"
      }
    },
    {
      "type": "Feature",
      "geometry": {
        "type": "LineString",
        "coordinates": [
          [
            116.362106,
            39.913704
          ],
          [
            99.289201,
            27.246695
          ],
          [
            113.537971,
            22.18986
          ],
          [
            112.45999,
            23.050368
          ],
          [
            113.562019,
            24.71599
          ],
          [
            115.914825,
            28.665285
          ],
          [
            116.401145,
            39.902776
          ],
          [
            118.79144,
            32.061419
          ],
          [
            116.401145,
            39.902776
          ],
          [
            116.401145,
            39.902776
          ]
        ]
      },
      "properties": {
        "person": "利玛窦",
        "name": "轨迹"
      }
    }
  ]
}