{
  "type": "FeatureCollection",
  "features": [
    {
      "type": "Feature",
      "geometry": {
        "type": "Point",
        "coordinates": [
          113.20034618697811,
          22.886753529671473
        ]
      },
      "properties": {
        "person": "查尔斯·斯宾塞·卓别林",
        "name": "伦敦汉沃尔孤儿学校",
        "type": "normal",
        "time": "1896—1903年",
        "modernName": "伦敦西部米德尔塞克斯郡汉沃尔（Hanwell, Middlesex）",
        "ancientName": "伦敦汉沃尔孤儿学校"
      }
    },
    {
      "type": "Feature",
      "geometry": {
        "type": "Point",
        "coordinates": [
          -0.1225639,
          51.5128732
        ]
      },
      "properties": {
        "person": "查尔斯·斯宾塞·卓别林",
        "name": "伦敦巡演舞台",
        "type": "normal",
        "time": "1903—1907年",
        "modernName": "英国各地剧院",
        "ancientName": "伦敦巡演舞台"
      }
    },
    {
      "type": "Feature",
      "geometry": {
        "type": "Point",
        "coordinates": [
          -74.0060152,
          40.7127281
        ]
      },
      "properties": {
        "person": "查尔斯·斯宾塞·卓别林",
        "name": "纽约与北美巡演",
        "type": "normal",
        "time": "1910—1912年",
        "modernName": "美国纽约、加拿大等地",
        "ancientName": "纽约与北美巡演"
      }
    },
    {
      "type": "Feature",
      "geometry": {
        "type": "Point",
        "coordinates": [
          -118.242766,
          34.0536909
        ]
      },
      "properties": {
        "person": "查尔斯·斯宾塞·卓别林",
        "name": "洛杉矶好莱坞（启斯东时期）",
        "type": "normal",
        "time": "1914年",
        "modernName": "美国加利福尼亚州洛杉矶（Los Angeles）",
        "ancientName": "洛杉矶好莱坞（启斯东时期）"
      }
    },
    {
      "type": "Feature",
      "geometry": {
        "type": "Point",
        "coordinates": [
          -118.242766,
          34.0536909
        ]
      },
      "properties": {
        "person": "查尔斯·斯宾塞·卓别林",
        "name": "好莱坞独立制片时期",
        "type": "normal",
        "time": "1915—1923年",
        "modernName": "美国加利福尼亚州洛杉矶",
        "ancientName": "好莱坞独立制片时期"
      }
    },
    {
      "type": "Feature",
      "geometry": {
        "type": "Point",
        "coordinates": [
          -118.242766,
          34.0536909
        ]
      },
      "properties": {
        "person": "查尔斯·斯宾塞·卓别林",
        "name": "好莱坞创作巅峰期",
        "type": "normal",
        "time": "1925—1940年",
        "modernName": "美国加利福尼亚州洛杉矶",
        "ancientName": "好莱坞创作巅峰期"
      }
    },
    {
      "type": "Feature",
      "geometry": {
        "type": "Point",
        "coordinates": [
          -75.8449946,
          43.1561681
        ]
      },
      "properties": {
        "person": "查尔斯·斯宾塞·卓别林",
        "name": "纽约（政治风波与暂居）",
        "type": "normal",
        "time": "1942—1952年",
        "modernName": "美国纽约州",
        "ancientName": "纽约（政治风波与暂居）"
      }
    },
    {
      "type": "Feature",
      "geometry": {
        "type": "Point",
        "coordinates": [
          6.8464355,
          46.4583169
        ]
      },
      "properties": {
        "person": "查尔斯·斯宾塞·卓别林",
        "name": "瑞士沃韦（Manoir de Ban）",
        "type": "normal",
        "time": "1953—1977年",
        "modernName": "瑞士沃韦（Vevey），日内瓦湖畔",
        "ancientName": "瑞士沃韦（Manoir de Ban）"
      }
    },
    {
      "type": "Feature",
      "geometry": {
        "type": "LineString",
        "coordinates": [
          [
            113.20034618697811,
            22.886753529671473
          ],
          [
            -0.1225639,
            51.5128732
          ],
          [
            -74.0060152,
            40.7127281
          ],
          [
            -118.242766,
            34.0536909
          ],
          [
            -118.242766,
            34.0536909
          ],
          [
            -118.242766,
            34.0536909
          ],
          [
            -75.8449946,
            43.1561681
          ],
          [
            6.8464355,
            46.4583169
          ]
        ]
      },
      "properties": {
        "person": "查尔斯·斯宾塞·卓别林",
        "name": "轨迹"
      }
    }
  ]
}