{
  "type": "FeatureCollection",
  "features": [
    {
      "type": "Feature",
      "geometry": {
        "type": "Point",
        "coordinates": [
          119.937758,
          31.703352
        ]
      },
      "properties": {
        "person": "吕思勉",
        "name": "江苏武进",
        "type": "birth",
        "time": "1884年",
        "modernName": "江苏武进",
        "ancientName": "江苏武进"
      }
    },
    {
      "type": "Feature",
      "geometry": {
        "type": "Point",
        "coordinates": [
          118.75834,
          32.063418
        ]
      },
      "properties": {
        "person": "吕思勉",
        "name": "江苏",
        "type": "normal",
        "time": "1905年",
        "modernName": "江苏",
        "ancientName": "江苏"
      }
    },
    {
      "type": "Feature",
      "geometry": {
        "type": "Point",
        "coordinates": [
          121.469144,
          31.232467
        ]
      },
      "properties": {
        "person": "吕思勉",
        "name": "上海等地",
        "type": "normal",
        "time": "1920年代",
        "modernName": "上海等地",
        "ancientName": "上海等地"
      }
    },
    {
      "type": "Feature",
      "geometry": {
        "type": "Point",
        "coordinates": [
          121.469144,
          31.232467
        ]
      },
      "properties": {
        "person": "吕思勉",
        "name": "上海",
        "type": "normal",
        "time": "1926年",
        "modernName": "上海",
        "ancientName": "上海"
      }
    },
    {
      "type": "Feature",
      "geometry": {
        "type": "Point",
        "coordinates": [
          121.469144,
          31.232467
        ]
      },
      "properties": {
        "person": "吕思勉",
        "name": "上海",
        "type": "normal",
        "time": "1940年代",
        "modernName": "上海",
        "ancientName": "上海"
      }
    },
    {
      "type": "Feature",
      "geometry": {
        "type": "Point",
        "coordinates": [
          121.469144,
          31.232467
        ]
      },
      "properties": {
        "person": "吕思勉",
        "name": "上海",
        "type": "normal",
        "time": "1949年后",
        "modernName": "上海",
        "ancientName": "上海"
      }
    },
    {
      "type": "Feature",
      "geometry": {
        "type": "Point",
        "coordinates": [
          121.469144,
          31.232467
        ]
      },
      "properties": {
        "person": "吕思勉",
        "name": "上海",
        "type": "death",
        "time": "1957年",
        "modernName": "上海",
        "ancientName": "上海"
      }
    },
    {
      "type": "Feature",
      "geometry": {
        "type": "LineString",
        "coordinates": [
          [
            119.937758,
            31.703352
          ],
          [
            118.75834,
            32.063418
          ],
          [
            121.469144,
            31.232467
          ],
          [
            121.469144,
            31.232467
          ],
          [
            121.469144,
            31.232467
          ],
          [
            121.469144,
            31.232467
          ],
          [
            121.469144,
            31.232467
          ]
        ]
      },
      "properties": {
        "person": "吕思勉",
        "name": "轨迹"
      }
    }
  ]
}