{
  "type": "FeatureCollection",
  "features": [
    {
      "type": "Feature",
      "geometry": {
        "type": "Point",
        "coordinates": [
          75.3,
          42.7667
        ]
      },
      "properties": {
        "person": "李白",
        "name": "出生地（存疑）",
        "type": "birth",
        "time": "公元701年",
        "modernName": "吉尔吉斯斯坦托克马克市",
        "ancientName": "说法不一，一说碎叶城，一说蜀中"
      }
    },
    {
      "type": "Feature",
      "geometry": {
        "type": "Point",
        "coordinates": [
          104.7456,
          31.7781
        ]
      },
      "properties": {
        "person": "李白",
        "name": "蜀中（昌隆/青莲）",
        "type": "normal",
        "time": "约公元705年 - 724年",
        "modernName": "四川省江油市青莲镇",
        "ancientName": "昌隆县"
      }
    },
    {
      "type": "Feature",
      "geometry": {
        "type": "Point",
        "coordinates": [
          112.2397,
          30.3351
        ]
      },
      "properties": {
        "person": "李白",
        "name": "江陵",
        "type": "normal",
        "time": "约公元725年",
        "modernName": "湖北省荆州市",
        "ancientName": "荆州江陵"
      }
    },
    {
      "type": "Feature",
      "geometry": {
        "type": "Point",
        "coordinates": [
          118.7969,
          32.0603
        ]
      },
      "properties": {
        "person": "李白",
        "name": "金陵",
        "type": "normal",
        "time": "约公元726年及多次重游",
        "modernName": "江苏省南京市",
        "ancientName": "金陵"
      }
    },
    {
      "type": "Feature",
      "geometry": {
        "type": "Point",
        "coordinates": [
          113.6833,
          31.2556
        ]
      },
      "properties": {
        "person": "李白",
        "name": "安陆",
        "type": "normal",
        "time": "约公元727年 - 735年",
        "modernName": "湖北省安陆市",
        "ancientName": "安州安陆"
      }
    },
    {
      "type": "Feature",
      "geometry": {
        "type": "Point",
        "coordinates": [
          108.9398,
          34.3416
        ]
      },
      "properties": {
        "person": "李白",
        "name": "长安",
        "type": "normal",
        "time": "约公元730年首次入京；公元742年-744年供奉翰林",
        "modernName": "陕西省西安市",
        "ancientName": "长安"
      }
    },
    {
      "type": "Feature",
      "geometry": {
        "type": "Point",
        "coordinates": [
          116.5871,
          35.4149
        ]
      },
      "properties": {
        "person": "李白",
        "name": "东鲁（任城）",
        "type": "normal",
        "time": "约公元736年 - 740年及后期",
        "modernName": "山东省济宁市",
        "ancientName": "任城"
      }
    },
    {
      "type": "Feature",
      "geometry": {
        "type": "Point",
        "coordinates": [
          115.6569,
          34.4142
        ]
      },
      "properties": {
        "person": "李白",
        "name": "梁园（宋州）",
        "type": "normal",
        "time": "约公元744年 - 755年（多次往返）",
        "modernName": "河南省商丘市",
        "ancientName": "宋州梁园"
      }
    },
    {
      "type": "Feature",
      "geometry": {
        "type": "Point",
        "coordinates": [
          118.7587,
          30.9407
        ]
      },
      "properties": {
        "person": "李白",
        "name": "宣城",
        "type": "normal",
        "time": "约公元753年 - 755年（多次）",
        "modernName": "安徽省宣城市",
        "ancientName": "宣城"
      }
    },
    {
      "type": "Feature",
      "geometry": {
        "type": "Point",
        "coordinates": [
          116.0017,
          29.7052
        ]
      },
      "properties": {
        "person": "李白",
        "name": "浔阳（庐山）",
        "type": "normal",
        "time": "公元756年",
        "modernName": "江西省九江市",
        "ancientName": "浔阳庐山"
      }
    },
    {
      "type": "Feature",
      "geometry": {
        "type": "Point",
        "coordinates": [
          106.825,
          28.1333
        ]
      },
      "properties": {
        "person": "李白",
        "name": "夜郎",
        "type": "normal",
        "time": "公元758年 - 759年（流放途中）",
        "modernName": "贵州省遵义市桐梓县",
        "ancientName": "夜郎"
      }
    },
    {
      "type": "Feature",
      "geometry": {
        "type": "Point",
        "coordinates": [
          118.498,
          31.571
        ]
      },
      "properties": {
        "person": "李白",
        "name": "当涂",
        "type": "death",
        "time": "公元762年",
        "modernName": "安徽省马鞍山市当涂县",
        "ancientName": "当涂"
      }
    },
    {
      "type": "Feature",
      "geometry": {
        "type": "LineString",
        "coordinates": [
          [
            75.3,
            42.7667
          ],
          [
            104.7456,
            31.7781
          ],
          [
            112.2397,
            30.3351
          ],
          [
            118.7969,
            32.0603
          ],
          [
            113.6833,
            31.2556
          ],
          [
            108.9398,
            34.3416
          ],
          [
            116.5871,
            35.4149
          ],
          [
            115.6569,
            34.4142
          ],
          [
            118.7587,
            30.9407
          ],
          [
            116.0017,
            29.7052
          ],
          [
            106.825,
            28.1333
          ],
          [
            118.498,
            31.571
          ]
        ]
      },
      "properties": {
        "person": "李白",
        "name": "轨迹"
      }
    },
    {
      "type": "Feature",
      "geometry": {
        "type": "Point",
        "coordinates": [
          112.984,
          34.748
        ]
      },
      "properties": {
        "person": "杜甫",
        "name": "巩县",
        "type": "birth",
        "time": "公元712年",
        "modernName": "河南省郑州市巩义市",
        "ancientName": "巩县"
      }
    },
    {
      "type": "Feature",
      "geometry": {
        "type": "Point",
        "coordinates": [
          108.942,
          34.159
        ]
      },
      "properties": {
        "person": "杜甫",
        "name": "长安",
        "type": "normal",
        "time": "746年-755年",
        "modernName": "陕西省西安市",
        "ancientName": "长安"
      }
    },
    {
      "type": "Feature",
      "geometry": {
        "type": "Point",
        "coordinates": [
          109.586,
          34.956
        ]
      },
      "properties": {
        "person": "杜甫",
        "name": "奉先/鄜州",
        "type": "normal",
        "time": "755年-756年",
        "modernName": "陕西省渭南市蒲城县",
        "ancientName": "奉先/鄜州"
      }
    },
    {
      "type": "Feature",
      "geometry": {
        "type": "Point",
        "coordinates": [
          107.399,
          34.522
        ]
      },
      "properties": {
        "person": "杜甫",
        "name": "凤翔",
        "type": "normal",
        "time": "757年",
        "modernName": "陕西省宝鸡市凤翔区",
        "ancientName": "凤翔"
      }
    },
    {
      "type": "Feature",
      "geometry": {
        "type": "Point",
        "coordinates": [
          109.771,
          34.497
        ]
      },
      "properties": {
        "person": "杜甫",
        "name": "华州",
        "type": "normal",
        "time": "758年-759年",
        "modernName": "陕西省渭南市华州区",
        "ancientName": "华州"
      }
    },
    {
      "type": "Feature",
      "geometry": {
        "type": "Point",
        "coordinates": [
          105.724,
          34.581
        ]
      },
      "properties": {
        "person": "杜甫",
        "name": "秦州/同谷",
        "type": "normal",
        "time": "759年",
        "modernName": "甘肃省天水市",
        "ancientName": "秦州/同谷"
      }
    },
    {
      "type": "Feature",
      "geometry": {
        "type": "Point",
        "coordinates": [
          104.056,
          30.664
        ]
      },
      "properties": {
        "person": "杜甫",
        "name": "成都草堂",
        "type": "normal",
        "time": "759年底-765年",
        "modernName": "四川省成都市",
        "ancientName": "成都"
      }
    },
    {
      "type": "Feature",
      "geometry": {
        "type": "Point",
        "coordinates": [
          109.464,
          31.018
        ]
      },
      "properties": {
        "person": "杜甫",
        "name": "夔州",
        "type": "normal",
        "time": "766年-768年",
        "modernName": "重庆市奉节县",
        "ancientName": "夔州"
      }
    },
    {
      "type": "Feature",
      "geometry": {
        "type": "Point",
        "coordinates": [
          112.411,
          30.042
        ]
      },
      "properties": {
        "person": "杜甫",
        "name": "荆湘（江陵、公安、潭州等）",
        "type": "normal",
        "time": "768年-770年",
        "modernName": "湖北省江陵县、公安县，湖南省长沙市等地",
        "ancientName": "荆湘"
      }
    },
    {
      "type": "Feature",
      "geometry": {
        "type": "Point",
        "coordinates": [
          112.938,
          28.235
        ]
      },
      "properties": {
        "person": "杜甫",
        "name": "潭州往岳阳途中",
        "type": "death",
        "time": "公元770年冬",
        "modernName": "湖南省长沙市至岳阳市之间，具体地点存疑",
        "ancientName": "潭州往岳阳途中"
      }
    },
    {
      "type": "Feature",
      "geometry": {
        "type": "LineString",
        "coordinates": [
          [
            112.984,
            34.748
          ],
          [
            108.942,
            34.159
          ],
          [
            109.586,
            34.956
          ],
          [
            107.399,
            34.522
          ],
          [
            109.771,
            34.497
          ],
          [
            105.724,
            34.581
          ],
          [
            104.056,
            30.664
          ],
          [
            109.464,
            31.018
          ],
          [
            112.411,
            30.042
          ],
          [
            112.938,
            28.235
          ]
        ]
      },
      "properties": {
        "person": "杜甫",
        "name": "轨迹"
      }
    }
  ]
}