{
  "type": "FeatureCollection",
  "features": [
    {
      "type": "Feature",
      "geometry": {
        "type": "Point",
        "coordinates": [
          108.93499,
          34.344762
        ]
      },
      "properties": {
        "person": "太平公主",
        "name": "长安",
        "type": "birth",
        "time": "约 665 年",
        "modernName": "陕西省西安市",
        "ancientName": "长安"
      }
    },
    {
      "type": "Feature",
      "geometry": {
        "type": "Point",
        "coordinates": [
          112.447644,
          34.620728
        ]
      },
      "properties": {
        "person": "太平公主",
        "name": "洛阳",
        "type": "normal",
        "time": "705 年",
        "modernName": "河南省洛阳市",
        "ancientName": "洛阳"
      }
    },
    {
      "type": "Feature",
      "geometry": {
        "type": "Point",
        "coordinates": [
          108.93499,
          34.344762
        ]
      },
      "properties": {
        "person": "太平公主",
        "name": "长安",
        "type": "normal",
        "time": "710 年",
        "modernName": "陕西省西安市",
        "ancientName": "长安"
      }
    },
    {
      "type": "Feature",
      "geometry": {
        "type": "Point",
        "coordinates": [
          108.93499,
          34.344762
        ]
      },
      "properties": {
        "person": "太平公主",
        "name": "长安",
        "type": "death",
        "time": "713 年",
        "modernName": "陕西省西安市",
        "ancientName": "长安"
      }
    },
    {
      "type": "Feature",
      "geometry": {
        "type": "LineString",
        "coordinates": [
          [
            108.93499,
            34.344762
          ],
          [
            112.447644,
            34.620728
          ],
          [
            108.93499,
            34.344762
          ],
          [
            108.93499,
            34.344762
          ]
        ]
      },
      "properties": {
        "person": "太平公主",
        "name": "轨迹"
      }
    }
  ]
}