{
  "type": "FeatureCollection",
  "features": [
    {
      "type": "Feature",
      "geometry": {
        "type": "Point",
        "coordinates": [
          103.79426499503494,
          25.49386797438899
        ]
      },
      "properties": {
        "person": "孟获",
        "name": "存疑（推测为南中建宁郡一带）",
        "type": "birth",
        "time": "存疑，约公元170年代？",
        "modernName": "云南曲靖市一带",
        "ancientName": "南中建宁郡"
      }
    },
    {
      "type": "Feature",
      "geometry": {
        "type": "Point",
        "coordinates": [
          103.79426499503494,
          25.49386797438899
        ]
      },
      "properties": {
        "person": "孟获",
        "name": "建宁郡（叛乱中心）",
        "type": "normal",
        "time": "公元223年-225年",
        "modernName": "云南曲靖市",
        "ancientName": "建宁郡"
      }
    },
    {
      "type": "Feature",
      "geometry": {
        "type": "Point",
        "coordinates": [
          98.85620765142077,
          25.820870779476095
        ]
      },
      "properties": {
        "person": "孟获",
        "name": "泸水（诸葛亮擒纵之地）",
        "type": "normal",
        "time": "公元225年",
        "modernName": "泸水（古称，一般认为指今金沙江或怒江流域部分河段）",
        "ancientName": "泸水（诸葛亮擒纵之地）"
      }
    },
    {
      "type": "Feature",
      "geometry": {
        "type": "Point",
        "coordinates": [
          104.063315,
          30.659867
        ]
      },
      "properties": {
        "person": "孟获",
        "name": "成都（归顺后任职地）",
        "type": "normal",
        "time": "公元225年后",
        "modernName": "四川成都市",
        "ancientName": "蜀汉都城成都"
      }
    },
    {
      "type": "Feature",
      "geometry": {
        "type": "Point",
        "coordinates": [
          104.06379643064969,
          30.575415504297645
        ]
      },
      "properties": {
        "person": "孟获",
        "name": "存疑（可能在成都或南中）",
        "type": "death",
        "time": "存疑，约公元230年代后？",
        "modernName": "四川成都市",
        "ancientName": "存疑，可能为成都或南中地区"
      }
    },
    {
      "type": "Feature",
      "geometry": {
        "type": "LineString",
        "coordinates": [
          [
            103.79426499503494,
            25.49386797438899
          ],
          [
            103.79426499503494,
            25.49386797438899
          ],
          [
            98.85620765142077,
            25.820870779476095
          ],
          [
            104.063315,
            30.659867
          ],
          [
            104.06379643064969,
            30.575415504297645
          ]
        ]
      },
      "properties": {
        "person": "孟获",
        "name": "轨迹"
      }
    }
  ]
}