{
  "type": "FeatureCollection",
  "features": [
    {
      "type": "Feature",
      "geometry": {
        "type": "Point",
        "coordinates": [
          114.308423,
          34.798963
        ]
      },
      "properties": {
        "person": "宋徽宗",
        "name": "开封",
        "type": "normal",
        "time": "1082年",
        "modernName": "开封",
        "ancientName": "开封"
      }
    },
    {
      "type": "Feature",
      "geometry": {
        "type": "Point",
        "coordinates": [
          114.308423,
          34.798963
        ]
      },
      "properties": {
        "person": "宋徽宗",
        "name": "开封",
        "type": "normal",
        "time": "1100年",
        "modernName": "开封",
        "ancientName": "开封"
      }
    },
    {
      "type": "Feature",
      "geometry": {
        "type": "Point",
        "coordinates": [
          114.308423,
          34.798963
        ]
      },
      "properties": {
        "person": "宋徽宗",
        "name": "开封",
        "type": "normal",
        "time": "1110年—1125年",
        "modernName": "开封",
        "ancientName": "开封"
      }
    },
    {
      "type": "Feature",
      "geometry": {
        "type": "Point",
        "coordinates": [
          114.308423,
          34.798963
        ]
      },
      "properties": {
        "person": "宋徽宗",
        "name": "开封",
        "type": "normal",
        "time": "1126年",
        "modernName": "开封",
        "ancientName": "开封"
      }
    },
    {
      "type": "Feature",
      "geometry": {
        "type": "Point",
        "coordinates": [
          129.566646,
          46.327385
        ]
      },
      "properties": {
        "person": "宋徽宗",
        "name": "汴京至金五国城",
        "type": "normal",
        "time": "1127年",
        "modernName": "汴京至金五国城",
        "ancientName": "汴京至金五国城"
      }
    },
    {
      "type": "Feature",
      "geometry": {
        "type": "LineString",
        "coordinates": [
          [
            114.308423,
            34.798963
          ],
          [
            114.308423,
            34.798963
          ],
          [
            114.308423,
            34.798963
          ],
          [
            114.308423,
            34.798963
          ],
          [
            129.566646,
            46.327385
          ]
        ]
      },
      "properties": {
        "person": "宋徽宗",
        "name": "轨迹"
      }
    }
  ]
}