{
  "type": "FeatureCollection",
  "features": [
    {
      "type": "Feature",
      "geometry": {
        "type": "Point",
        "coordinates": [
          114.308423,
          34.798963
        ]
      },
      "properties": {
        "person": "宋真宗",
        "name": "开封",
        "type": "birth",
        "time": "968年",
        "modernName": "开封",
        "ancientName": "开封"
      }
    },
    {
      "type": "Feature",
      "geometry": {
        "type": "Point",
        "coordinates": [
          114.308423,
          34.798963
        ]
      },
      "properties": {
        "person": "宋真宗",
        "name": "开封",
        "type": "normal",
        "time": "997年",
        "modernName": "开封",
        "ancientName": "开封"
      }
    },
    {
      "type": "Feature",
      "geometry": {
        "type": "Point",
        "coordinates": [
          115.048376,
          35.816456
        ]
      },
      "properties": {
        "person": "宋真宗",
        "name": "澶州",
        "type": "normal",
        "time": "1004年",
        "modernName": "澶州",
        "ancientName": "澶州"
      }
    },
    {
      "type": "Feature",
      "geometry": {
        "type": "Point",
        "coordinates": [
          115.048376,
          35.816456
        ]
      },
      "properties": {
        "person": "宋真宗",
        "name": "澶州",
        "type": "normal",
        "time": "1005年",
        "modernName": "澶州",
        "ancientName": "澶州"
      }
    },
    {
      "type": "Feature",
      "geometry": {
        "type": "Point",
        "coordinates": [
          117.122759,
          36.194731
        ]
      },
      "properties": {
        "person": "宋真宗",
        "name": "泰山、亳州、汾阴等",
        "type": "normal",
        "time": "1008年—1019年",
        "modernName": "泰山",
        "ancientName": "泰山、亳州、汾阴等"
      }
    },
    {
      "type": "Feature",
      "geometry": {
        "type": "Point",
        "coordinates": [
          114.308423,
          34.798963
        ]
      },
      "properties": {
        "person": "宋真宗",
        "name": "开封",
        "type": "normal",
        "time": "1022年",
        "modernName": "开封",
        "ancientName": "开封"
      }
    },
    {
      "type": "Feature",
      "geometry": {
        "type": "LineString",
        "coordinates": [
          [
            114.308423,
            34.798963
          ],
          [
            114.308423,
            34.798963
          ],
          [
            115.048376,
            35.816456
          ],
          [
            115.048376,
            35.816456
          ],
          [
            117.122759,
            36.194731
          ],
          [
            114.308423,
            34.798963
          ]
        ]
      },
      "properties": {
        "person": "宋真宗",
        "name": "轨迹"
      }
    }
  ]
}