{
  "type": "FeatureCollection",
  "features": [
    {
      "type": "Feature",
      "geometry": {
        "type": "Point",
        "coordinates": [
          115.650849,
          34.416531
        ]
      },
      "properties": {
        "person": "子兹甫",
        "name": "商丘",
        "type": "birth",
        "time": "约前652年",
        "modernName": "河南省商丘市",
        "ancientName": "宋国商丘"
      }
    },
    {
      "type": "Feature",
      "geometry": {
        "type": "Point",
        "coordinates": [
          117.014794,
          36.669875
        ]
      },
      "properties": {
        "person": "子兹甫",
        "name": "齐国",
        "type": "normal",
        "time": "约前643年",
        "modernName": "山东省北部，齐都临淄一带",
        "ancientName": "齐国"
      }
    },
    {
      "type": "Feature",
      "geometry": {
        "type": "Point",
        "coordinates": [
          115.066092,
          34.447636
        ]
      },
      "properties": {
        "person": "子兹甫",
        "name": "盂地",
        "type": "normal",
        "time": "前639年",
        "modernName": "河南省睢县西北",
        "ancientName": "盂地"
      }
    },
    {
      "type": "Feature",
      "geometry": {
        "type": "Point",
        "coordinates": [
          115.299457,
          34.093343
        ]
      },
      "properties": {
        "person": "子兹甫",
        "name": "泓水",
        "type": "normal",
        "time": "前638年",
        "modernName": "河南省柘城一带",
        "ancientName": "泓水"
      }
    },
    {
      "type": "Feature",
      "geometry": {
        "type": "Point",
        "coordinates": [
          115.650849,
          34.416531
        ]
      },
      "properties": {
        "person": "子兹甫",
        "name": "商丘",
        "type": "death",
        "time": "前637年",
        "modernName": "河南省商丘市",
        "ancientName": "宋国商丘"
      }
    },
    {
      "type": "Feature",
      "geometry": {
        "type": "LineString",
        "coordinates": [
          [
            115.650849,
            34.416531
          ],
          [
            117.014794,
            36.669875
          ],
          [
            115.066092,
            34.447636
          ],
          [
            115.299457,
            34.093343
          ],
          [
            115.650849,
            34.416531
          ]
        ]
      },
      "properties": {
        "person": "子兹甫",
        "name": "轨迹"
      }
    }
  ]
}