{
  "type": "FeatureCollection",
  "features": [
    {
      "type": "Feature",
      "geometry": {
        "type": "Point",
        "coordinates": [
          112.42606,
          39.330573
        ]
      },
      "properties": {
        "person": "尉迟敬德",
        "name": "朔州善阳",
        "type": "birth",
        "time": "585年前后",
        "modernName": "朔州",
        "ancientName": "朔州善阳"
      }
    },
    {
      "type": "Feature",
      "geometry": {
        "type": "Point",
        "coordinates": [
          116.362106,
          39.913704
        ]
      },
      "properties": {
        "person": "尉迟敬德",
        "name": "并州",
        "type": "normal",
        "time": "620年",
        "modernName": "并州",
        "ancientName": "并州"
      }
    },
    {
      "type": "Feature",
      "geometry": {
        "type": "Point",
        "coordinates": [
          113.199337,
          34.846805
        ]
      },
      "properties": {
        "person": "尉迟敬德",
        "name": "虎牢关",
        "type": "normal",
        "time": "621年",
        "modernName": "虎牢关",
        "ancientName": "虎牢关"
      }
    },
    {
      "type": "Feature",
      "geometry": {
        "type": "Point",
        "coordinates": [
          108.902362,
          34.160327
        ]
      },
      "properties": {
        "person": "尉迟敬德",
        "name": "长安玄武门",
        "type": "normal",
        "time": "626年",
        "modernName": "长安玄武门",
        "ancientName": "长安玄武门"
      }
    },
    {
      "type": "Feature",
      "geometry": {
        "type": "Point",
        "coordinates": [
          108.902362,
          34.160327
        ]
      },
      "properties": {
        "person": "尉迟敬德",
        "name": "长安",
        "type": "normal",
        "time": "643年",
        "modernName": "长安",
        "ancientName": "长安"
      }
    },
    {
      "type": "Feature",
      "geometry": {
        "type": "LineString",
        "coordinates": [
          [
            112.42606,
            39.330573
          ],
          [
            116.362106,
            39.913704
          ],
          [
            113.199337,
            34.846805
          ],
          [
            108.902362,
            34.160327
          ],
          [
            108.902362,
            34.160327
          ]
        ]
      },
      "properties": {
        "person": "尉迟敬德",
        "name": "轨迹"
      }
    }
  ]
}