{
  "type": "FeatureCollection",
  "features": [
    {
      "type": "Feature",
      "geometry": {
        "type": "Point",
        "coordinates": [
          112.35403,
          32.523288
        ]
      },
      "properties": {
        "person": "岑参",
        "name": "南阳新野",
        "type": "normal",
        "time": "约715年",
        "modernName": "南阳新野",
        "ancientName": "南阳新野"
      }
    },
    {
      "type": "Feature",
      "geometry": {
        "type": "Point",
        "coordinates": [
          108.902362,
          34.160327
        ]
      },
      "properties": {
        "person": "岑参",
        "name": "长安",
        "type": "normal",
        "time": "天宝三载(744)年",
        "modernName": "长安",
        "ancientName": "长安"
      }
    },
    {
      "type": "Feature",
      "geometry": {
        "type": "Point",
        "coordinates": [
          107.656879,
          34.221408
        ]
      },
      "properties": {
        "person": "岑参",
        "name": "安西",
        "type": "normal",
        "time": "天宝八载(749)年",
        "modernName": "安西",
        "ancientName": "安西"
      }
    },
    {
      "type": "Feature",
      "geometry": {
        "type": "Point",
        "coordinates": [
          89.185423,
          44.095634
        ]
      },
      "properties": {
        "person": "岑参",
        "name": "北庭/轮台",
        "type": "normal",
        "time": "天宝十三载(754)年",
        "modernName": "北庭",
        "ancientName": "北庭/轮台"
      }
    },
    {
      "type": "Feature",
      "geometry": {
        "type": "Point",
        "coordinates": [
          108.902362,
          34.160327
        ]
      },
      "properties": {
        "person": "岑参",
        "name": "长安",
        "type": "normal",
        "time": "至德二载(757)年",
        "modernName": "长安",
        "ancientName": "长安"
      }
    },
    {
      "type": "Feature",
      "geometry": {
        "type": "Point",
        "coordinates": [
          104.063796,
          30.575416
        ]
      },
      "properties": {
        "person": "岑参",
        "name": "成都",
        "type": "death",
        "time": "大历五年(770)",
        "modernName": "成都",
        "ancientName": "成都"
      }
    },
    {
      "type": "Feature",
      "geometry": {
        "type": "LineString",
        "coordinates": [
          [
            112.35403,
            32.523288
          ],
          [
            108.902362,
            34.160327
          ],
          [
            107.656879,
            34.221408
          ],
          [
            89.185423,
            44.095634
          ],
          [
            108.902362,
            34.160327
          ],
          [
            104.063796,
            30.575416
          ]
        ]
      },
      "properties": {
        "person": "岑参",
        "name": "轨迹"
      }
    }
  ]
}