{
  "type": "FeatureCollection",
  "features": [
    {
      "type": "Feature",
      "geometry": {
        "type": "Point",
        "coordinates": [
          129.2247,
          35.8562
        ]
      },
      "properties": {
        "person": "崔致远",
        "name": "新罗沙梁部",
        "type": "birth",
        "time": "约公元857年（存疑）",
        "modernName": "韩国庆尚北道庆州市",
        "ancientName": "新罗沙梁部"
      }
    },
    {
      "type": "Feature",
      "geometry": {
        "type": "Point",
        "coordinates": [
          120.7592,
          37.8107
        ]
      },
      "properties": {
        "person": "崔致远",
        "name": "唐登州",
        "type": "normal",
        "time": "约公元869年",
        "modernName": "山东省烟台市蓬莱区",
        "ancientName": "唐登州"
      }
    },
    {
      "type": "Feature",
      "geometry": {
        "type": "Point",
        "coordinates": [
          108.9398,
          34.3416
        ]
      },
      "properties": {
        "person": "崔致远",
        "name": "唐长安",
        "type": "normal",
        "time": "约公元869年-878年",
        "modernName": "陕西省西安市",
        "ancientName": "唐长安"
      }
    },
    {
      "type": "Feature",
      "geometry": {
        "type": "Point",
        "coordinates": [
          112.454,
          34.6197
        ]
      },
      "properties": {
        "person": "崔致远",
        "name": "唐洛阳",
        "type": "normal",
        "time": "公元878年",
        "modernName": "河南省洛阳市",
        "ancientName": "唐洛阳"
      }
    },
    {
      "type": "Feature",
      "geometry": {
        "type": "Point",
        "coordinates": [
          119.0284,
          31.6531
        ]
      },
      "properties": {
        "person": "崔致远",
        "name": "唐溧水",
        "type": "normal",
        "time": "约公元879年-880年",
        "modernName": "江苏省南京市溧水区",
        "ancientName": "唐溧水县"
      }
    },
    {
      "type": "Feature",
      "geometry": {
        "type": "Point",
        "coordinates": [
          119.413,
          32.3942
        ]
      },
      "properties": {
        "person": "崔致远",
        "name": "唐淮南（扬州）",
        "type": "normal",
        "time": "约公元880年-884年",
        "modernName": "江苏省扬州市",
        "ancientName": "唐淮南节度使治所"
      }
    },
    {
      "type": "Feature",
      "geometry": {
        "type": "Point",
        "coordinates": [
          120.7592,
          37.8107
        ]
      },
      "properties": {
        "person": "崔致远",
        "name": "唐登州",
        "type": "normal",
        "time": "约公元884年",
        "modernName": "山东省烟台市蓬莱区",
        "ancientName": "唐登州"
      }
    },
    {
      "type": "Feature",
      "geometry": {
        "type": "Point",
        "coordinates": [
          129.2247,
          35.8562
        ]
      },
      "properties": {
        "person": "崔致远",
        "name": "新罗金城",
        "type": "normal",
        "time": "约公元885年-约9世纪90年代",
        "modernName": "韩国庆尚北道庆州市",
        "ancientName": "新罗金城"
      }
    },
    {
      "type": "Feature",
      "geometry": {
        "type": "Point",
        "coordinates": [
          128.05,
          35.7667
        ]
      },
      "properties": {
        "person": "崔致远",
        "name": "新罗伽倻山",
        "type": "death",
        "time": "约公元908年或之后（存疑）",
        "modernName": "韩国庆尚南道陕川郡伽倻山",
        "ancientName": "新罗伽倻山"
      }
    },
    {
      "type": "Feature",
      "geometry": {
        "type": "LineString",
        "coordinates": [
          [
            129.2247,
            35.8562
          ],
          [
            120.7592,
            37.8107
          ],
          [
            108.9398,
            34.3416
          ],
          [
            112.454,
            34.6197
          ],
          [
            119.0284,
            31.6531
          ],
          [
            119.413,
            32.3942
          ],
          [
            120.7592,
            37.8107
          ],
          [
            129.2247,
            35.8562
          ],
          [
            128.05,
            35.7667
          ]
        ]
      },
      "properties": {
        "person": "崔致远",
        "name": "轨迹"
      }
    }
  ]
}