{
  "type": "FeatureCollection",
  "features": [
    {
      "type": "Feature",
      "geometry": {
        "type": "Point",
        "coordinates": [
          116.898856,
          24.141542
        ]
      },
      "properties": {
        "person": "常遇春",
        "name": "和阳",
        "type": "normal",
        "time": "元至正十五年（1355）",
        "modernName": "和阳",
        "ancientName": "和阳"
      }
    },
    {
      "type": "Feature",
      "geometry": {
        "type": "Point",
        "coordinates": [
          117.212095,
          31.784661
        ]
      },
      "properties": {
        "person": "常遇春",
        "name": "采石矶、太平",
        "type": "normal",
        "time": "至正十五年（1355）",
        "modernName": "采石矶",
        "ancientName": "采石矶、太平"
      }
    },
    {
      "type": "Feature",
      "geometry": {
        "type": "Point",
        "coordinates": [
          118.854512,
          28.973314
        ]
      },
      "properties": {
        "person": "常遇春",
        "name": "衢州",
        "type": "normal",
        "time": "至正十八年（1358）",
        "modernName": "衢州",
        "ancientName": "衢州"
      }
    },
    {
      "type": "Feature",
      "geometry": {
        "type": "Point",
        "coordinates": [
          114.928769,
          25.834323
        ]
      },
      "properties": {
        "person": "常遇春",
        "name": "赣州",
        "type": "normal",
        "time": "至正二十一年（1361）",
        "modernName": "赣州",
        "ancientName": "赣州"
      }
    },
    {
      "type": "Feature",
      "geometry": {
        "type": "Point",
        "coordinates": [
          110.330191,
          20.031815
        ]
      },
      "properties": {
        "person": "常遇春",
        "name": "鄱阳湖",
        "type": "normal",
        "time": "至正二十三年（1363）",
        "modernName": "鄱阳湖",
        "ancientName": "鄱阳湖"
      }
    },
    {
      "type": "Feature",
      "geometry": {
        "type": "Point",
        "coordinates": [
          117.014794,
          36.669875
        ]
      },
      "properties": {
        "person": "常遇春",
        "name": "山东、河南",
        "type": "normal",
        "time": "至正二十七年（1367）",
        "modernName": "山东",
        "ancientName": "山东、河南"
      }
    },
    {
      "type": "Feature",
      "geometry": {
        "type": "Point",
        "coordinates": [
          109.657196,
          23.399744
        ]
      },
      "properties": {
        "person": "常遇春",
        "name": "大都",
        "type": "normal",
        "time": "洪武元年（1368）",
        "modernName": "大都",
        "ancientName": "大都"
      }
    },
    {
      "type": "Feature",
      "geometry": {
        "type": "Point",
        "coordinates": [
          118.79144,
          32.061419
        ]
      },
      "properties": {
        "person": "常遇春",
        "name": "南京",
        "type": "normal",
        "time": "洪武二年（1369）",
        "modernName": "南京",
        "ancientName": "南京"
      }
    },
    {
      "type": "Feature",
      "geometry": {
        "type": "Point",
        "coordinates": [
          118.262594,
          39.705102
        ]
      },
      "properties": {
        "person": "常遇春",
        "name": "开平",
        "type": "death",
        "time": "洪武二年（1369）",
        "modernName": "开平",
        "ancientName": "开平"
      }
    },
    {
      "type": "Feature",
      "geometry": {
        "type": "LineString",
        "coordinates": [
          [
            116.898856,
            24.141542
          ],
          [
            117.212095,
            31.784661
          ],
          [
            118.854512,
            28.973314
          ],
          [
            114.928769,
            25.834323
          ],
          [
            110.330191,
            20.031815
          ],
          [
            117.014794,
            36.669875
          ],
          [
            109.657196,
            23.399744
          ],
          [
            118.79144,
            32.061419
          ],
          [
            118.262594,
            39.705102
          ]
        ]
      },
      "properties": {
        "person": "常遇春",
        "name": "轨迹"
      }
    }
  ]
}