{
  "type": "FeatureCollection",
  "features": [
    {
      "type": "Feature",
      "geometry": {
        "type": "Point",
        "coordinates": [
          112.579017,
          33.018182
        ]
      },
      "properties": {
        "person": "张仲景",
        "name": "南阳",
        "type": "birth",
        "time": "约公元150年",
        "modernName": "南阳",
        "ancientName": "南阳"
      }
    },
    {
      "type": "Feature",
      "geometry": {
        "type": "Point",
        "coordinates": [
          116.362106,
          39.913704
        ]
      },
      "properties": {
        "person": "张仲景",
        "name": "不详",
        "type": "normal",
        "time": "约公元210年前后",
        "modernName": "不详",
        "ancientName": "不详"
      }
    },
    {
      "type": "Feature",
      "geometry": {
        "type": "Point",
        "coordinates": [
          116.362106,
          39.913704
        ]
      },
      "properties": {
        "person": "张仲景",
        "name": "不详",
        "type": "death",
        "time": "约公元219年",
        "modernName": "不详",
        "ancientName": "不详"
      }
    },
    {
      "type": "Feature",
      "geometry": {
        "type": "Point",
        "coordinates": [
          112.933432,
          28.231811
        ]
      },
      "properties": {
        "person": "张仲景",
        "name": "长沙",
        "type": "normal",
        "time": "传说中",
        "modernName": "长沙",
        "ancientName": "长沙"
      }
    },
    {
      "type": "Feature",
      "geometry": {
        "type": "LineString",
        "coordinates": [
          [
            112.579017,
            33.018182
          ],
          [
            116.362106,
            39.913704
          ],
          [
            116.362106,
            39.913704
          ],
          [
            112.933432,
            28.231811
          ]
        ]
      },
      "properties": {
        "person": "张仲景",
        "name": "轨迹"
      }
    }
  ]
}