{
  "type": "FeatureCollection",
  "features": [
    {
      "type": "Feature",
      "geometry": {
        "type": "Point",
        "coordinates": [
          113.8527,
          34.0358
        ]
      },
      "properties": {
        "person": "张飞",
        "name": "许都",
        "type": "normal",
        "time": "公元196-199年（期间）",
        "modernName": "河南省许昌市建安区",
        "ancientName": "司隶校尉部颍川郡许县"
      }
    },
    {
      "type": "Feature",
      "geometry": {
        "type": "Point",
        "coordinates": [
          112.361,
          32.524
        ]
      },
      "properties": {
        "person": "张飞",
        "name": "新野",
        "type": "normal",
        "time": "公元201-208年",
        "modernName": "河南省南阳市新野县",
        "ancientName": "荆州南阳郡新野县"
      }
    },
    {
      "type": "Feature",
      "geometry": {
        "type": "Point",
        "coordinates": [
          112.239,
          30.335
        ]
      },
      "properties": {
        "person": "张飞",
        "name": "南郡江陵",
        "type": "normal",
        "time": "公元209-211年",
        "modernName": "湖北省荆州市荆州区",
        "ancientName": "荆州南郡江陵县"
      }
    },
    {
      "type": "Feature",
      "geometry": {
        "type": "Point",
        "coordinates": [
          106.5516,
          29.563
        ]
      },
      "properties": {
        "person": "张飞",
        "name": "江州",
        "type": "normal",
        "time": "公元212-214年（入川期间）",
        "modernName": "重庆市渝中区",
        "ancientName": "益州巴郡江州县"
      }
    },
    {
      "type": "Feature",
      "geometry": {
        "type": "Point",
        "coordinates": [
          106.005,
          31.58
        ]
      },
      "properties": {
        "person": "张飞",
        "name": "阆中",
        "type": "death",
        "time": "公元221年",
        "modernName": "四川省南充市阆中市",
        "ancientName": "益州巴西郡阆中县"
      }
    },
    {
      "type": "Feature",
      "geometry": {
        "type": "LineString",
        "coordinates": [
          [
            113.8527,
            34.0358
          ],
          [
            112.361,
            32.524
          ],
          [
            112.239,
            30.335
          ],
          [
            106.5516,
            29.563
          ],
          [
            106.005,
            31.58
          ]
        ]
      },
      "properties": {
        "person": "张飞",
        "name": "轨迹"
      }
    }
  ]
}