{
  "type": "FeatureCollection",
  "features": [
    {
      "type": "Feature",
      "geometry": {
        "type": "Point",
        "coordinates": [
          120.280178,
          31.923602
        ]
      },
      "properties": {
        "person": "徐霞客",
        "name": "江阴",
        "type": "birth",
        "time": "万历十四年（1587年）",
        "modernName": "江阴",
        "ancientName": "江阴"
      }
    },
    {
      "type": "Feature",
      "geometry": {
        "type": "Point",
        "coordinates": [
          116.303695,
          30.456617
        ]
      },
      "properties": {
        "person": "徐霞客",
        "name": "太湖、泰山",
        "type": "normal",
        "time": "万历三十六年（1608年）",
        "modernName": "太湖",
        "ancientName": "太湖、泰山"
      }
    },
    {
      "type": "Feature",
      "geometry": {
        "type": "Point",
        "coordinates": [
          116.362106,
          39.913704
        ]
      },
      "properties": {
        "person": "徐霞客",
        "name": "闽、赣、湘、桂",
        "type": "normal",
        "time": "崇祯元年（1628年）",
        "modernName": "闽",
        "ancientName": "闽、赣、湘、桂"
      }
    },
    {
      "type": "Feature",
      "geometry": {
        "type": "Point",
        "coordinates": [
          102.707936,
          25.049408
        ]
      },
      "properties": {
        "person": "徐霞客",
        "name": "云南",
        "type": "normal",
        "time": "崇祯十年（1637年）",
        "modernName": "云南",
        "ancientName": "云南"
      }
    },
    {
      "type": "Feature",
      "geometry": {
        "type": "Point",
        "coordinates": [
          120.280178,
          31.923602
        ]
      },
      "properties": {
        "person": "徐霞客",
        "name": "江阴",
        "type": "normal",
        "time": "崇祯十三年（1640年）",
        "modernName": "江阴",
        "ancientName": "江阴"
      }
    },
    {
      "type": "Feature",
      "geometry": {
        "type": "Point",
        "coordinates": [
          120.280178,
          31.923602
        ]
      },
      "properties": {
        "person": "徐霞客",
        "name": "江阴",
        "type": "death",
        "time": "崇祯十四年（1641年）",
        "modernName": "江阴",
        "ancientName": "江阴"
      }
    },
    {
      "type": "Feature",
      "geometry": {
        "type": "LineString",
        "coordinates": [
          [
            120.280178,
            31.923602
          ],
          [
            116.303695,
            30.456617
          ],
          [
            116.362106,
            39.913704
          ],
          [
            102.707936,
            25.049408
          ],
          [
            120.280178,
            31.923602
          ],
          [
            120.280178,
            31.923602
          ]
        ]
      },
      "properties": {
        "person": "徐霞客",
        "name": "轨迹"
      }
    }
  ]
}