{
  "type": "FeatureCollection",
  "features": [
    {
      "type": "Feature",
      "geometry": {
        "type": "Point",
        "coordinates": [
          98.699286,
          24.396615
        ]
      },
      "properties": {
        "person": "铁木真，尊号\"成吉思汗\"",
        "name": "克烈部王汗驻地（蒙古草原）",
        "type": "normal",
        "time": "约12世纪80年代",
        "modernName": "蒙古国中部草原一带",
        "ancientName": "蒙古草原克烈部驻地"
      }
    },
    {
      "type": "Feature",
      "geometry": {
        "type": "Point",
        "coordinates": [
          100.144167,
          35.790962
        ]
      },
      "properties": {
        "person": "铁木真，尊号\"成吉思汗\"",
        "name": "漠北斡难河上游",
        "type": "birth",
        "time": "约1162年（存疑）",
        "modernName": "蒙古国肯特省鄂嫩河上游一带",
        "ancientName": "斡难河上游"
      }
    },
    {
      "type": "Feature",
      "geometry": {
        "type": "Point",
        "coordinates": [
          111.321981,
          24.424119
        ]
      },
      "properties": {
        "person": "铁木真，尊号\"成吉思汗\"",
        "name": "斡难河源（建国大典之地）",
        "type": "normal",
        "time": "1206年",
        "modernName": "蒙古国肯特省鄂嫩河源头一带",
        "ancientName": "斡难河源"
      }
    },
    {
      "type": "Feature",
      "geometry": {
        "type": "Point",
        "coordinates": [
          87.287667,
          44.010524
        ]
      },
      "properties": {
        "person": "铁木真，尊号\"成吉思汗\"",
        "name": "撒马尔罕（中亚）",
        "type": "normal",
        "time": "1219—1225年（第一次西征期间）",
        "modernName": "乌兹别克斯坦撒马尔罕市",
        "ancientName": "撒马尔罕"
      }
    },
    {
      "type": "Feature",
      "geometry": {
        "type": "Point",
        "coordinates": [
          106.13305584641365,
          34.75089794710079
        ]
      },
      "properties": {
        "person": "铁木真，尊号\"成吉思汗\"",
        "name": "六盘山",
        "type": "death",
        "time": "1227年",
        "modernName": "甘肃省清水县一带",
        "ancientName": "六盘山"
      }
    },
    {
      "type": "Feature",
      "geometry": {
        "type": "LineString",
        "coordinates": [
          [
            98.699286,
            24.396615
          ],
          [
            100.144167,
            35.790962
          ],
          [
            111.321981,
            24.424119
          ],
          [
            87.287667,
            44.010524
          ],
          [
            106.13305584641365,
            34.75089794710079
          ]
        ]
      },
      "properties": {
        "person": "铁木真，尊号\"成吉思汗\"",
        "name": "轨迹"
      }
    }
  ]
}