{
  "type": "FeatureCollection",
  "features": [
    {
      "type": "Feature",
      "geometry": {
        "type": "Point",
        "coordinates": [
          115.7793,
          33.8693
        ]
      },
      "properties": {
        "person": "曹操",
        "name": "沛国谯县",
        "type": "birth",
        "time": "公元155年",
        "modernName": "安徽省亳州市",
        "ancientName": "沛国谯县"
      }
    },
    {
      "type": "Feature",
      "geometry": {
        "type": "Point",
        "coordinates": [
          112.454,
          34.6197
        ]
      },
      "properties": {
        "person": "曹操",
        "name": "洛阳",
        "type": "normal",
        "time": "约公元174年 - 188年",
        "modernName": "河南省洛阳市",
        "ancientName": "洛阳"
      }
    },
    {
      "type": "Feature",
      "geometry": {
        "type": "Point",
        "coordinates": [
          116.12353,
          35.14277
        ]
      },
      "properties": {
        "person": "曹操",
        "name": "兖州",
        "type": "normal",
        "time": "公元192年 - 195年",
        "modernName": "山东省西南部、河南省东部",
        "ancientName": "兖州"
      }
    },
    {
      "type": "Feature",
      "geometry": {
        "type": "Point",
        "coordinates": [
          113.8527,
          34.0358
        ]
      },
      "properties": {
        "person": "曹操",
        "name": "许县",
        "type": "normal",
        "time": "公元196年 - 220年",
        "modernName": "河南省许昌市",
        "ancientName": "许县"
      }
    },
    {
      "type": "Feature",
      "geometry": {
        "type": "Point",
        "coordinates": [
          113.95448,
          34.7257056
        ]
      },
      "properties": {
        "person": "曹操",
        "name": "官渡",
        "type": "normal",
        "time": "公元200年",
        "modernName": "河南省中牟县东北",
        "ancientName": "官渡"
      }
    },
    {
      "type": "Feature",
      "geometry": {
        "type": "Point",
        "coordinates": [
          114.6026094,
          36.3299194
        ]
      },
      "properties": {
        "person": "曹操",
        "name": "邺城",
        "type": "normal",
        "time": "公元204年 - 220年",
        "modernName": "河北省临漳县西南",
        "ancientName": "邺城"
      }
    },
    {
      "type": "Feature",
      "geometry": {
        "type": "Point",
        "coordinates": [
          119.6050993,
          41.1708337
        ]
      },
      "properties": {
        "person": "曹操",
        "name": "柳城",
        "type": "normal",
        "time": "公元207年",
        "modernName": "辽宁省朝阳市西南",
        "ancientName": "柳城"
      }
    },
    {
      "type": "Feature",
      "geometry": {
        "type": "Point",
        "coordinates": [
          113.5766291,
          28.7153239
        ]
      },
      "properties": {
        "person": "曹操",
        "name": "赤壁",
        "type": "normal",
        "time": "公元208年",
        "modernName": "湖北省赤壁市西北，一说为其他地点",
        "ancientName": "赤壁"
      }
    },
    {
      "type": "Feature",
      "geometry": {
        "type": "Point",
        "coordinates": [
          107.0238,
          33.0676
        ]
      },
      "properties": {
        "person": "曹操",
        "name": "汉中",
        "type": "normal",
        "time": "公元215年、219年",
        "modernName": "陕西省汉中市",
        "ancientName": "汉中"
      }
    },
    {
      "type": "Feature",
      "geometry": {
        "type": "Point",
        "coordinates": [
          112.454,
          34.6197
        ]
      },
      "properties": {
        "person": "曹操",
        "name": "洛阳",
        "type": "death",
        "time": "公元220年",
        "modernName": "河南省洛阳市",
        "ancientName": "洛阳"
      }
    },
    {
      "type": "Feature",
      "geometry": {
        "type": "LineString",
        "coordinates": [
          [
            115.7793,
            33.8693
          ],
          [
            112.454,
            34.6197
          ],
          [
            116.12353,
            35.14277
          ],
          [
            113.8527,
            34.0358
          ],
          [
            113.95448,
            34.7257056
          ],
          [
            114.6026094,
            36.3299194
          ],
          [
            119.6050993,
            41.1708337
          ],
          [
            113.5766291,
            28.7153239
          ],
          [
            107.0238,
            33.0676
          ],
          [
            112.454,
            34.6197
          ]
        ]
      },
      "properties": {
        "person": "曹操",
        "name": "轨迹"
      }
    }
  ]
}