{
  "type": "FeatureCollection",
  "features": [
    {
      "type": "Feature",
      "geometry": {
        "type": "Point",
        "coordinates": [
          75.3,
          42.7667
        ]
      },
      "properties": {
        "person": "李白",
        "name": "出生地（存疑）",
        "type": "birth",
        "time": "公元701年",
        "modernName": "吉尔吉斯斯坦托克马克市",
        "ancientName": "说法不一，一说碎叶城，一说蜀中"
      }
    },
    {
      "type": "Feature",
      "geometry": {
        "type": "Point",
        "coordinates": [
          104.7456,
          31.7781
        ]
      },
      "properties": {
        "person": "李白",
        "name": "蜀中（昌隆/青莲）",
        "type": "normal",
        "time": "约公元705年 - 724年",
        "modernName": "四川省江油市青莲镇",
        "ancientName": "昌隆县"
      }
    },
    {
      "type": "Feature",
      "geometry": {
        "type": "Point",
        "coordinates": [
          112.2397,
          30.3351
        ]
      },
      "properties": {
        "person": "李白",
        "name": "江陵",
        "type": "normal",
        "time": "约公元725年",
        "modernName": "湖北省荆州市",
        "ancientName": "荆州江陵"
      }
    },
    {
      "type": "Feature",
      "geometry": {
        "type": "Point",
        "coordinates": [
          118.7969,
          32.0603
        ]
      },
      "properties": {
        "person": "李白",
        "name": "金陵",
        "type": "normal",
        "time": "约公元726年及多次重游",
        "modernName": "江苏省南京市",
        "ancientName": "金陵"
      }
    },
    {
      "type": "Feature",
      "geometry": {
        "type": "Point",
        "coordinates": [
          113.6833,
          31.2556
        ]
      },
      "properties": {
        "person": "李白",
        "name": "安陆",
        "type": "normal",
        "time": "约公元727年 - 735年",
        "modernName": "湖北省安陆市",
        "ancientName": "安州安陆"
      }
    },
    {
      "type": "Feature",
      "geometry": {
        "type": "Point",
        "coordinates": [
          108.9398,
          34.3416
        ]
      },
      "properties": {
        "person": "李白",
        "name": "长安",
        "type": "normal",
        "time": "约公元730年首次入京；公元742年-744年供奉翰林",
        "modernName": "陕西省西安市",
        "ancientName": "长安"
      }
    },
    {
      "type": "Feature",
      "geometry": {
        "type": "Point",
        "coordinates": [
          116.5871,
          35.4149
        ]
      },
      "properties": {
        "person": "李白",
        "name": "东鲁（任城）",
        "type": "normal",
        "time": "约公元736年 - 740年及后期",
        "modernName": "山东省济宁市",
        "ancientName": "任城"
      }
    },
    {
      "type": "Feature",
      "geometry": {
        "type": "Point",
        "coordinates": [
          115.6569,
          34.4142
        ]
      },
      "properties": {
        "person": "李白",
        "name": "梁园（宋州）",
        "type": "normal",
        "time": "约公元744年 - 755年（多次往返）",
        "modernName": "河南省商丘市",
        "ancientName": "宋州梁园"
      }
    },
    {
      "type": "Feature",
      "geometry": {
        "type": "Point",
        "coordinates": [
          118.7587,
          30.9407
        ]
      },
      "properties": {
        "person": "李白",
        "name": "宣城",
        "type": "normal",
        "time": "约公元753年 - 755年（多次）",
        "modernName": "安徽省宣城市",
        "ancientName": "宣城"
      }
    },
    {
      "type": "Feature",
      "geometry": {
        "type": "Point",
        "coordinates": [
          116.0017,
          29.7052
        ]
      },
      "properties": {
        "person": "李白",
        "name": "浔阳（庐山）",
        "type": "normal",
        "time": "公元756年",
        "modernName": "江西省九江市",
        "ancientName": "浔阳庐山"
      }
    },
    {
      "type": "Feature",
      "geometry": {
        "type": "Point",
        "coordinates": [
          106.825,
          28.1333
        ]
      },
      "properties": {
        "person": "李白",
        "name": "夜郎",
        "type": "normal",
        "time": "公元758年 - 759年（流放途中）",
        "modernName": "贵州省遵义市桐梓县",
        "ancientName": "夜郎"
      }
    },
    {
      "type": "Feature",
      "geometry": {
        "type": "Point",
        "coordinates": [
          118.498,
          31.571
        ]
      },
      "properties": {
        "person": "李白",
        "name": "当涂",
        "type": "death",
        "time": "公元762年",
        "modernName": "安徽省马鞍山市当涂县",
        "ancientName": "当涂"
      }
    },
    {
      "type": "Feature",
      "geometry": {
        "type": "LineString",
        "coordinates": [
          [
            75.3,
            42.7667
          ],
          [
            104.7456,
            31.7781
          ],
          [
            112.2397,
            30.3351
          ],
          [
            118.7969,
            32.0603
          ],
          [
            113.6833,
            31.2556
          ],
          [
            108.9398,
            34.3416
          ],
          [
            116.5871,
            35.4149
          ],
          [
            115.6569,
            34.4142
          ],
          [
            118.7587,
            30.9407
          ],
          [
            116.0017,
            29.7052
          ],
          [
            106.825,
            28.1333
          ],
          [
            118.498,
            31.571
          ]
        ]
      },
      "properties": {
        "person": "李白",
        "name": "轨迹"
      }
    }
  ]
}