{
  "type": "FeatureCollection",
  "features": [
    {
      "type": "Feature",
      "geometry": {
        "type": "Point",
        "coordinates": [
          112.984,
          34.748
        ]
      },
      "properties": {
        "person": "杜甫",
        "name": "巩县",
        "type": "birth",
        "time": "公元712年",
        "modernName": "河南省郑州市巩义市",
        "ancientName": "巩县"
      }
    },
    {
      "type": "Feature",
      "geometry": {
        "type": "Point",
        "coordinates": [
          108.942,
          34.159
        ]
      },
      "properties": {
        "person": "杜甫",
        "name": "长安",
        "type": "normal",
        "time": "746年-755年",
        "modernName": "陕西省西安市",
        "ancientName": "长安"
      }
    },
    {
      "type": "Feature",
      "geometry": {
        "type": "Point",
        "coordinates": [
          109.586,
          34.956
        ]
      },
      "properties": {
        "person": "杜甫",
        "name": "奉先/鄜州",
        "type": "normal",
        "time": "755年-756年",
        "modernName": "陕西省渭南市蒲城县",
        "ancientName": "奉先/鄜州"
      }
    },
    {
      "type": "Feature",
      "geometry": {
        "type": "Point",
        "coordinates": [
          107.399,
          34.522
        ]
      },
      "properties": {
        "person": "杜甫",
        "name": "凤翔",
        "type": "normal",
        "time": "757年",
        "modernName": "陕西省宝鸡市凤翔区",
        "ancientName": "凤翔"
      }
    },
    {
      "type": "Feature",
      "geometry": {
        "type": "Point",
        "coordinates": [
          109.771,
          34.497
        ]
      },
      "properties": {
        "person": "杜甫",
        "name": "华州",
        "type": "normal",
        "time": "758年-759年",
        "modernName": "陕西省渭南市华州区",
        "ancientName": "华州"
      }
    },
    {
      "type": "Feature",
      "geometry": {
        "type": "Point",
        "coordinates": [
          105.724,
          34.581
        ]
      },
      "properties": {
        "person": "杜甫",
        "name": "秦州/同谷",
        "type": "normal",
        "time": "759年",
        "modernName": "甘肃省天水市",
        "ancientName": "秦州/同谷"
      }
    },
    {
      "type": "Feature",
      "geometry": {
        "type": "Point",
        "coordinates": [
          104.056,
          30.664
        ]
      },
      "properties": {
        "person": "杜甫",
        "name": "成都草堂",
        "type": "normal",
        "time": "759年底-765年",
        "modernName": "四川省成都市",
        "ancientName": "成都"
      }
    },
    {
      "type": "Feature",
      "geometry": {
        "type": "Point",
        "coordinates": [
          109.464,
          31.018
        ]
      },
      "properties": {
        "person": "杜甫",
        "name": "夔州",
        "type": "normal",
        "time": "766年-768年",
        "modernName": "重庆市奉节县",
        "ancientName": "夔州"
      }
    },
    {
      "type": "Feature",
      "geometry": {
        "type": "Point",
        "coordinates": [
          112.411,
          30.042
        ]
      },
      "properties": {
        "person": "杜甫",
        "name": "荆湘（江陵、公安、潭州等）",
        "type": "normal",
        "time": "768年-770年",
        "modernName": "湖北省江陵县、公安县，湖南省长沙市等地",
        "ancientName": "荆湘"
      }
    },
    {
      "type": "Feature",
      "geometry": {
        "type": "Point",
        "coordinates": [
          112.938,
          28.235
        ]
      },
      "properties": {
        "person": "杜甫",
        "name": "潭州往岳阳途中",
        "type": "death",
        "time": "公元770年冬",
        "modernName": "湖南省长沙市至岳阳市之间，具体地点存疑",
        "ancientName": "潭州往岳阳途中"
      }
    },
    {
      "type": "Feature",
      "geometry": {
        "type": "LineString",
        "coordinates": [
          [
            112.984,
            34.748
          ],
          [
            108.942,
            34.159
          ],
          [
            109.586,
            34.956
          ],
          [
            107.399,
            34.522
          ],
          [
            109.771,
            34.497
          ],
          [
            105.724,
            34.581
          ],
          [
            104.056,
            30.664
          ],
          [
            109.464,
            31.018
          ],
          [
            112.411,
            30.042
          ],
          [
            112.938,
            28.235
          ]
        ]
      },
      "properties": {
        "person": "杜甫",
        "name": "轨迹"
      }
    }
  ]
}