{
  "type": "FeatureCollection",
  "features": [
    {
      "type": "Feature",
      "geometry": {
        "type": "Point",
        "coordinates": [
          116.401145,
          39.902776
        ]
      },
      "properties": {
        "person": "梁漱溟",
        "name": "北京",
        "type": "normal",
        "time": "1893年",
        "modernName": "北京",
        "ancientName": "北京"
      }
    },
    {
      "type": "Feature",
      "geometry": {
        "type": "Point",
        "coordinates": [
          116.401145,
          39.902776
        ]
      },
      "properties": {
        "person": "梁漱溟",
        "name": "北京",
        "type": "normal",
        "time": "1917年",
        "modernName": "北京",
        "ancientName": "北京"
      }
    },
    {
      "type": "Feature",
      "geometry": {
        "type": "Point",
        "coordinates": [
          116.401145,
          39.902776
        ]
      },
      "properties": {
        "person": "梁漱溟",
        "name": "北京",
        "type": "normal",
        "time": "1921年",
        "modernName": "北京",
        "ancientName": "北京"
      }
    },
    {
      "type": "Feature",
      "geometry": {
        "type": "Point",
        "coordinates": [
          117.737088,
          36.862985
        ]
      },
      "properties": {
        "person": "梁漱溟",
        "name": "山东邹平",
        "type": "normal",
        "time": "1930s年",
        "modernName": "山东邹平",
        "ancientName": "山东邹平"
      }
    },
    {
      "type": "Feature",
      "geometry": {
        "type": "Point",
        "coordinates": [
          106.54807,
          29.565529
        ]
      },
      "properties": {
        "person": "梁漱溟",
        "name": "重庆/昆明",
        "type": "normal",
        "time": "1940s年",
        "modernName": "重庆",
        "ancientName": "重庆/昆明"
      }
    },
    {
      "type": "Feature",
      "geometry": {
        "type": "Point",
        "coordinates": [
          116.401145,
          39.902776
        ]
      },
      "properties": {
        "person": "梁漱溟",
        "name": "北京",
        "type": "normal",
        "time": "1949年后",
        "modernName": "北京",
        "ancientName": "北京"
      }
    },
    {
      "type": "Feature",
      "geometry": {
        "type": "Point",
        "coordinates": [
          116.401145,
          39.902776
        ]
      },
      "properties": {
        "person": "梁漱溟",
        "name": "北京",
        "type": "death",
        "time": "1988年",
        "modernName": "北京",
        "ancientName": "北京"
      }
    },
    {
      "type": "Feature",
      "geometry": {
        "type": "LineString",
        "coordinates": [
          [
            116.401145,
            39.902776
          ],
          [
            116.401145,
            39.902776
          ],
          [
            116.401145,
            39.902776
          ],
          [
            117.737088,
            36.862985
          ],
          [
            106.54807,
            29.565529
          ],
          [
            116.401145,
            39.902776
          ],
          [
            116.401145,
            39.902776
          ]
        ]
      },
      "properties": {
        "person": "梁漱溟",
        "name": "轨迹"
      }
    }
  ]
}