{
  "type": "FeatureCollection",
  "features": [
    {
      "type": "Feature",
      "geometry": {
        "type": "Point",
        "coordinates": [
          139.769,
          35.6804
        ]
      },
      "properties": {
        "person": "梁思成",
        "name": "东京",
        "type": "birth",
        "time": "1901年",
        "modernName": "日本东京都",
        "ancientName": "日本东京"
      }
    },
    {
      "type": "Feature",
      "geometry": {
        "type": "Point",
        "coordinates": [
          116.4074,
          39.9042
        ]
      },
      "properties": {
        "person": "梁思成",
        "name": "北平",
        "type": "normal",
        "time": "1912年 - 1923年",
        "modernName": "北京市",
        "ancientName": "北平"
      }
    },
    {
      "type": "Feature",
      "geometry": {
        "type": "Point",
        "coordinates": [
          -75.1652,
          39.9526
        ]
      },
      "properties": {
        "person": "梁思成",
        "name": "费城",
        "type": "normal",
        "time": "1924年 - 1927年",
        "modernName": "美国宾夕法尼亚州费城",
        "ancientName": "美国费城"
      }
    },
    {
      "type": "Feature",
      "geometry": {
        "type": "Point",
        "coordinates": [
          123.4315,
          41.8057
        ]
      },
      "properties": {
        "person": "梁思成",
        "name": "沈阳",
        "type": "normal",
        "time": "1928年 - 1931年",
        "modernName": "辽宁省沈阳市",
        "ancientName": "奉天"
      }
    },
    {
      "type": "Feature",
      "geometry": {
        "type": "Point",
        "coordinates": [
          116.4074,
          39.9042
        ]
      },
      "properties": {
        "person": "梁思成",
        "name": "北平（中国营造学社）",
        "type": "normal",
        "time": "1931年 - 1937年",
        "modernName": "北京市",
        "ancientName": "北平"
      }
    },
    {
      "type": "Feature",
      "geometry": {
        "type": "Point",
        "coordinates": [
          117.4017,
          40.0451
        ]
      },
      "properties": {
        "person": "梁思成",
        "name": "蓟县",
        "type": "normal",
        "time": "1932年",
        "modernName": "天津市蓟州区",
        "ancientName": "蓟县"
      }
    },
    {
      "type": "Feature",
      "geometry": {
        "type": "Point",
        "coordinates": [
          113.259,
          38.719
        ]
      },
      "properties": {
        "person": "梁思成",
        "name": "五台山佛光寺",
        "type": "normal",
        "time": "1937年",
        "modernName": "山西省忻州市五台县",
        "ancientName": "五台县"
      }
    },
    {
      "type": "Feature",
      "geometry": {
        "type": "Point",
        "coordinates": [
          104.83,
          28.77
        ]
      },
      "properties": {
        "person": "梁思成",
        "name": "李庄",
        "type": "normal",
        "time": "1940年 - 1946年",
        "modernName": "四川省宜宾市翠屏区李庄镇",
        "ancientName": "李庄"
      }
    },
    {
      "type": "Feature",
      "geometry": {
        "type": "Point",
        "coordinates": [
          116.3268,
          39.9929
        ]
      },
      "properties": {
        "person": "梁思成",
        "name": "清华大学",
        "type": "normal",
        "time": "1946年 - 1972年",
        "modernName": "北京市海淀区",
        "ancientName": "北平/北京"
      }
    },
    {
      "type": "Feature",
      "geometry": {
        "type": "Point",
        "coordinates": [
          116.4074,
          39.9042
        ]
      },
      "properties": {
        "person": "梁思成",
        "name": "北京",
        "type": "death",
        "time": "1972年1月9日",
        "modernName": "北京市",
        "ancientName": "北京"
      }
    },
    {
      "type": "Feature",
      "geometry": {
        "type": "LineString",
        "coordinates": [
          [
            139.769,
            35.6804
          ],
          [
            116.4074,
            39.9042
          ],
          [
            -75.1652,
            39.9526
          ],
          [
            123.4315,
            41.8057
          ],
          [
            116.4074,
            39.9042
          ],
          [
            117.4017,
            40.0451
          ],
          [
            113.259,
            38.719
          ],
          [
            104.83,
            28.77
          ],
          [
            116.3268,
            39.9929
          ],
          [
            116.4074,
            39.9042
          ]
        ]
      },
      "properties": {
        "person": "梁思成",
        "name": "轨迹"
      }
    }
  ]
}