{
  "type": "FeatureCollection",
  "features": [
    {
      "type": "Feature",
      "geometry": {
        "type": "Point",
        "coordinates": [
          112.198552,
          30.386639
        ]
      },
      "properties": {
        "person": "熊旅",
        "name": "郢都",
        "type": "birth",
        "time": "约公元前630年（存疑）",
        "modernName": "湖北省荆州市荆州区纪南城遗址",
        "ancientName": "郢都"
      }
    },
    {
      "type": "Feature",
      "geometry": {
        "type": "Point",
        "coordinates": [
          112.198552,
          30.386639
        ]
      },
      "properties": {
        "person": "熊旅",
        "name": "郢都（即位与“一鸣惊人”）",
        "type": "normal",
        "time": "公元前613年",
        "modernName": "湖北省荆州市荆州区纪南城遗址",
        "ancientName": "郢都"
      }
    },
    {
      "type": "Feature",
      "geometry": {
        "type": "Point",
        "coordinates": [
          112.198552,
          30.386639
        ]
      },
      "properties": {
        "person": "熊旅",
        "name": "若敖氏叛乱地（今湖北当阳一带）",
        "type": "normal",
        "time": "公元前605年",
        "modernName": "湖北省当阳市一带",
        "ancientName": "楚国境内"
      }
    },
    {
      "type": "Feature",
      "geometry": {
        "type": "Point",
        "coordinates": [
          110.22464526889239,
          32.22723325608891
        ]
      },
      "properties": {
        "person": "熊旅",
        "name": "庸国（今湖北竹山一带）",
        "type": "normal",
        "time": "公元前611年",
        "modernName": "湖北省竹山县一带",
        "ancientName": "庸国"
      }
    },
    {
      "type": "Feature",
      "geometry": {
        "type": "Point",
        "coordinates": [
          112.4476442951529,
          34.62072772229255
        ]
      },
      "properties": {
        "person": "熊旅",
        "name": "洛邑（周王室都城）",
        "type": "normal",
        "time": "公元前606年",
        "modernName": "河南省洛阳市",
        "ancientName": "洛邑"
      }
    },
    {
      "type": "Feature",
      "geometry": {
        "type": "Point",
        "coordinates": [
          107.62906,
          27.507658
        ]
      },
      "properties": {
        "person": "熊旅",
        "name": "邲（今河南荥阳东北）",
        "type": "normal",
        "time": "公元前597年",
        "modernName": "河南省荥阳市东北",
        "ancientName": "邲"
      }
    },
    {
      "type": "Feature",
      "geometry": {
        "type": "Point",
        "coordinates": [
          114.52423885643167,
          33.76983162559246
        ]
      },
      "properties": {
        "person": "熊旅",
        "name": "辰陵（今河南西华西北）",
        "type": "normal",
        "time": "公元前598年",
        "modernName": "河南省西华县西北",
        "ancientName": "辰陵"
      }
    },
    {
      "type": "Feature",
      "geometry": {
        "type": "Point",
        "coordinates": [
          112.198552,
          30.386639
        ]
      },
      "properties": {
        "person": "熊旅",
        "name": "郢都",
        "type": "death",
        "time": "公元前591年",
        "modernName": "湖北省荆州市荆州区纪南城遗址",
        "ancientName": "郢都"
      }
    },
    {
      "type": "Feature",
      "geometry": {
        "type": "LineString",
        "coordinates": [
          [
            112.198552,
            30.386639
          ],
          [
            112.198552,
            30.386639
          ],
          [
            112.198552,
            30.386639
          ],
          [
            110.22464526889239,
            32.22723325608891
          ],
          [
            112.4476442951529,
            34.62072772229255
          ],
          [
            107.62906,
            27.507658
          ],
          [
            114.52423885643167,
            33.76983162559246
          ],
          [
            112.198552,
            30.386639
          ]
        ]
      },
      "properties": {
        "person": "熊旅",
        "name": "轨迹"
      }
    }
  ]
}