{
  "type": "FeatureCollection",
  "features": [
    {
      "type": "Feature",
      "geometry": {
        "type": "Point",
        "coordinates": [
          116.362106,
          39.913704
        ]
      },
      "properties": {
        "person": "楚怀王",
        "name": "郢（楚国都城）",
        "type": "normal",
        "time": "前328年",
        "modernName": "郢",
        "ancientName": "郢"
      }
    },
    {
      "type": "Feature",
      "geometry": {
        "type": "Point",
        "coordinates": [
          113.674279,
          34.260079
        ]
      },
      "properties": {
        "person": "楚怀王",
        "name": "陉山",
        "type": "normal",
        "time": "前317年",
        "modernName": "陉山",
        "ancientName": "陉山"
      }
    },
    {
      "type": "Feature",
      "geometry": {
        "type": "Point",
        "coordinates": [
          86.76926,
          29.4194
        ]
      },
      "properties": {
        "person": "楚怀王",
        "name": "江东",
        "type": "normal",
        "time": "前316年",
        "modernName": "江东",
        "ancientName": "江东"
      }
    },
    {
      "type": "Feature",
      "geometry": {
        "type": "Point",
        "coordinates": [
          116.362106,
          39.913704
        ]
      },
      "properties": {
        "person": "楚怀王",
        "name": "郢",
        "type": "normal",
        "time": "前313年",
        "modernName": "郢",
        "ancientName": "郢"
      }
    },
    {
      "type": "Feature",
      "geometry": {
        "type": "Point",
        "coordinates": [
          119.601142,
          32.012232
        ]
      },
      "properties": {
        "person": "楚怀王",
        "name": "丹阳",
        "type": "normal",
        "time": "前312年",
        "modernName": "丹阳",
        "ancientName": "丹阳"
      }
    },
    {
      "type": "Feature",
      "geometry": {
        "type": "Point",
        "coordinates": [
          114.232922,
          22.306718
        ]
      },
      "properties": {
        "person": "楚怀王",
        "name": "蓝田",
        "type": "normal",
        "time": "前311年",
        "modernName": "蓝田",
        "ancientName": "蓝田"
      }
    },
    {
      "type": "Feature",
      "geometry": {
        "type": "Point",
        "coordinates": [
          108.704164,
          34.331338
        ]
      },
      "properties": {
        "person": "楚怀王",
        "name": "咸阳",
        "type": "normal",
        "time": "前299年",
        "modernName": "咸阳",
        "ancientName": "咸阳"
      }
    },
    {
      "type": "Feature",
      "geometry": {
        "type": "Point",
        "coordinates": [
          108.704164,
          34.331338
        ]
      },
      "properties": {
        "person": "楚怀王",
        "name": "咸阳",
        "type": "normal",
        "time": "前297年",
        "modernName": "咸阳",
        "ancientName": "咸阳"
      }
    },
    {
      "type": "Feature",
      "geometry": {
        "type": "LineString",
        "coordinates": [
          [
            116.362106,
            39.913704
          ],
          [
            113.674279,
            34.260079
          ],
          [
            86.76926,
            29.4194
          ],
          [
            116.362106,
            39.913704
          ],
          [
            119.601142,
            32.012232
          ],
          [
            114.232922,
            22.306718
          ],
          [
            108.704164,
            34.331338
          ],
          [
            108.704164,
            34.331338
          ]
        ]
      },
      "properties": {
        "person": "楚怀王",
        "name": "轨迹"
      }
    }
  ]
}