{
  "type": "FeatureCollection",
  "features": [
    {
      "type": "Feature",
      "geometry": {
        "type": "Point",
        "coordinates": [
          105.83299,
          32.44389
        ]
      },
      "properties": {
        "person": "武曌",
        "name": "利州",
        "type": "birth",
        "time": "约公元624年",
        "modernName": "利州（今四川省广元市）",
        "ancientName": "利州"
      }
    },
    {
      "type": "Feature",
      "geometry": {
        "type": "Point",
        "coordinates": [
          108.9479051,
          34.285821
        ]
      },
      "properties": {
        "person": "武曌",
        "name": "长安（唐都城）",
        "type": "normal",
        "time": "约637年—649年；651年—657年；660年—683年（多次居留）",
        "modernName": "长安（今陕西省西安市）",
        "ancientName": "长安（唐都城）"
      }
    },
    {
      "type": "Feature",
      "geometry": {
        "type": "Point",
        "coordinates": [
          109.0014638,
          34.4468505
        ]
      },
      "properties": {
        "person": "武曌",
        "name": "感业寺",
        "type": "normal",
        "time": "649年—651年",
        "modernName": "长安感业寺（今陕西省西安市境内，遗址存疑）",
        "ancientName": "感业寺"
      }
    },
    {
      "type": "Feature",
      "geometry": {
        "type": "Point",
        "coordinates": [
          112.4477046,
          34.6196539
        ]
      },
      "properties": {
        "person": "武曌",
        "name": "洛阳（东都/神都）",
        "type": "normal",
        "time": "657年以后频繁往来；684年—705年常驻。",
        "modernName": "洛阳，武周时期改称“神都”（今河南省洛阳市）",
        "ancientName": "洛阳（东都/神都）"
      }
    },
    {
      "type": "Feature",
      "geometry": {
        "type": "Point",
        "coordinates": [
          113.0444455,
          34.4551772
        ]
      },
      "properties": {
        "person": "武曌",
        "name": "嵩山",
        "type": "normal",
        "time": "万岁登封元年（696年）",
        "modernName": "嵩山（今河南省登封市）",
        "ancientName": "嵩山"
      }
    },
    {
      "type": "Feature",
      "geometry": {
        "type": "Point",
        "coordinates": [
          112.4587318,
          37.7427704
        ]
      },
      "properties": {
        "person": "武曌",
        "name": "并州（故里）",
        "type": "normal",
        "time": "显庆五年（660年）等",
        "modernName": "并州（今山西省太原市，其家族祖籍并州文水）",
        "ancientName": "并州（故里）"
      }
    },
    {
      "type": "Feature",
      "geometry": {
        "type": "Point",
        "coordinates": [
          108.2398903,
          34.5308252
        ]
      },
      "properties": {
        "person": "武曌",
        "name": "乾陵",
        "type": "normal",
        "time": "文明元年（684年）葬高宗；神龙二年（706年）武则天祔葬。",
        "modernName": "乾陵（今陕西省咸阳市乾县）",
        "ancientName": "乾陵"
      }
    },
    {
      "type": "Feature",
      "geometry": {
        "type": "Point",
        "coordinates": [
          112.4477046,
          34.6196539
        ]
      },
      "properties": {
        "person": "武曌",
        "name": "洛阳上阳宫",
        "type": "death",
        "time": "神龙元年十一月（705年12月）",
        "modernName": "上阳宫仙居殿（今河南省洛阳市）",
        "ancientName": "洛阳上阳宫"
      }
    },
    {
      "type": "Feature",
      "geometry": {
        "type": "LineString",
        "coordinates": [
          [
            105.83299,
            32.44389
          ],
          [
            108.9479051,
            34.285821
          ],
          [
            109.0014638,
            34.4468505
          ],
          [
            112.4477046,
            34.6196539
          ],
          [
            113.0444455,
            34.4551772
          ],
          [
            112.4587318,
            37.7427704
          ],
          [
            108.2398903,
            34.5308252
          ],
          [
            112.4477046,
            34.6196539
          ]
        ]
      },
      "properties": {
        "person": "武曌",
        "name": "轨迹"
      }
    }
  ]
}