{
  "type": "FeatureCollection",
  "features": [
    {
      "type": "Feature",
      "geometry": {
        "type": "Point",
        "coordinates": [
          114.450904,
          29.910525
        ]
      },
      "properties": {
        "person": "刘恒",
        "name": "代国中都",
        "type": "birth",
        "time": "公元前203年",
        "modernName": "山西省平遥县",
        "ancientName": "代国中都"
      }
    },
    {
      "type": "Feature",
      "geometry": {
        "type": "Point",
        "coordinates": [
          114.450904,
          29.910525
        ]
      },
      "properties": {
        "person": "刘恒",
        "name": "代国（晋阳）",
        "type": "normal",
        "time": "约公元前196年 - 公元前180年",
        "modernName": "山西省太原市",
        "ancientName": "代国都城晋阳"
      }
    },
    {
      "type": "Feature",
      "geometry": {
        "type": "Point",
        "coordinates": [
          108.93498964565686,
          34.344761972504
        ]
      },
      "properties": {
        "person": "刘恒",
        "name": "长安（未央宫）",
        "type": "normal",
        "time": "公元前180年 - 公元前157年",
        "modernName": "陕西省西安市",
        "ancientName": "汉都长安"
      }
    },
    {
      "type": "Feature",
      "geometry": {
        "type": "Point",
        "coordinates": [
          109.06953,
          34.36034
        ]
      },
      "properties": {
        "person": "刘恒",
        "name": "霸陵",
        "type": "normal",
        "time": "在位期间多次前往，最终安葬于此",
        "modernName": "陕西省西安市灞桥区",
        "ancientName": "霸陵"
      }
    },
    {
      "type": "Feature",
      "geometry": {
        "type": "Point",
        "coordinates": [
          108.70416441394818,
          34.331338370946085
        ]
      },
      "properties": {
        "person": "刘恒",
        "name": "细柳营（存疑/说法不一）",
        "type": "normal",
        "time": "公元前158年",
        "modernName": "陕西省咸阳市西南",
        "ancientName": "细柳"
      }
    },
    {
      "type": "Feature",
      "geometry": {
        "type": "Point",
        "coordinates": [
          108.93498964565686,
          34.344761972504
        ]
      },
      "properties": {
        "person": "刘恒",
        "name": "长安未央宫",
        "type": "death",
        "time": "公元前157年",
        "modernName": "陕西省西安市",
        "ancientName": "汉都长安未央宫"
      }
    },
    {
      "type": "Feature",
      "geometry": {
        "type": "LineString",
        "coordinates": [
          [
            114.450904,
            29.910525
          ],
          [
            114.450904,
            29.910525
          ],
          [
            108.93498964565686,
            34.344761972504
          ],
          [
            109.06953,
            34.36034
          ],
          [
            108.70416441394818,
            34.331338370946085
          ],
          [
            108.93498964565686,
            34.344761972504
          ]
        ]
      },
      "properties": {
        "person": "刘恒",
        "name": "轨迹"
      }
    }
  ]
}