{
  "type": "FeatureCollection",
  "features": [
    {
      "type": "Feature",
      "geometry": {
        "type": "Point",
        "coordinates": [
          118.79144,
          32.061419
        ]
      },
      "properties": {
        "person": "沈约",
        "name": "建康",
        "type": "birth",
        "time": "441 年",
        "modernName": "江苏南京",
        "ancientName": "建康"
      }
    },
    {
      "type": "Feature",
      "geometry": {
        "type": "Point",
        "coordinates": [
          119.97275119001685,
          30.544976166230576
        ]
      },
      "properties": {
        "person": "沈约",
        "name": "吴兴武康",
        "type": "normal",
        "time": "约 441 年—约 464 年（与建康交替）",
        "modernName": "浙江德清",
        "ancientName": "吴兴武康"
      }
    },
    {
      "type": "Feature",
      "geometry": {
        "type": "Point",
        "coordinates": [
          118.79144,
          32.061419
        ]
      },
      "properties": {
        "person": "沈约",
        "name": "建康",
        "type": "death",
        "time": "513 年",
        "modernName": "江苏南京",
        "ancientName": "建康"
      }
    },
    {
      "type": "Feature",
      "geometry": {
        "type": "LineString",
        "coordinates": [
          [
            118.79144,
            32.061419
          ],
          [
            119.97275119001685,
            30.544976166230576
          ],
          [
            118.79144,
            32.061419
          ]
        ]
      },
      "properties": {
        "person": "沈约",
        "name": "轨迹"
      }
    }
  ]
}