{
  "type": "FeatureCollection",
  "features": [
    {
      "type": "Feature",
      "geometry": {
        "type": "Point",
        "coordinates": [
          116.362106,
          39.913704
        ]
      },
      "properties": {
        "person": "法正",
        "name": "扶陵",
        "type": "birth",
        "time": "约176年",
        "modernName": "陕西省宝鸡市眉县一带",
        "ancientName": "扶陵"
      }
    },
    {
      "type": "Feature",
      "geometry": {
        "type": "Point",
        "coordinates": [
          87.511507,
          43.824884
        ]
      },
      "properties": {
        "person": "法正",
        "name": "成都（刘璋治下）",
        "type": "normal",
        "time": "约194年—211年",
        "modernName": "四川省成都市",
        "ancientName": "成都"
      }
    },
    {
      "type": "Feature",
      "geometry": {
        "type": "Point",
        "coordinates": [
          112.23572,
          30.338839
        ]
      },
      "properties": {
        "person": "法正",
        "name": "荆州",
        "type": "normal",
        "time": "约208年",
        "modernName": "湖北省荆州市一带",
        "ancientName": "荆州"
      }
    },
    {
      "type": "Feature",
      "geometry": {
        "type": "Point",
        "coordinates": [
          104.754126,
          31.45739
        ]
      },
      "properties": {
        "person": "法正",
        "name": "涪城",
        "type": "normal",
        "time": "211年",
        "modernName": "四川省绵阳市涪城区",
        "ancientName": "涪县"
      }
    },
    {
      "type": "Feature",
      "geometry": {
        "type": "Point",
        "coordinates": [
          87.511507,
          43.824884
        ]
      },
      "properties": {
        "person": "法正",
        "name": "成都（刘备入主）",
        "type": "normal",
        "time": "214年",
        "modernName": "四川省成都市",
        "ancientName": "成都"
      }
    },
    {
      "type": "Feature",
      "geometry": {
        "type": "Point",
        "coordinates": [
          107.018669,
          33.068261
        ]
      },
      "properties": {
        "person": "法正",
        "name": "汉中",
        "type": "normal",
        "time": "217年—219年",
        "modernName": "陕西省汉中市",
        "ancientName": "汉中"
      }
    },
    {
      "type": "Feature",
      "geometry": {
        "type": "Point",
        "coordinates": [
          87.511507,
          43.824884
        ]
      },
      "properties": {
        "person": "法正",
        "name": "成都",
        "type": "death",
        "time": "220年",
        "modernName": "四川省成都市",
        "ancientName": "成都"
      }
    },
    {
      "type": "Feature",
      "geometry": {
        "type": "LineString",
        "coordinates": [
          [
            116.362106,
            39.913704
          ],
          [
            87.511507,
            43.824884
          ],
          [
            112.23572,
            30.338839
          ],
          [
            104.754126,
            31.45739
          ],
          [
            87.511507,
            43.824884
          ],
          [
            107.018669,
            33.068261
          ],
          [
            87.511507,
            43.824884
          ]
        ]
      },
      "properties": {
        "person": "法正",
        "name": "轨迹"
      }
    }
  ]
}