{
  "type": "FeatureCollection",
  "features": [
    {
      "type": "Feature",
      "geometry": {
        "type": "Point",
        "coordinates": [
          119.043815,
          26.484745
        ]
      },
      "properties": {
        "person": "测试人物一",
        "name": "长安",
        "type": "birth",
        "time": "712年",
        "modernName": "陕西省西安市",
        "ancientName": "唐都长安"
      }
    },
    {
      "type": "Feature",
      "geometry": {
        "type": "Point",
        "coordinates": [
          112.4477046,
          34.6196539
        ]
      },
      "properties": {
        "person": "测试人物一",
        "name": "洛阳",
        "type": "normal",
        "time": "735年 - 740年",
        "modernName": "河南省洛阳市",
        "ancientName": "唐东都"
      }
    },
    {
      "type": "Feature",
      "geometry": {
        "type": "Point",
        "coordinates": [
          119.043815,
          26.484745
        ]
      },
      "properties": {
        "person": "测试人物一",
        "name": "长安（任职）",
        "type": "normal",
        "time": "740年 - 755年",
        "modernName": "陕西省西安市",
        "ancientName": "唐都长安"
      }
    },
    {
      "type": "Feature",
      "geometry": {
        "type": "Point",
        "coordinates": [
          107.349559,
          22.40886
        ]
      },
      "properties": {
        "person": "测试人物一",
        "name": "江州（贬谪地）",
        "type": "normal",
        "time": "756年 - 759年",
        "modernName": "江西省九江市",
        "ancientName": "唐江州"
      }
    },
    {
      "type": "Feature",
      "geometry": {
        "type": "Point",
        "coordinates": [
          104.063796,
          30.575416
        ]
      },
      "properties": {
        "person": "测试人物一",
        "name": "成都（流亡地）",
        "type": "normal",
        "time": "759年 - 765年",
        "modernName": "四川省成都市",
        "ancientName": "唐成都府"
      }
    },
    {
      "type": "Feature",
      "geometry": {
        "type": "Point",
        "coordinates": [
          112.4477046,
          34.6196539
        ]
      },
      "properties": {
        "person": "测试人物一",
        "name": "洛阳",
        "type": "death",
        "time": "770年",
        "modernName": "河南省洛阳市",
        "ancientName": "唐东都"
      }
    },
    {
      "type": "Feature",
      "geometry": {
        "type": "LineString",
        "coordinates": [
          [
            119.043815,
            26.484745
          ],
          [
            112.4477046,
            34.6196539
          ],
          [
            119.043815,
            26.484745
          ],
          [
            107.349559,
            22.40886
          ],
          [
            104.063796,
            30.575416
          ],
          [
            112.4477046,
            34.6196539
          ]
        ]
      },
      "properties": {
        "person": "测试人物一",
        "name": "轨迹"
      }
    }
  ]
}