{
  "type": "FeatureCollection",
  "features": [
    {
      "type": "Feature",
      "geometry": {
        "type": "Point",
        "coordinates": [
          115.5465,
          28.0567
        ]
      },
      "properties": {
        "person": "王安石",
        "name": "临江军清江县",
        "type": "birth",
        "time": "约公元1021年",
        "modernName": "江西省樟树市",
        "ancientName": "临江军清江县"
      }
    },
    {
      "type": "Feature",
      "geometry": {
        "type": "Point",
        "coordinates": [
          118.8495,
          32.0663
        ]
      },
      "properties": {
        "person": "王安石",
        "name": "江宁（少年求学）",
        "type": "normal",
        "time": "约1029年-1036年",
        "modernName": "江苏省南京市",
        "ancientName": "江宁府"
      }
    },
    {
      "type": "Feature",
      "geometry": {
        "type": "Point",
        "coordinates": [
          114.3075,
          34.7971
        ]
      },
      "properties": {
        "person": "王安石",
        "name": "开封（初入仕途）",
        "type": "normal",
        "time": "1042年",
        "modernName": "河南省开封市",
        "ancientName": "开封府"
      }
    },
    {
      "type": "Feature",
      "geometry": {
        "type": "Point",
        "coordinates": [
          119.413,
          32.3944
        ]
      },
      "properties": {
        "person": "王安石",
        "name": "扬州（签书判官）",
        "type": "normal",
        "time": "约1042年-1045年",
        "modernName": "江苏省扬州市",
        "ancientName": "扬州"
      }
    },
    {
      "type": "Feature",
      "geometry": {
        "type": "Point",
        "coordinates": [
          116.5761,
          30.6311
        ]
      },
      "properties": {
        "person": "王安石",
        "name": "舒州（通判任职）",
        "type": "normal",
        "time": "约1051年-1054年",
        "modernName": "安徽省潜山市",
        "ancientName": "舒州"
      }
    },
    {
      "type": "Feature",
      "geometry": {
        "type": "Point",
        "coordinates": [
          119.9741,
          31.8107
        ]
      },
      "properties": {
        "person": "王安石",
        "name": "常州（知州施政）",
        "type": "normal",
        "time": "约1057年-1058年",
        "modernName": "江苏省常州市",
        "ancientName": "常州"
      }
    },
    {
      "type": "Feature",
      "geometry": {
        "type": "Point",
        "coordinates": [
          114.3075,
          34.7971
        ]
      },
      "properties": {
        "person": "王安石",
        "name": "开封（上万言书）",
        "type": "normal",
        "time": "1058年",
        "modernName": "河南省开封市",
        "ancientName": "开封府"
      }
    },
    {
      "type": "Feature",
      "geometry": {
        "type": "Point",
        "coordinates": [
          118.8495,
          32.0663
        ]
      },
      "properties": {
        "person": "王安石",
        "name": "江宁府（讲学著述）",
        "type": "normal",
        "time": "1063年-1067年",
        "modernName": "江苏省南京市",
        "ancientName": "江宁府"
      }
    },
    {
      "type": "Feature",
      "geometry": {
        "type": "Point",
        "coordinates": [
          114.3075,
          34.7971
        ]
      },
      "properties": {
        "person": "王安石",
        "name": "开封（主持变法）",
        "type": "normal",
        "time": "1069年-1076年（两次拜相期间）",
        "modernName": "河南省开封市",
        "ancientName": "开封府"
      }
    },
    {
      "type": "Feature",
      "geometry": {
        "type": "Point",
        "coordinates": [
          118.8495,
          32.0663
        ]
      },
      "properties": {
        "person": "王安石",
        "name": "江宁府（晚年退隐）",
        "type": "normal",
        "time": "1076年-1086年",
        "modernName": "江苏省南京市",
        "ancientName": "江宁府"
      }
    },
    {
      "type": "Feature",
      "geometry": {
        "type": "Point",
        "coordinates": [
          118.8495,
          32.0663
        ]
      },
      "properties": {
        "person": "王安石",
        "name": "江宁府",
        "type": "death",
        "time": "公元1086年",
        "modernName": "江苏省南京市",
        "ancientName": "江宁府"
      }
    },
    {
      "type": "Feature",
      "geometry": {
        "type": "LineString",
        "coordinates": [
          [
            115.5465,
            28.0567
          ],
          [
            118.8495,
            32.0663
          ],
          [
            114.3075,
            34.7971
          ],
          [
            119.413,
            32.3944
          ],
          [
            116.5761,
            30.6311
          ],
          [
            119.9741,
            31.8107
          ],
          [
            114.3075,
            34.7971
          ],
          [
            118.8495,
            32.0663
          ],
          [
            114.3075,
            34.7971
          ],
          [
            118.8495,
            32.0663
          ],
          [
            118.8495,
            32.0663
          ]
        ]
      },
      "properties": {
        "person": "王安石",
        "name": "轨迹"
      }
    }
  ]
}