{
  "type": "FeatureCollection",
  "features": [
    {
      "type": "Feature",
      "geometry": {
        "type": "Point",
        "coordinates": [
          108.93499,
          34.344762
        ]
      },
      "properties": {
        "person": "王昌龄",
        "name": "京兆万年（今陕西西安）",
        "type": "normal",
        "time": "约698年",
        "modernName": "陕西西安",
        "ancientName": "京兆万年"
      }
    },
    {
      "type": "Feature",
      "geometry": {
        "type": "Point",
        "coordinates": [
          108.902362,
          34.160327
        ]
      },
      "properties": {
        "person": "王昌龄",
        "name": "长安",
        "type": "normal",
        "time": "开元十五年（727）前后",
        "modernName": "长安",
        "ancientName": "长安"
      }
    },
    {
      "type": "Feature",
      "geometry": {
        "type": "Point",
        "coordinates": [
          115.773048,
          33.847728
        ]
      },
      "properties": {
        "person": "王昌龄",
        "name": "亳州（一说归途中）",
        "type": "normal",
        "time": "约756年",
        "modernName": "亳州",
        "ancientName": "亳州"
      }
    },
    {
      "type": "Feature",
      "geometry": {
        "type": "Point",
        "coordinates": [
          116.004726,
          38.619293
        ]
      },
      "properties": {
        "person": "王昌龄",
        "name": "汜水",
        "type": "normal",
        "time": "约开元年间",
        "modernName": "汜水",
        "ancientName": "汜水"
      }
    },
    {
      "type": "Feature",
      "geometry": {
        "type": "Point",
        "coordinates": [
          109.831935,
          27.212859
        ]
      },
      "properties": {
        "person": "王昌龄",
        "name": "龙标（今湖南洪江）",
        "type": "normal",
        "time": "约天宝年间",
        "modernName": "湖南洪江",
        "ancientName": "龙标"
      }
    },
    {
      "type": "Feature",
      "geometry": {
        "type": "LineString",
        "coordinates": [
          [
            108.93499,
            34.344762
          ],
          [
            108.902362,
            34.160327
          ],
          [
            115.773048,
            33.847728
          ],
          [
            116.004726,
            38.619293
          ],
          [
            109.831935,
            27.212859
          ]
        ]
      },
      "properties": {
        "person": "王昌龄",
        "name": "轨迹"
      }
    }
  ]
}