{
  "type": "FeatureCollection",
  "features": [
    {
      "type": "Feature",
      "geometry": {
        "type": "Point",
        "coordinates": [
          110.972627,
          30.828346
        ]
      },
      "properties": {
        "person": "王嫱，字昭君，号明妃",
        "name": "秭归",
        "type": "birth",
        "time": "约公元前52年",
        "modernName": "湖北省宜昌市秭归县",
        "ancientName": "南郡秭归"
      }
    },
    {
      "type": "Feature",
      "geometry": {
        "type": "Point",
        "coordinates": [
          108.9423363,
          34.261004
        ]
      },
      "properties": {
        "person": "王嫱，字昭君，号明妃",
        "name": "长安（汉宫）",
        "type": "normal",
        "time": "约公元前38年—前33年",
        "modernName": "陕西省西安市",
        "ancientName": "长安"
      }
    },
    {
      "type": "Feature",
      "geometry": {
        "type": "Point",
        "coordinates": [
          108.9423363,
          34.261004
        ]
      },
      "properties": {
        "person": "王嫱，字昭君，号明妃",
        "name": "长安—匈奴和亲送行之地",
        "type": "normal",
        "time": "公元前33年",
        "modernName": "陕西省西安市",
        "ancientName": "长安"
      }
    },
    {
      "type": "Feature",
      "geometry": {
        "type": "Point",
        "coordinates": [
          111.75831641344406,
          40.81680927607709
        ]
      },
      "properties": {
        "person": "王嫱，字昭君，号明妃",
        "name": "朔北（北渡长城之路）",
        "type": "normal",
        "time": "公元前33年",
        "modernName": "内蒙古自治区一带",
        "ancientName": "朔方边塞"
      }
    },
    {
      "type": "Feature",
      "geometry": {
        "type": "Point",
        "coordinates": [
          106.9242585,
          47.9236256
        ]
      },
      "properties": {
        "person": "王嫱，字昭君，号明妃",
        "name": "匈奴龙城（单于庭）",
        "type": "normal",
        "time": "公元前33年—前31年",
        "modernName": "蒙古人民共和国鄂尔浑河一带",
        "ancientName": "龙城"
      }
    },
    {
      "type": "Feature",
      "geometry": {
        "type": "Point",
        "coordinates": [
          116.36210635397461,
          39.913704340099706
        ]
      },
      "properties": {
        "person": "王嫱，字昭君，号明妃",
        "name": "匈奴草原（复株累单于庭）",
        "type": "normal",
        "time": "公元前31年—前15年",
        "modernName": "蒙古高原一带",
        "ancientName": "漠北草原"
      }
    },
    {
      "type": "Feature",
      "geometry": {
        "type": "Point",
        "coordinates": [
          116.36210635397461,
          39.913704340099706
        ]
      },
      "properties": {
        "person": "王嫱，字昭君，号明妃",
        "name": "匈奴漠北（存疑）",
        "type": "death",
        "time": "约公元前15年",
        "modernName": "蒙古高原，具体地点存疑",
        "ancientName": "漠北"
      }
    },
    {
      "type": "Feature",
      "geometry": {
        "type": "LineString",
        "coordinates": [
          [
            110.972627,
            30.828346
          ],
          [
            108.9423363,
            34.261004
          ],
          [
            108.9423363,
            34.261004
          ],
          [
            111.75831641344406,
            40.81680927607709
          ],
          [
            106.9242585,
            47.9236256
          ],
          [
            116.36210635397461,
            39.913704340099706
          ],
          [
            116.36210635397461,
            39.913704340099706
          ]
        ]
      },
      "properties": {
        "person": "王嫱，字昭君，号明妃",
        "name": "轨迹"
      }
    }
  ]
}