{
  "type": "FeatureCollection",
  "features": [
    {
      "type": "Feature",
      "geometry": {
        "type": "Point",
        "coordinates": [
          118.785381,
          36.856737
        ]
      },
      "properties": {
        "person": "王猛",
        "name": "北海剧县",
        "type": "birth",
        "time": "约325年",
        "modernName": "山东省潍坊市寿光市一带，存疑/说法不一",
        "ancientName": "北海郡剧县"
      }
    },
    {
      "type": "Feature",
      "geometry": {
        "type": "Point",
        "coordinates": [
          108.93499,
          34.344762
        ]
      },
      "properties": {
        "person": "王猛",
        "name": "关中（华山—灞上一带）",
        "type": "normal",
        "time": "354年",
        "modernName": "陕西省西安市及渭河流域一带）",
        "ancientName": "关中（古称关中，"
      }
    },
    {
      "type": "Feature",
      "geometry": {
        "type": "Point",
        "coordinates": [
          108.93499,
          34.344762
        ]
      },
      "properties": {
        "person": "王猛",
        "name": "长安",
        "type": "normal",
        "time": "357年—375年",
        "modernName": "陕西省西安市）",
        "ancientName": "长安（古称长安，"
      }
    },
    {
      "type": "Feature",
      "geometry": {
        "type": "Point",
        "coordinates": [
          114.579919,
          36.322632
        ]
      },
      "properties": {
        "person": "王猛",
        "name": "邺城",
        "type": "normal",
        "time": "369年",
        "modernName": "河北省邯郸市临漳县一带）",
        "ancientName": "邺城（古称邺城，"
      }
    },
    {
      "type": "Feature",
      "geometry": {
        "type": "Point",
        "coordinates": [
          105.175081,
          34.190795
        ]
      },
      "properties": {
        "person": "王猛",
        "name": "仇池",
        "type": "normal",
        "time": "371年",
        "modernName": "甘肃省陇南市西和县",
        "ancientName": "仇池（古称仇池，"
      }
    },
    {
      "type": "Feature",
      "geometry": {
        "type": "Point",
        "coordinates": [
          107.018669,
          33.068261
        ]
      },
      "properties": {
        "person": "王猛",
        "name": "梁州、益州",
        "type": "normal",
        "time": "373年",
        "modernName": "陕西省汉中市",
        "ancientName": "梁州、益州（古称梁州、益州，"
      }
    },
    {
      "type": "Feature",
      "geometry": {
        "type": "Point",
        "coordinates": [
          108.93499,
          34.344762
        ]
      },
      "properties": {
        "person": "王猛",
        "name": "长安",
        "type": "death",
        "time": "375年",
        "modernName": "陕西省西安市）",
        "ancientName": "长安（古称长安，"
      }
    },
    {
      "type": "Feature",
      "geometry": {
        "type": "LineString",
        "coordinates": [
          [
            118.785381,
            36.856737
          ],
          [
            108.93499,
            34.344762
          ],
          [
            108.93499,
            34.344762
          ],
          [
            114.579919,
            36.322632
          ],
          [
            105.175081,
            34.190795
          ],
          [
            107.018669,
            33.068261
          ],
          [
            108.93499,
            34.344762
          ]
        ]
      },
      "properties": {
        "person": "王猛",
        "name": "轨迹"
      }
    }
  ]
}