{
  "type": "FeatureCollection",
  "features": [
    {
      "type": "Feature",
      "geometry": {
        "type": "Point",
        "coordinates": [
          112.968969,
          37.07082
        ]
      },
      "properties": {
        "person": "石勒",
        "name": "武乡（今山西榆社一带）",
        "type": "birth",
        "time": "274年",
        "modernName": "山西榆社一带",
        "ancientName": "武乡"
      }
    },
    {
      "type": "Feature",
      "geometry": {
        "type": "Point",
        "coordinates": [
          115.5736,
          37.550369
        ]
      },
      "properties": {
        "person": "石勒",
        "name": "冀州",
        "type": "normal",
        "time": "305年",
        "modernName": "冀州",
        "ancientName": "冀州"
      }
    },
    {
      "type": "Feature",
      "geometry": {
        "type": "Point",
        "coordinates": [
          109.387994,
          19.70008
        ]
      },
      "properties": {
        "person": "石勒",
        "name": "北方",
        "type": "normal",
        "time": "311年",
        "modernName": "北方",
        "ancientName": "北方"
      }
    },
    {
      "type": "Feature",
      "geometry": {
        "type": "Point",
        "coordinates": [
          109.387994,
          19.70008
        ]
      },
      "properties": {
        "person": "石勒",
        "name": "北方",
        "type": "normal",
        "time": "312年",
        "modernName": "北方",
        "ancientName": "北方"
      }
    },
    {
      "type": "Feature",
      "geometry": {
        "type": "Point",
        "coordinates": [
          116.362106,
          39.913704
        ]
      },
      "properties": {
        "person": "石勒",
        "name": "襄国（今河北邢台）",
        "type": "normal",
        "time": "319年",
        "modernName": "河北邢台",
        "ancientName": "襄国"
      }
    },
    {
      "type": "Feature",
      "geometry": {
        "type": "Point",
        "coordinates": [
          108.902362,
          34.160327
        ]
      },
      "properties": {
        "person": "石勒",
        "name": "长安",
        "type": "normal",
        "time": "328年",
        "modernName": "长安",
        "ancientName": "长安"
      }
    },
    {
      "type": "Feature",
      "geometry": {
        "type": "Point",
        "coordinates": [
          116.362106,
          39.913704
        ]
      },
      "properties": {
        "person": "石勒",
        "name": "襄国",
        "type": "death",
        "time": "333年",
        "modernName": "襄国",
        "ancientName": "襄国"
      }
    },
    {
      "type": "Feature",
      "geometry": {
        "type": "LineString",
        "coordinates": [
          [
            112.968969,
            37.07082
          ],
          [
            115.5736,
            37.550369
          ],
          [
            109.387994,
            19.70008
          ],
          [
            109.387994,
            19.70008
          ],
          [
            116.362106,
            39.913704
          ],
          [
            108.902362,
            34.160327
          ],
          [
            116.362106,
            39.913704
          ]
        ]
      },
      "properties": {
        "person": "石勒",
        "name": "轨迹"
      }
    }
  ]
}