{
  "type": "FeatureCollection",
  "features": [
    {
      "type": "Feature",
      "geometry": {
        "type": "Point",
        "coordinates": [
          116.362106,
          39.913704
        ]
      },
      "properties": {
        "person": "苏轼",
        "name": "眉山",
        "type": "birth",
        "time": "1037年",
        "modernName": "四川省眉山市东坡区",
        "ancientName": "眉州眉山"
      }
    },
    {
      "type": "Feature",
      "geometry": {
        "type": "Point",
        "coordinates": [
          114.3074,
          34.797
        ]
      },
      "properties": {
        "person": "苏轼",
        "name": "开封（汴京）",
        "type": "normal",
        "time": "1057年、1061年、1065年—1066年、1069年—1070年、1085年—1089年",
        "modernName": "河南省开封市",
        "ancientName": "东京、汴梁"
      }
    },
    {
      "type": "Feature",
      "geometry": {
        "type": "Point",
        "coordinates": [
          107.38592,
          34.52252
        ]
      },
      "properties": {
        "person": "苏轼",
        "name": "凤翔",
        "type": "normal",
        "time": "1061年—1064年",
        "modernName": "陕西省宝鸡市凤翔区",
        "ancientName": "凤翔府"
      }
    },
    {
      "type": "Feature",
      "geometry": {
        "type": "Point",
        "coordinates": [
          120.16862,
          30.29412
        ]
      },
      "properties": {
        "person": "苏轼",
        "name": "杭州",
        "type": "normal",
        "time": "1071年—1074年、1089年—1091年",
        "modernName": "浙江省杭州市",
        "ancientName": "杭州、临安"
      }
    },
    {
      "type": "Feature",
      "geometry": {
        "type": "Point",
        "coordinates": [
          119.40713474607668,
          36.009023352431456
        ]
      },
      "properties": {
        "person": "苏轼",
        "name": "密州",
        "type": "normal",
        "time": "1074年—1076年",
        "modernName": "山东省潍坊市诸城市",
        "ancientName": "密州"
      }
    },
    {
      "type": "Feature",
      "geometry": {
        "type": "Point",
        "coordinates": [
          117.18768,
          34.26963
        ]
      },
      "properties": {
        "person": "苏轼",
        "name": "徐州",
        "type": "normal",
        "time": "1077年—1079年初",
        "modernName": "江苏省徐州市",
        "ancientName": "徐州"
      }
    },
    {
      "type": "Feature",
      "geometry": {
        "type": "Point",
        "coordinates": [
          120.09931,
          30.86496
        ]
      },
      "properties": {
        "person": "苏轼",
        "name": "湖州",
        "type": "normal",
        "time": "1079年",
        "modernName": "浙江省湖州市",
        "ancientName": "湖州"
      }
    },
    {
      "type": "Feature",
      "geometry": {
        "type": "Point",
        "coordinates": [
          114.8673226,
          30.4560187
        ]
      },
      "properties": {
        "person": "苏轼",
        "name": "黄州",
        "type": "normal",
        "time": "1080年—1084年",
        "modernName": "湖北省黄冈市黄州区",
        "ancientName": "黄州"
      }
    },
    {
      "type": "Feature",
      "geometry": {
        "type": "Point",
        "coordinates": [
          120.82427673879796,
          37.79495227610483
        ]
      },
      "properties": {
        "person": "苏轼",
        "name": "登州",
        "type": "normal",
        "time": "1085年",
        "modernName": "山东省烟台市蓬莱区",
        "ancientName": "登州"
      }
    },
    {
      "type": "Feature",
      "geometry": {
        "type": "Point",
        "coordinates": [
          115.80901,
          32.90306
        ]
      },
      "properties": {
        "person": "苏轼",
        "name": "颍州",
        "type": "normal",
        "time": "1091年",
        "modernName": "安徽省阜阳市颍州区",
        "ancientName": "颍州"
      }
    },
    {
      "type": "Feature",
      "geometry": {
        "type": "Point",
        "coordinates": [
          119.4077658,
          32.3968554
        ]
      },
      "properties": {
        "person": "苏轼",
        "name": "扬州",
        "type": "normal",
        "time": "1092年",
        "modernName": "江苏省扬州市",
        "ancientName": "扬州"
      }
    },
    {
      "type": "Feature",
      "geometry": {
        "type": "Point",
        "coordinates": [
          114.97504,
          38.52006
        ]
      },
      "properties": {
        "person": "苏轼",
        "name": "定州",
        "type": "normal",
        "time": "1092年—1093年",
        "modernName": "河北省保定市定州市",
        "ancientName": "定州"
      }
    },
    {
      "type": "Feature",
      "geometry": {
        "type": "Point",
        "coordinates": [
          114.4127007,
          23.1125153
        ]
      },
      "properties": {
        "person": "苏轼",
        "name": "惠州",
        "type": "normal",
        "time": "1094年—1097年",
        "modernName": "广东省惠州市",
        "ancientName": "惠州"
      }
    },
    {
      "type": "Feature",
      "geometry": {
        "type": "Point",
        "coordinates": [
          109.5697188,
          19.5173795
        ]
      },
      "properties": {
        "person": "苏轼",
        "name": "儋州",
        "type": "normal",
        "time": "1097年—1100年",
        "modernName": "海南省儋州市",
        "ancientName": "儋州"
      }
    },
    {
      "type": "Feature",
      "geometry": {
        "type": "Point",
        "coordinates": [
          119.9523,
          31.78278
        ]
      },
      "properties": {
        "person": "苏轼",
        "name": "常州",
        "type": "death",
        "time": "1101年",
        "modernName": "江苏省常州市",
        "ancientName": "常州"
      }
    },
    {
      "type": "Feature",
      "geometry": {
        "type": "LineString",
        "coordinates": [
          [
            116.362106,
            39.913704
          ],
          [
            114.3074,
            34.797
          ],
          [
            107.38592,
            34.52252
          ],
          [
            120.16862,
            30.29412
          ],
          [
            119.40713474607668,
            36.009023352431456
          ],
          [
            117.18768,
            34.26963
          ],
          [
            120.09931,
            30.86496
          ],
          [
            114.8673226,
            30.4560187
          ],
          [
            120.82427673879796,
            37.79495227610483
          ],
          [
            115.80901,
            32.90306
          ],
          [
            119.4077658,
            32.3968554
          ],
          [
            114.97504,
            38.52006
          ],
          [
            114.4127007,
            23.1125153
          ],
          [
            109.5697188,
            19.5173795
          ],
          [
            119.9523,
            31.78278
          ]
        ]
      },
      "properties": {
        "person": "苏轼",
        "name": "轨迹"
      }
    }
  ]
}