{
  "type": "FeatureCollection",
  "features": [
    {
      "type": "Feature",
      "geometry": {
        "type": "Point",
        "coordinates": [
          103.846315,
          30.079934
        ]
      },
      "properties": {
        "person": "苏轼",
        "name": "眉州眉山",
        "type": "birth",
        "time": "1037年—1056年",
        "modernName": "四川省眉山市",
        "ancientName": "眉州眉山"
      }
    },
    {
      "type": "Feature",
      "geometry": {
        "type": "Point",
        "coordinates": [
          114.308423,
          34.798963
        ]
      },
      "properties": {
        "person": "苏轼",
        "name": "开封（汴京）",
        "type": "normal",
        "time": "1056年—1057年；1061年—1064年；1069年—1071年；1085年—1089年（多次往返）",
        "modernName": "河南省开封市",
        "ancientName": "汴京"
      }
    },
    {
      "type": "Feature",
      "geometry": {
        "type": "Point",
        "coordinates": [
          107.396025,
          34.523302
        ]
      },
      "properties": {
        "person": "苏轼",
        "name": "凤翔府",
        "type": "normal",
        "time": "1061年—1064年",
        "modernName": "陕西省宝鸡市凤翔区",
        "ancientName": "凤翔府"
      }
    },
    {
      "type": "Feature",
      "geometry": {
        "type": "Point",
        "coordinates": [
          120.205366,
          30.248993
        ]
      },
      "properties": {
        "person": "苏轼",
        "name": "杭州（两度任职）",
        "type": "normal",
        "time": "1071年—1074年（通判）；1089年—1091年（知州）",
        "modernName": "浙江省杭州市",
        "ancientName": "杭州"
      }
    },
    {
      "type": "Feature",
      "geometry": {
        "type": "Point",
        "coordinates": [
          119.404118,
          35.995725
        ]
      },
      "properties": {
        "person": "苏轼",
        "name": "密州",
        "type": "normal",
        "time": "1074年—1076年",
        "modernName": "山东省诸城市",
        "ancientName": "密州"
      }
    },
    {
      "type": "Feature",
      "geometry": {
        "type": "Point",
        "coordinates": [
          117.277999,
          34.205515
        ]
      },
      "properties": {
        "person": "苏轼",
        "name": "徐州",
        "type": "normal",
        "time": "1077年—1079年",
        "modernName": "江苏省徐州市",
        "ancientName": "徐州"
      }
    },
    {
      "type": "Feature",
      "geometry": {
        "type": "Point",
        "coordinates": [
          114.867363,
          30.456388
        ]
      },
      "properties": {
        "person": "苏轼",
        "name": "黄州",
        "type": "normal",
        "time": "1080年—1084年",
        "modernName": "湖北省黄冈市",
        "ancientName": "黄州"
      }
    },
    {
      "type": "Feature",
      "geometry": {
        "type": "Point",
        "coordinates": [
          114.410619,
          23.114865
        ]
      },
      "properties": {
        "person": "苏轼",
        "name": "惠州",
        "type": "normal",
        "time": "1094年—1097年",
        "modernName": "广东省惠州市",
        "ancientName": "惠州"
      }
    },
    {
      "type": "Feature",
      "geometry": {
        "type": "Point",
        "coordinates": [
          109.576802,
          19.522922
        ]
      },
      "properties": {
        "person": "苏轼",
        "name": "儋州（昌化军）",
        "type": "normal",
        "time": "1097年—1100年",
        "modernName": "海南省儋州市",
        "ancientName": "昌化军"
      }
    },
    {
      "type": "Feature",
      "geometry": {
        "type": "Point",
        "coordinates": [
          119.969342,
          31.813354
        ]
      },
      "properties": {
        "person": "苏轼",
        "name": "常州",
        "type": "death",
        "time": "1101年",
        "modernName": "江苏省常州市",
        "ancientName": "常州"
      }
    },
    {
      "type": "Feature",
      "geometry": {
        "type": "LineString",
        "coordinates": [
          [
            103.846315,
            30.079934
          ],
          [
            114.308423,
            34.798963
          ],
          [
            107.396025,
            34.523302
          ],
          [
            120.205366,
            30.248993
          ],
          [
            119.404118,
            35.995725
          ],
          [
            117.277999,
            34.205515
          ],
          [
            114.867363,
            30.456388
          ],
          [
            114.410619,
            23.114865
          ],
          [
            109.576802,
            19.522922
          ],
          [
            119.969342,
            31.813354
          ]
        ]
      },
      "properties": {
        "person": "苏轼",
        "name": "轨迹"
      }
    }
  ]
}