{
  "type": "FeatureCollection",
  "features": [
    {
      "type": "Feature",
      "geometry": {
        "type": "Point",
        "coordinates": [
          118.3,
          36.82
        ]
      },
      "properties": {
        "person": "荀况",
        "name": "齐国·稷下学宫",
        "type": "normal",
        "time": "约公元前285年至前275年（首次）",
        "modernName": "山东省淄博市临淄区",
        "ancientName": "临淄稷下"
      }
    },
    {
      "type": "Feature",
      "geometry": {
        "type": "Point",
        "coordinates": [
          108.7,
          34.35
        ]
      },
      "properties": {
        "person": "荀况",
        "name": "秦国",
        "type": "normal",
        "time": "约公元前266年（存疑）",
        "modernName": "陕西省咸阳市东北",
        "ancientName": "咸阳"
      }
    },
    {
      "type": "Feature",
      "geometry": {
        "type": "Point",
        "coordinates": [
          118.3,
          36.82
        ]
      },
      "properties": {
        "person": "荀况",
        "name": "齐国·稷下学宫（再任）",
        "type": "normal",
        "time": "约公元前265年至前260年（再任，时间存疑）",
        "modernName": "山东省淄博市临淄区",
        "ancientName": "临淄稷下"
      }
    },
    {
      "type": "Feature",
      "geometry": {
        "type": "Point",
        "coordinates": [
          114.54,
          36.62
        ]
      },
      "properties": {
        "person": "荀况",
        "name": "赵国",
        "type": "normal",
        "time": "约公元前260年（存疑）",
        "modernName": "河北省邯郸市",
        "ancientName": "邯郸"
      }
    },
    {
      "type": "Feature",
      "geometry": {
        "type": "Point",
        "coordinates": [
          117.98,
          34.85
        ]
      },
      "properties": {
        "person": "荀况",
        "name": "楚国·兰陵（任职与终老）",
        "type": "normal",
        "time": "约公元前255年至约公元前238年",
        "modernName": "山东省临沂市兰陵县兰陵镇",
        "ancientName": "兰陵"
      }
    },
    {
      "type": "Feature",
      "geometry": {
        "type": "Point",
        "coordinates": [
          117.98,
          34.85
        ]
      },
      "properties": {
        "person": "荀况",
        "name": "楚国·兰陵",
        "type": "death",
        "time": "约公元前238年",
        "modernName": "山东省临沂市兰陵县兰陵镇",
        "ancientName": "兰陵"
      }
    },
    {
      "type": "Feature",
      "geometry": {
        "type": "LineString",
        "coordinates": [
          [
            118.3,
            36.82
          ],
          [
            108.7,
            34.35
          ],
          [
            118.3,
            36.82
          ],
          [
            114.54,
            36.62
          ],
          [
            117.98,
            34.85
          ],
          [
            117.98,
            34.85
          ]
        ]
      },
      "properties": {
        "person": "荀况",
        "name": "轨迹"
      }
    }
  ]
}