{
  "type": "FeatureCollection",
  "features": [
    {
      "type": "Feature",
      "geometry": {
        "type": "Point",
        "coordinates": [
          103.859,
          35.375
        ]
      },
      "properties": {
        "person": "董卓",
        "name": "陇西郡临洮县",
        "type": "birth",
        "time": "约公元132年",
        "modernName": "甘肃省定西市临洮县",
        "ancientName": "凉州陇西郡临洮县"
      }
    },
    {
      "type": "Feature",
      "geometry": {
        "type": "Point",
        "coordinates": [
          102.637,
          37.928
        ]
      },
      "properties": {
        "person": "董卓",
        "name": "凉州",
        "type": "normal",
        "time": "约公元150s - 180s年",
        "modernName": "甘肃省武威市）",
        "ancientName": "凉州（治所姑臧县，"
      }
    },
    {
      "type": "Feature",
      "geometry": {
        "type": "Point",
        "coordinates": [
          111.22,
          35.14
        ]
      },
      "properties": {
        "person": "董卓",
        "name": "河东郡",
        "type": "normal",
        "time": "约公元188年 - 189年",
        "modernName": "山西省运城市夏县）",
        "ancientName": "司隶河东郡（治安邑县，"
      }
    },
    {
      "type": "Feature",
      "geometry": {
        "type": "Point",
        "coordinates": [
          112.45,
          34.62
        ]
      },
      "properties": {
        "person": "董卓",
        "name": "洛阳",
        "type": "normal",
        "time": "公元189年 - 190年",
        "modernName": "河南省洛阳市东",
        "ancientName": "司隶河南尹洛阳"
      }
    },
    {
      "type": "Feature",
      "geometry": {
        "type": "Point",
        "coordinates": [
          111.76,
          34.763
        ]
      },
      "properties": {
        "person": "董卓",
        "name": "渑池",
        "type": "normal",
        "time": "公元190年",
        "modernName": "河南省三门峡市渑池县",
        "ancientName": "司隶弘农郡渑池县"
      }
    },
    {
      "type": "Feature",
      "geometry": {
        "type": "Point",
        "coordinates": [
          108.94,
          34.26
        ]
      },
      "properties": {
        "person": "董卓",
        "name": "长安",
        "type": "normal",
        "time": "公元190年 - 192年",
        "modernName": "陕西省西安市",
        "ancientName": "司隶京兆尹长安"
      }
    },
    {
      "type": "Feature",
      "geometry": {
        "type": "Point",
        "coordinates": [
          107.75,
          34.275
        ]
      },
      "properties": {
        "person": "董卓",
        "name": "郿坞",
        "type": "normal",
        "time": "公元191年 - 192年（修建并使用）",
        "modernName": "陕西省宝鸡市眉县东北",
        "ancientName": "司隶扶风郡郿县"
      }
    },
    {
      "type": "Feature",
      "geometry": {
        "type": "Point",
        "coordinates": [
          108.94,
          34.26
        ]
      },
      "properties": {
        "person": "董卓",
        "name": "长安（北掖门）",
        "type": "death",
        "time": "公元192年5月22日",
        "modernName": "陕西省西安市",
        "ancientName": "司隶京兆尹长安"
      }
    },
    {
      "type": "Feature",
      "geometry": {
        "type": "LineString",
        "coordinates": [
          [
            103.859,
            35.375
          ],
          [
            102.637,
            37.928
          ],
          [
            111.22,
            35.14
          ],
          [
            112.45,
            34.62
          ],
          [
            111.76,
            34.763
          ],
          [
            108.94,
            34.26
          ],
          [
            107.75,
            34.275
          ],
          [
            108.94,
            34.26
          ]
        ]
      },
      "properties": {
        "person": "董卓",
        "name": "轨迹"
      }
    }
  ]
}