{
  "type": "FeatureCollection",
  "features": [
    {
      "type": "Feature",
      "geometry": {
        "type": "Point",
        "coordinates": [
          108.704164,
          34.331338
        ]
      },
      "properties": {
        "person": "蒙恬",
        "name": "秦国将门",
        "type": "birth",
        "time": "约前244年",
        "modernName": "陕西省咸阳市一带）",
        "ancientName": "秦国都城一带（古称秦国，"
      }
    },
    {
      "type": "Feature",
      "geometry": {
        "type": "Point",
        "coordinates": [
          117.014794,
          36.669875
        ]
      },
      "properties": {
        "person": "蒙恬",
        "name": "齐国",
        "type": "normal",
        "time": "前221年",
        "modernName": "山东省北部淄博、潍坊一带",
        "ancientName": "齐国"
      }
    },
    {
      "type": "Feature",
      "geometry": {
        "type": "Point",
        "coordinates": [
          111.758316,
          40.816809
        ]
      },
      "properties": {
        "person": "蒙恬",
        "name": "河南地（河套地区）",
        "type": "normal",
        "time": "前215年",
        "modernName": "内蒙古自治区河套地区一带",
        "ancientName": "河南地"
      }
    },
    {
      "type": "Feature",
      "geometry": {
        "type": "Point",
        "coordinates": [
          109.96235,
          40.610199
        ]
      },
      "properties": {
        "person": "蒙恬",
        "name": "九原",
        "type": "normal",
        "time": "前215年—前210年",
        "modernName": "内蒙古自治区包头市九原区一带",
        "ancientName": "九原"
      }
    },
    {
      "type": "Feature",
      "geometry": {
        "type": "Point",
        "coordinates": [
          115.839034,
          28.935551
        ]
      },
      "properties": {
        "person": "蒙恬",
        "name": "万里长城沿线",
        "type": "normal",
        "time": "前214年",
        "modernName": "甘肃省定西市岷县一带",
        "ancientName": "北疆沿线（西起临洮，"
      }
    },
    {
      "type": "Feature",
      "geometry": {
        "type": "Point",
        "coordinates": [
          108.704164,
          34.331338
        ]
      },
      "properties": {
        "person": "蒙恬",
        "name": "秦直道",
        "type": "normal",
        "time": "前212年—前210年",
        "modernName": "陕西省咸阳市淳化县一带",
        "ancientName": "关中至河套（南起云阳，"
      }
    },
    {
      "type": "Feature",
      "geometry": {
        "type": "Point",
        "coordinates": [
          115.136631,
          37.074141
        ]
      },
      "properties": {
        "person": "蒙恬",
        "name": "沙丘",
        "type": "normal",
        "time": "前210年",
        "modernName": "河北省邢台市广宗县一带",
        "ancientName": "沙丘"
      }
    },
    {
      "type": "Feature",
      "geometry": {
        "type": "Point",
        "coordinates": [
          109.669928,
          37.142109
        ]
      },
      "properties": {
        "person": "蒙恬",
        "name": "阳周",
        "type": "death",
        "time": "前210年",
        "modernName": "陕西省延安市子长县一带",
        "ancientName": "阳周"
      }
    },
    {
      "type": "Feature",
      "geometry": {
        "type": "LineString",
        "coordinates": [
          [
            108.704164,
            34.331338
          ],
          [
            117.014794,
            36.669875
          ],
          [
            111.758316,
            40.816809
          ],
          [
            109.96235,
            40.610199
          ],
          [
            115.839034,
            28.935551
          ],
          [
            108.704164,
            34.331338
          ],
          [
            115.136631,
            37.074141
          ],
          [
            109.669928,
            37.142109
          ]
        ]
      },
      "properties": {
        "person": "蒙恬",
        "name": "轨迹"
      }
    }
  ]
}