{
  "type": "FeatureCollection",
  "features": [
    {
      "type": "Feature",
      "geometry": {
        "type": "Point",
        "coordinates": [
          114.527679,
          34.671053
        ]
      },
      "properties": {
        "person": "蔡文姬",
        "name": "陈留圉",
        "type": "normal",
        "time": "约177年",
        "modernName": "陈留圉",
        "ancientName": "陈留圉"
      }
    },
    {
      "type": "Feature",
      "geometry": {
        "type": "Point",
        "coordinates": [
          108.902362,
          34.160327
        ]
      },
      "properties": {
        "person": "蔡文姬",
        "name": "长安",
        "type": "normal",
        "time": "约194年前后",
        "modernName": "长安",
        "ancientName": "长安"
      }
    },
    {
      "type": "Feature",
      "geometry": {
        "type": "Point",
        "coordinates": [
          116.362106,
          39.913704
        ]
      },
      "properties": {
        "person": "蔡文姬",
        "name": "南匈奴",
        "type": "normal",
        "time": "约195-200年",
        "modernName": "南匈奴",
        "ancientName": "南匈奴"
      }
    },
    {
      "type": "Feature",
      "geometry": {
        "type": "Point",
        "coordinates": [
          116.362106,
          39.913704
        ]
      },
      "properties": {
        "person": "蔡文姬",
        "name": "南匈奴",
        "type": "normal",
        "time": "约200年后",
        "modernName": "南匈奴",
        "ancientName": "南匈奴"
      }
    },
    {
      "type": "Feature",
      "geometry": {
        "type": "Point",
        "coordinates": [
          114.460194,
          36.33833
        ]
      },
      "properties": {
        "person": "蔡文姬",
        "name": "邺城",
        "type": "normal",
        "time": "约208年",
        "modernName": "邺城",
        "ancientName": "邺城"
      }
    },
    {
      "type": "Feature",
      "geometry": {
        "type": "LineString",
        "coordinates": [
          [
            114.527679,
            34.671053
          ],
          [
            108.902362,
            34.160327
          ],
          [
            116.362106,
            39.913704
          ],
          [
            116.362106,
            39.913704
          ],
          [
            114.460194,
            36.33833
          ]
        ]
      },
      "properties": {
        "person": "蔡文姬",
        "name": "轨迹"
      }
    }
  ]
}