{
  "type": "FeatureCollection",
  "features": [
    {
      "type": "Feature",
      "geometry": {
        "type": "Point",
        "coordinates": [
          118.4657,
          35.5498
        ]
      },
      "properties": {
        "person": "诸葛亮",
        "name": "琅琊阳都",
        "type": "birth",
        "time": "公元181年",
        "modernName": "山东省临沂市沂南县",
        "ancientName": "琅琊郡阳都县"
      }
    },
    {
      "type": "Feature",
      "geometry": {
        "type": "Point",
        "coordinates": [
          112.0293,
          32.0136
        ]
      },
      "properties": {
        "person": "诸葛亮",
        "name": "襄阳隆中",
        "type": "normal",
        "time": "约公元195年 - 207年",
        "modernName": "湖北省襄阳市襄城区",
        "ancientName": "荆州南阳郡邓县隆中"
      }
    },
    {
      "type": "Feature",
      "geometry": {
        "type": "Point",
        "coordinates": [
          115.9113,
          29.6093
        ]
      },
      "properties": {
        "person": "诸葛亮",
        "name": "柴桑",
        "type": "normal",
        "time": "公元208年",
        "modernName": "江西省九江市",
        "ancientName": "江夏郡柴桑县"
      }
    },
    {
      "type": "Feature",
      "geometry": {
        "type": "Point",
        "coordinates": [
          113.9006,
          29.7222
        ]
      },
      "properties": {
        "person": "诸葛亮",
        "name": "赤壁",
        "type": "normal",
        "time": "公元208年",
        "modernName": "荆州南郡（古战场位置说法不一，一般认为在今湖北省赤壁市）",
        "ancientName": "赤壁"
      }
    },
    {
      "type": "Feature",
      "geometry": {
        "type": "Point",
        "coordinates": [
          104.0495,
          30.6462
        ]
      },
      "properties": {
        "person": "诸葛亮",
        "name": "成都",
        "type": "normal",
        "time": "公元214年 - 227年（主要居留）",
        "modernName": "四川省成都市",
        "ancientName": "益州蜀郡成都县"
      }
    },
    {
      "type": "Feature",
      "geometry": {
        "type": "Point",
        "coordinates": [
          109.4648,
          31.0168
        ]
      },
      "properties": {
        "person": "诸葛亮",
        "name": "白帝城",
        "type": "normal",
        "time": "公元223年",
        "modernName": "重庆市奉节县",
        "ancientName": "巴郡鱼复县"
      }
    },
    {
      "type": "Feature",
      "geometry": {
        "type": "Point",
        "coordinates": [
          106.65,
          33.15
        ]
      },
      "properties": {
        "person": "诸葛亮",
        "name": "汉中",
        "type": "normal",
        "time": "公元227年 - 234年（多次往返）",
        "modernName": "陕西省汉中市",
        "ancientName": "益州汉中郡"
      }
    },
    {
      "type": "Feature",
      "geometry": {
        "type": "Point",
        "coordinates": [
          105.2653,
          34.1875
        ]
      },
      "properties": {
        "person": "诸葛亮",
        "name": "祁山",
        "type": "normal",
        "time": "公元228年春（第一次北伐）",
        "modernName": "甘肃省陇南市礼县祁山堡",
        "ancientName": "凉州天水郡"
      }
    },
    {
      "type": "Feature",
      "geometry": {
        "type": "Point",
        "coordinates": [
          107.6186,
          34.2658
        ]
      },
      "properties": {
        "person": "诸葛亮",
        "name": "五丈原",
        "type": "normal",
        "time": "公元234年",
        "modernName": "陕西省宝鸡市岐山县",
        "ancientName": "扶风郡五丈原"
      }
    },
    {
      "type": "Feature",
      "geometry": {
        "type": "Point",
        "coordinates": [
          107.6186,
          34.2658
        ]
      },
      "properties": {
        "person": "诸葛亮",
        "name": "五丈原",
        "type": "death",
        "time": "公元234年10月",
        "modernName": "陕西省宝鸡市岐山县",
        "ancientName": "扶风郡五丈原"
      }
    },
    {
      "type": "Feature",
      "geometry": {
        "type": "LineString",
        "coordinates": [
          [
            118.4657,
            35.5498
          ],
          [
            112.0293,
            32.0136
          ],
          [
            115.9113,
            29.6093
          ],
          [
            113.9006,
            29.7222
          ],
          [
            104.0495,
            30.6462
          ],
          [
            109.4648,
            31.0168
          ],
          [
            106.65,
            33.15
          ],
          [
            105.2653,
            34.1875
          ],
          [
            107.6186,
            34.2658
          ],
          [
            107.6186,
            34.2658
          ]
        ]
      },
      "properties": {
        "person": "诸葛亮",
        "name": "轨迹"
      }
    }
  ]
}