{
  "type": "FeatureCollection",
  "features": [
    {
      "type": "Feature",
      "geometry": {
        "type": "Point",
        "coordinates": [
          116.362106,
          39.913704
        ]
      },
      "properties": {
        "person": "谢安",
        "name": "陈郡阳夏",
        "type": "normal",
        "time": "320年",
        "modernName": "陈郡",
        "ancientName": "陈郡阳夏"
      }
    },
    {
      "type": "Feature",
      "geometry": {
        "type": "Point",
        "coordinates": [
          117.424436,
          23.704441
        ]
      },
      "properties": {
        "person": "谢安",
        "name": "会稽东山",
        "type": "normal",
        "time": "约360年代",
        "modernName": "会稽东山",
        "ancientName": "会稽东山"
      }
    },
    {
      "type": "Feature",
      "geometry": {
        "type": "Point",
        "coordinates": [
          99.658037,
          39.346085
        ]
      },
      "properties": {
        "person": "谢安",
        "name": "建康",
        "type": "normal",
        "time": "361年",
        "modernName": "建康",
        "ancientName": "建康"
      }
    },
    {
      "type": "Feature",
      "geometry": {
        "type": "Point",
        "coordinates": [
          99.658037,
          39.346085
        ]
      },
      "properties": {
        "person": "谢安",
        "name": "建康",
        "type": "normal",
        "time": "370年代",
        "modernName": "建康",
        "ancientName": "建康"
      }
    },
    {
      "type": "Feature",
      "geometry": {
        "type": "Point",
        "coordinates": [
          99.658037,
          39.346085
        ]
      },
      "properties": {
        "person": "谢安",
        "name": "建康",
        "type": "normal",
        "time": "372年",
        "modernName": "建康",
        "ancientName": "建康"
      }
    },
    {
      "type": "Feature",
      "geometry": {
        "type": "Point",
        "coordinates": [
          116.362106,
          39.913704
        ]
      },
      "properties": {
        "person": "谢安",
        "name": "淝水",
        "type": "normal",
        "time": "383年",
        "modernName": "淝水",
        "ancientName": "淝水"
      }
    },
    {
      "type": "Feature",
      "geometry": {
        "type": "Point",
        "coordinates": [
          99.658037,
          39.346085
        ]
      },
      "properties": {
        "person": "谢安",
        "name": "建康",
        "type": "death",
        "time": "385年",
        "modernName": "建康",
        "ancientName": "建康"
      }
    },
    {
      "type": "Feature",
      "geometry": {
        "type": "LineString",
        "coordinates": [
          [
            116.362106,
            39.913704
          ],
          [
            117.424436,
            23.704441
          ],
          [
            99.658037,
            39.346085
          ],
          [
            99.658037,
            39.346085
          ],
          [
            99.658037,
            39.346085
          ],
          [
            116.362106,
            39.913704
          ],
          [
            99.658037,
            39.346085
          ]
        ]
      },
      "properties": {
        "person": "谢安",
        "name": "轨迹"
      }
    }
  ]
}