{
  "type": "FeatureCollection",
  "features": [
    {
      "type": "Feature",
      "geometry": {
        "type": "Point",
        "coordinates": [
          115.968447,
          39.484618
        ]
      },
      "properties": {
        "person": "贾岛",
        "name": "范阳",
        "type": "birth",
        "time": "约 779 年（存疑）",
        "modernName": "河北省保定市涿州市一带，唐代属范阳郡",
        "ancientName": "范阳"
      }
    },
    {
      "type": "Feature",
      "geometry": {
        "type": "Point",
        "coordinates": [
          108.93499,
          34.344762
        ]
      },
      "properties": {
        "person": "贾岛",
        "name": "长安",
        "type": "normal",
        "time": "贞元十七年（约 801 年）前后至开成初年",
        "modernName": "陕西省西安市",
        "ancientName": "长安"
      }
    },
    {
      "type": "Feature",
      "geometry": {
        "type": "Point",
        "coordinates": [
          108.93499,
          34.344762
        ]
      },
      "properties": {
        "person": "贾岛",
        "name": "遂州长江县",
        "type": "normal",
        "time": "开成二年（837）至会昌三年（843）",
        "modernName": "四川省遂宁市射洪县一带，唐属剑南东道遂州",
        "ancientName": "遂州长江县"
      }
    },
    {
      "type": "Feature",
      "geometry": {
        "type": "Point",
        "coordinates": [
          105.351933,
          30.10615
        ]
      },
      "properties": {
        "person": "贾岛",
        "name": "普州",
        "type": "normal",
        "time": "会昌三年（843）至会昌四年（844）",
        "modernName": "四川省资阳市安岳县，唐属剑南东道",
        "ancientName": "普州"
      }
    },
    {
      "type": "Feature",
      "geometry": {
        "type": "Point",
        "coordinates": [
          105.351933,
          30.10615
        ]
      },
      "properties": {
        "person": "贾岛",
        "name": "普州",
        "type": "death",
        "time": "会昌四年（844）",
        "modernName": "四川省资阳市安岳县",
        "ancientName": "普州"
      }
    },
    {
      "type": "Feature",
      "geometry": {
        "type": "Point",
        "coordinates": [
          112.4477046,
          34.6196539
        ]
      },
      "properties": {
        "person": "贾岛",
        "name": "洛阳",
        "type": "normal",
        "time": "元和、长庆年间",
        "modernName": "河南省洛阳市",
        "ancientName": "洛阳"
      }
    },
    {
      "type": "Feature",
      "geometry": {
        "type": "LineString",
        "coordinates": [
          [
            115.968447,
            39.484618
          ],
          [
            108.93499,
            34.344762
          ],
          [
            108.93499,
            34.344762
          ],
          [
            105.351933,
            30.10615
          ],
          [
            105.351933,
            30.10615
          ],
          [
            112.4477046,
            34.6196539
          ]
        ]
      },
      "properties": {
        "person": "贾岛",
        "name": "轨迹"
      }
    }
  ]
}