{
  "type": "FeatureCollection",
  "features": [
    {
      "type": "Feature",
      "geometry": {
        "type": "Point",
        "coordinates": [
          105.77455,
          30.005508
        ]
      },
      "properties": {
        "person": "赵云",
        "name": "长坂坡",
        "type": "normal",
        "time": "公元 208 年",
        "modernName": "长坂坡",
        "ancientName": "长坂坡"
      }
    },
    {
      "type": "Feature",
      "geometry": {
        "type": "Point",
        "coordinates": [
          104.063796,
          30.575416
        ]
      },
      "properties": {
        "person": "赵云",
        "name": "成都",
        "type": "normal",
        "time": "公元 214 年",
        "modernName": "成都",
        "ancientName": "成都"
      }
    },
    {
      "type": "Feature",
      "geometry": {
        "type": "Point",
        "coordinates": [
          107.767792,
          24.313835
        ]
      },
      "properties": {
        "person": "赵云",
        "name": "汉水",
        "type": "normal",
        "time": "公元 219 年",
        "modernName": "汉水",
        "ancientName": "汉水"
      }
    },
    {
      "type": "Feature",
      "geometry": {
        "type": "Point",
        "coordinates": [
          107.018669,
          33.068261
        ]
      },
      "properties": {
        "person": "赵云",
        "name": "汉中",
        "type": "normal",
        "time": "公元 227 年",
        "modernName": "汉中",
        "ancientName": "汉中"
      }
    },
    {
      "type": "Feature",
      "geometry": {
        "type": "Point",
        "coordinates": [
          116.362106,
          39.913704
        ]
      },
      "properties": {
        "person": "赵云",
        "name": "箕谷",
        "type": "normal",
        "time": "公元 228 年",
        "modernName": "箕谷",
        "ancientName": "箕谷"
      }
    },
    {
      "type": "Feature",
      "geometry": {
        "type": "Point",
        "coordinates": [
          118.506299,
          28.905474
        ]
      },
      "properties": {
        "person": "赵云",
        "name": "常山真定",
        "type": "normal",
        "time": "约汉末",
        "modernName": "常山真定",
        "ancientName": "常山真定"
      }
    },
    {
      "type": "Feature",
      "geometry": {
        "type": "LineString",
        "coordinates": [
          [
            105.77455,
            30.005508
          ],
          [
            104.063796,
            30.575416
          ],
          [
            107.767792,
            24.313835
          ],
          [
            107.018669,
            33.068261
          ],
          [
            116.362106,
            39.913704
          ],
          [
            118.506299,
            28.905474
          ]
        ]
      },
      "properties": {
        "person": "赵云",
        "name": "轨迹"
      }
    }
  ]
}