{
  "type": "FeatureCollection",
  "features": [
    {
      "type": "Feature",
      "geometry": {
        "type": "Point",
        "coordinates": [
          112.447644,
          34.620728
        ]
      },
      "properties": {
        "person": "赵匡胤",
        "name": "洛阳",
        "type": "normal",
        "time": "927年",
        "modernName": "洛阳",
        "ancientName": "洛阳"
      }
    },
    {
      "type": "Feature",
      "geometry": {
        "type": "Point",
        "coordinates": [
          112.917676,
          35.799065
        ]
      },
      "properties": {
        "person": "赵匡胤",
        "name": "高平",
        "type": "normal",
        "time": "954年",
        "modernName": "高平",
        "ancientName": "高平"
      }
    },
    {
      "type": "Feature",
      "geometry": {
        "type": "Point",
        "coordinates": [
          114.412949,
          35.041738
        ]
      },
      "properties": {
        "person": "赵匡胤",
        "name": "陈桥驿（今河南封丘）",
        "type": "normal",
        "time": "960年",
        "modernName": "河南封丘",
        "ancientName": "陈桥驿"
      }
    },
    {
      "type": "Feature",
      "geometry": {
        "type": "Point",
        "coordinates": [
          114.308423,
          34.798963
        ]
      },
      "properties": {
        "person": "赵匡胤",
        "name": "开封",
        "type": "normal",
        "time": "961年",
        "modernName": "开封",
        "ancientName": "开封"
      }
    },
    {
      "type": "Feature",
      "geometry": {
        "type": "Point",
        "coordinates": [
          112.977378,
          28.119404
        ]
      },
      "properties": {
        "person": "赵匡胤",
        "name": "湖南",
        "type": "normal",
        "time": "963年",
        "modernName": "湖南",
        "ancientName": "湖南"
      }
    },
    {
      "type": "Feature",
      "geometry": {
        "type": "Point",
        "coordinates": [
          114.162074,
          36.044298
        ]
      },
      "properties": {
        "person": "赵匡胤",
        "name": "后蜀",
        "type": "normal",
        "time": "964年",
        "modernName": "后蜀",
        "ancientName": "后蜀"
      }
    },
    {
      "type": "Feature",
      "geometry": {
        "type": "Point",
        "coordinates": [
          106.376374,
          23.863761
        ]
      },
      "properties": {
        "person": "赵匡胤",
        "name": "南汉",
        "type": "normal",
        "time": "971年",
        "modernName": "南汉",
        "ancientName": "南汉"
      }
    },
    {
      "type": "Feature",
      "geometry": {
        "type": "Point",
        "coordinates": [
          116.116417,
          38.181972
        ]
      },
      "properties": {
        "person": "赵匡胤",
        "name": "南唐",
        "type": "normal",
        "time": "975年",
        "modernName": "南唐",
        "ancientName": "南唐"
      }
    },
    {
      "type": "Feature",
      "geometry": {
        "type": "Point",
        "coordinates": [
          114.308423,
          34.798963
        ]
      },
      "properties": {
        "person": "赵匡胤",
        "name": "开封",
        "type": "death",
        "time": "976年",
        "modernName": "开封",
        "ancientName": "开封"
      }
    },
    {
      "type": "Feature",
      "geometry": {
        "type": "LineString",
        "coordinates": [
          [
            112.447644,
            34.620728
          ],
          [
            112.917676,
            35.799065
          ],
          [
            114.412949,
            35.041738
          ],
          [
            114.308423,
            34.798963
          ],
          [
            112.977378,
            28.119404
          ],
          [
            114.162074,
            36.044298
          ],
          [
            106.376374,
            23.863761
          ],
          [
            116.116417,
            38.181972
          ],
          [
            114.308423,
            34.798963
          ]
        ]
      },
      "properties": {
        "person": "赵匡胤",
        "name": "轨迹"
      }
    }
  ]
}