{
  "type": "FeatureCollection",
  "features": [
    {
      "type": "Feature",
      "geometry": {
        "type": "Point",
        "coordinates": [
          108.704164,
          34.331338
        ]
      },
      "properties": {
        "person": "赵高",
        "name": "咸阳",
        "type": "normal",
        "time": "前210年",
        "modernName": "咸阳",
        "ancientName": "咸阳"
      }
    },
    {
      "type": "Feature",
      "geometry": {
        "type": "Point",
        "coordinates": [
          108.10702,
          30.224819
        ]
      },
      "properties": {
        "person": "赵高",
        "name": "沙丘",
        "type": "death",
        "time": "前210年",
        "modernName": "沙丘",
        "ancientName": "沙丘"
      }
    },
    {
      "type": "Feature",
      "geometry": {
        "type": "Point",
        "coordinates": [
          108.704164,
          34.331338
        ]
      },
      "properties": {
        "person": "赵高",
        "name": "咸阳",
        "type": "normal",
        "time": "前208年",
        "modernName": "咸阳",
        "ancientName": "咸阳"
      }
    },
    {
      "type": "Feature",
      "geometry": {
        "type": "Point",
        "coordinates": [
          108.704164,
          34.331338
        ]
      },
      "properties": {
        "person": "赵高",
        "name": "咸阳",
        "type": "normal",
        "time": "前208年",
        "modernName": "咸阳",
        "ancientName": "咸阳"
      }
    },
    {
      "type": "Feature",
      "geometry": {
        "type": "Point",
        "coordinates": [
          108.704164,
          34.331338
        ]
      },
      "properties": {
        "person": "赵高",
        "name": "咸阳",
        "type": "normal",
        "time": "前208年",
        "modernName": "咸阳",
        "ancientName": "咸阳"
      }
    },
    {
      "type": "Feature",
      "geometry": {
        "type": "Point",
        "coordinates": [
          108.704164,
          34.331338
        ]
      },
      "properties": {
        "person": "赵高",
        "name": "咸阳",
        "type": "normal",
        "time": "前207年",
        "modernName": "咸阳",
        "ancientName": "咸阳"
      }
    },
    {
      "type": "Feature",
      "geometry": {
        "type": "Point",
        "coordinates": [
          118.361598,
          36.957728
        ]
      },
      "properties": {
        "person": "赵高",
        "name": "成皋",
        "type": "normal",
        "time": "前206年",
        "modernName": "成皋",
        "ancientName": "成皋"
      }
    },
    {
      "type": "Feature",
      "geometry": {
        "type": "LineString",
        "coordinates": [
          [
            108.704164,
            34.331338
          ],
          [
            108.10702,
            30.224819
          ],
          [
            108.704164,
            34.331338
          ],
          [
            108.704164,
            34.331338
          ],
          [
            108.704164,
            34.331338
          ],
          [
            108.704164,
            34.331338
          ],
          [
            118.361598,
            36.957728
          ]
        ]
      },
      "properties": {
        "person": "赵高",
        "name": "轨迹"
      }
    }
  ]
}