{
  "type": "FeatureCollection",
  "features": [
    {
      "type": "Feature",
      "geometry": {
        "type": "Point",
        "coordinates": [
          120.08201,
          30.896222
        ]
      },
      "properties": {
        "person": "钱三强",
        "name": "浙江湖州",
        "type": "birth",
        "time": "1913年",
        "modernName": "浙江省湖州市",
        "ancientName": "浙江湖州"
      }
    },
    {
      "type": "Feature",
      "geometry": {
        "type": "Point",
        "coordinates": [
          116.401145,
          39.902776
        ]
      },
      "properties": {
        "person": "钱三强",
        "name": "北平·清华大学",
        "type": "normal",
        "time": "1932—1936年",
        "modernName": "北京市",
        "ancientName": "北平清华大学"
      }
    },
    {
      "type": "Feature",
      "geometry": {
        "type": "Point",
        "coordinates": [
          2.352222,
          48.856667
        ]
      },
      "properties": {
        "person": "钱三强",
        "name": "法国巴黎",
        "type": "normal",
        "time": "1937—1948年",
        "modernName": "法国巴黎",
        "ancientName": "法国巴黎"
      }
    },
    {
      "type": "Feature",
      "geometry": {
        "type": "Point",
        "coordinates": [
          86.142645,
          41.762611
        ]
      },
      "properties": {
        "person": "钱三强",
        "name": "新疆罗布泊",
        "type": "normal",
        "time": "1964年、1967年",
        "modernName": "新疆维吾尔自治区巴音郭楞蒙古自治州境内",
        "ancientName": "新疆罗布泊"
      }
    },
    {
      "type": "Feature",
      "geometry": {
        "type": "Point",
        "coordinates": [
          116.401145,
          39.902776
        ]
      },
      "properties": {
        "person": "钱三强",
        "name": "北京",
        "type": "normal",
        "time": "1948—1992年",
        "modernName": "北京市",
        "ancientName": "北京"
      }
    },
    {
      "type": "Feature",
      "geometry": {
        "type": "Point",
        "coordinates": [
          116.401145,
          39.902776
        ]
      },
      "properties": {
        "person": "钱三强",
        "name": "北京",
        "type": "death",
        "time": "1992年",
        "modernName": "北京市",
        "ancientName": "北京"
      }
    },
    {
      "type": "Feature",
      "geometry": {
        "type": "LineString",
        "coordinates": [
          [
            120.08201,
            30.896222
          ],
          [
            116.401145,
            39.902776
          ],
          [
            2.352222,
            48.856667
          ],
          [
            86.142645,
            41.762611
          ],
          [
            116.401145,
            39.902776
          ],
          [
            116.401145,
            39.902776
          ]
        ]
      },
      "properties": {
        "person": "钱三强",
        "name": "轨迹"
      }
    }
  ]
}