{
  "type": "FeatureCollection",
  "features": [
    {
      "type": "Feature",
      "geometry": {
        "type": "Point",
        "coordinates": [
          120.30728,
          31.492953
        ]
      },
      "properties": {
        "person": "钱穆",
        "name": "无锡",
        "type": "birth",
        "time": "1895年",
        "modernName": "江苏省无锡市",
        "ancientName": "无锡"
      }
    },
    {
      "type": "Feature",
      "geometry": {
        "type": "Point",
        "coordinates": [
          116.401145,
          39.902776
        ]
      },
      "properties": {
        "person": "钱穆",
        "name": "北京",
        "type": "normal",
        "time": "1930年",
        "modernName": "北京市",
        "ancientName": "北京"
      }
    },
    {
      "type": "Feature",
      "geometry": {
        "type": "Point",
        "coordinates": [
          102.832254,
          24.884561
        ]
      },
      "properties": {
        "person": "钱穆",
        "name": "昆明",
        "type": "normal",
        "time": "1938年前后",
        "modernName": "云南省昆明市",
        "ancientName": "昆明"
      }
    },
    {
      "type": "Feature",
      "geometry": {
        "type": "Point",
        "coordinates": [
          104.063796,
          30.575416
        ]
      },
      "properties": {
        "person": "钱穆",
        "name": "成都",
        "type": "normal",
        "time": "1939年—1940年",
        "modernName": "四川省成都市",
        "ancientName": "成都"
      }
    },
    {
      "type": "Feature",
      "geometry": {
        "type": "Point",
        "coordinates": [
          114.165753,
          22.281096
        ]
      },
      "properties": {
        "person": "钱穆",
        "name": "香港",
        "type": "normal",
        "time": "1949年",
        "modernName": "香港特别行政区",
        "ancientName": "香港"
      }
    },
    {
      "type": "Feature",
      "geometry": {
        "type": "Point",
        "coordinates": [
          114.723474,
          30.854364
        ]
      },
      "properties": {
        "person": "钱穆",
        "name": "台北",
        "type": "normal",
        "time": "1967年",
        "modernName": "台湾省台北市",
        "ancientName": "台北"
      }
    },
    {
      "type": "Feature",
      "geometry": {
        "type": "Point",
        "coordinates": [
          114.723474,
          30.854364
        ]
      },
      "properties": {
        "person": "钱穆",
        "name": "台北",
        "type": "death",
        "time": "1990年",
        "modernName": "台湾省台北市",
        "ancientName": "台北"
      }
    },
    {
      "type": "Feature",
      "geometry": {
        "type": "LineString",
        "coordinates": [
          [
            120.30728,
            31.492953
          ],
          [
            116.401145,
            39.902776
          ],
          [
            102.832254,
            24.884561
          ],
          [
            104.063796,
            30.575416
          ],
          [
            114.165753,
            22.281096
          ],
          [
            114.723474,
            30.854364
          ],
          [
            114.723474,
            30.854364
          ]
        ]
      },
      "properties": {
        "person": "钱穆",
        "name": "轨迹"
      }
    }
  ]
}