{
  "type": "FeatureCollection",
  "features": [
    {
      "type": "Feature",
      "geometry": {
        "type": "Point",
        "coordinates": [
          112.933432,
          28.231811
        ]
      },
      "properties": {
        "person": "陈寅恪",
        "name": "长沙",
        "type": "normal",
        "time": "1890年",
        "modernName": "长沙",
        "ancientName": "长沙"
      }
    },
    {
      "type": "Feature",
      "geometry": {
        "type": "Point",
        "coordinates": [
          103.169161,
          37.057572
        ]
      },
      "properties": {
        "person": "陈寅恪",
        "name": "柏林/巴黎/哈佛",
        "type": "normal",
        "time": "1910年前后",
        "modernName": "柏林",
        "ancientName": "柏林/巴黎/哈佛"
      }
    },
    {
      "type": "Feature",
      "geometry": {
        "type": "Point",
        "coordinates": [
          109.515799,
          34.320331
        ]
      },
      "properties": {
        "person": "陈寅恪",
        "name": "北平",
        "type": "normal",
        "time": "1926年",
        "modernName": "北平",
        "ancientName": "北平"
      }
    },
    {
      "type": "Feature",
      "geometry": {
        "type": "Point",
        "coordinates": [
          102.832254,
          24.884561
        ]
      },
      "properties": {
        "person": "陈寅恪",
        "name": "昆明/成都",
        "type": "normal",
        "time": "1937年",
        "modernName": "昆明",
        "ancientName": "昆明/成都"
      }
    },
    {
      "type": "Feature",
      "geometry": {
        "type": "Point",
        "coordinates": [
          113.259169,
          23.132737
        ]
      },
      "properties": {
        "person": "陈寅恪",
        "name": "广州",
        "type": "normal",
        "time": "1948年",
        "modernName": "广州",
        "ancientName": "广州"
      }
    },
    {
      "type": "Feature",
      "geometry": {
        "type": "Point",
        "coordinates": [
          113.259169,
          23.132737
        ]
      },
      "properties": {
        "person": "陈寅恪",
        "name": "广州",
        "type": "death",
        "time": "1969年",
        "modernName": "广州",
        "ancientName": "广州"
      }
    },
    {
      "type": "Feature",
      "geometry": {
        "type": "LineString",
        "coordinates": [
          [
            112.933432,
            28.231811
          ],
          [
            103.169161,
            37.057572
          ],
          [
            109.515799,
            34.320331
          ],
          [
            102.832254,
            24.884561
          ],
          [
            113.259169,
            23.132737
          ],
          [
            113.259169,
            23.132737
          ]
        ]
      },
      "properties": {
        "person": "陈寅恪",
        "name": "轨迹"
      }
    }
  ]
}