{
  "type": "FeatureCollection",
  "features": [
    {
      "type": "Feature",
      "geometry": {
        "type": "Point",
        "coordinates": [
          114.336054,
          30.548581
        ]
      },
      "properties": {
        "person": "陈友谅",
        "name": "沔阳",
        "type": "birth",
        "time": "约至顺/至元年间（具体存疑）",
        "modernName": "湖北省仙桃市",
        "ancientName": "沔阳"
      }
    },
    {
      "type": "Feature",
      "geometry": {
        "type": "Point",
        "coordinates": [
          113.436924,
          30.330802
        ]
      },
      "properties": {
        "person": "陈友谅",
        "name": "湖北地区",
        "type": "normal",
        "time": "至正十九年（1359年）",
        "modernName": "湖北省",
        "ancientName": "湖北一带"
      }
    },
    {
      "type": "Feature",
      "geometry": {
        "type": "Point",
        "coordinates": [
          116.698808,
          29.008648
        ]
      },
      "properties": {
        "person": "陈友谅",
        "name": "江州（今九江）",
        "type": "normal",
        "time": "至正二十年（1360年）",
        "modernName": "江西省九江市",
        "ancientName": "江州"
      }
    },
    {
      "type": "Feature",
      "geometry": {
        "type": "Point",
        "coordinates": [
          118.501671,
          31.670757
        ]
      },
      "properties": {
        "person": "陈友谅",
        "name": "采石矶",
        "type": "normal",
        "time": "至正二十一年（1361年）",
        "modernName": "安徽省马鞍山市雨山区采石矶",
        "ancientName": "采石矶"
      }
    },
    {
      "type": "Feature",
      "geometry": {
        "type": "Point",
        "coordinates": [
          116.698808,
          29.008648
        ]
      },
      "properties": {
        "person": "陈友谅",
        "name": "鄱阳湖",
        "type": "normal",
        "time": "至正二十三年（1363年）",
        "modernName": "江西省上饶市鄱阳县一带康郎山水域",
        "ancientName": "鄱阳湖"
      }
    },
    {
      "type": "Feature",
      "geometry": {
        "type": "Point",
        "coordinates": [
          116.698808,
          29.008648
        ]
      },
      "properties": {
        "person": "陈友谅",
        "name": "鄱阳湖康郎山水域",
        "type": "death",
        "time": "至正二十三年（1363年）八月",
        "modernName": "江西省上饶市鄱阳县境内鄱阳湖水域",
        "ancientName": "鄱阳湖康郎山水域"
      }
    },
    {
      "type": "Feature",
      "geometry": {
        "type": "LineString",
        "coordinates": [
          [
            114.336054,
            30.548581
          ],
          [
            113.436924,
            30.330802
          ],
          [
            116.698808,
            29.008648
          ],
          [
            118.501671,
            31.670757
          ],
          [
            116.698808,
            29.008648
          ],
          [
            116.698808,
            29.008648
          ]
        ]
      },
      "properties": {
        "person": "陈友谅",
        "name": "轨迹"
      }
    }
  ]
}