{
  "type": "FeatureCollection",
  "features": [
    {
      "type": "Feature",
      "geometry": {
        "type": "Point",
        "coordinates": [
          116.410094,
          39.926958
        ]
      },
      "properties": {
        "person": "爱新觉罗·胤禛",
        "name": "北京紫禁城",
        "type": "birth",
        "time": "1678年（存疑：另有1657年之说）",
        "modernName": "北京市东城区",
        "ancientName": "北京紫禁城"
      }
    },
    {
      "type": "Feature",
      "geometry": {
        "type": "Point",
        "coordinates": [
          116.411055,
          39.945838
        ]
      },
      "properties": {
        "person": "爱新觉罗·胤禛",
        "name": "雍和宫（原雍亲王府）",
        "type": "normal",
        "time": "1709年—1722年",
        "modernName": "北京市东城区雍和宫）",
        "ancientName": "雍和宫（原雍亲王府，"
      }
    },
    {
      "type": "Feature",
      "geometry": {
        "type": "Point",
        "coordinates": [
          116.410094,
          39.926958
        ]
      },
      "properties": {
        "person": "爱新觉罗·胤禛",
        "name": "北京紫禁城（皇位）",
        "type": "normal",
        "time": "1722年—1735年",
        "modernName": "北京市东城区",
        "ancientName": "北京紫禁城"
      }
    },
    {
      "type": "Feature",
      "geometry": {
        "type": "Point",
        "coordinates": [
          116.292405,
          39.958072
        ]
      },
      "properties": {
        "person": "爱新觉罗·胤禛",
        "name": "北京圆明园",
        "type": "normal",
        "time": "雍正初年—1735年",
        "modernName": "北京市海淀区",
        "ancientName": "圆明园"
      }
    },
    {
      "type": "Feature",
      "geometry": {
        "type": "Point",
        "coordinates": [
          116.292405,
          39.958072
        ]
      },
      "properties": {
        "person": "爱新觉罗·胤禛",
        "name": "北京圆明园",
        "type": "death",
        "time": "1735年",
        "modernName": "北京市海淀区",
        "ancientName": "圆明园"
      }
    },
    {
      "type": "Feature",
      "geometry": {
        "type": "LineString",
        "coordinates": [
          [
            116.410094,
            39.926958
          ],
          [
            116.411055,
            39.945838
          ],
          [
            116.410094,
            39.926958
          ],
          [
            116.292405,
            39.958072
          ],
          [
            116.292405,
            39.958072
          ]
        ]
      },
      "properties": {
        "person": "爱新觉罗·胤禛",
        "name": "轨迹"
      }
    }
  ]
}