{
  "type": "FeatureCollection",
  "features": [
    {
      "type": "Feature",
      "geometry": {
        "type": "Point",
        "coordinates": [
          108.93499,
          34.344762
        ]
      },
      "properties": {
        "person": "霍光",
        "name": "长安（总揽朝政时期）",
        "type": "normal",
        "time": "公元前 74 年—前 68 年",
        "modernName": "陕西西安",
        "ancientName": "长安"
      }
    },
    {
      "type": "Feature",
      "geometry": {
        "type": "Point",
        "coordinates": [
          108.93499,
          34.344762
        ]
      },
      "properties": {
        "person": "霍光",
        "name": "长安",
        "type": "death",
        "time": "公元前 68 年",
        "modernName": "陕西西安",
        "ancientName": "长安"
      }
    },
    {
      "type": "Feature",
      "geometry": {
        "type": "Point",
        "coordinates": [
          108.93499,
          34.344762
        ]
      },
      "properties": {
        "person": "霍光",
        "name": "长安（废昌邑王、立宣帝）",
        "type": "normal",
        "time": "公元前 74 年",
        "modernName": "陕西西安",
        "ancientName": "长安"
      }
    },
    {
      "type": "Feature",
      "geometry": {
        "type": "Point",
        "coordinates": [
          108.93499,
          34.344762
        ]
      },
      "properties": {
        "person": "霍光",
        "name": "长安（辅政昭帝）",
        "type": "normal",
        "time": "公元前 87 年—前 74 年",
        "modernName": "陕西西安",
        "ancientName": "长安"
      }
    },
    {
      "type": "Feature",
      "geometry": {
        "type": "Point",
        "coordinates": [
          108.93499,
          34.344762
        ]
      },
      "properties": {
        "person": "霍光",
        "name": "长安（武帝朝近侍时期）",
        "type": "normal",
        "time": "约前 121 年—前 87 年",
        "modernName": "陕西西安",
        "ancientName": "长安"
      }
    },
    {
      "type": "Feature",
      "geometry": {
        "type": "Point",
        "coordinates": [
          111.513093,
          36.088705
        ]
      },
      "properties": {
        "person": "霍光",
        "name": "河东平阳",
        "type": "birth",
        "time": "约公元前 121 年",
        "modernName": "山西临汾西南",
        "ancientName": "河东平阳"
      }
    },
    {
      "type": "Feature",
      "geometry": {
        "type": "LineString",
        "coordinates": [
          [
            108.93499,
            34.344762
          ],
          [
            108.93499,
            34.344762
          ],
          [
            108.93499,
            34.344762
          ],
          [
            108.93499,
            34.344762
          ],
          [
            108.93499,
            34.344762
          ],
          [
            111.513093,
            36.088705
          ]
        ]
      },
      "properties": {
        "person": "霍光",
        "name": "轨迹"
      }
    }
  ]
}