{
  "type": "FeatureCollection",
  "features": [
    {
      "type": "Feature",
      "geometry": {
        "type": "Point",
        "coordinates": [
          111.518,
          36.088
        ]
      },
      "properties": {
        "person": "霍去病",
        "name": "平阳",
        "type": "birth",
        "time": "约公元前140年",
        "modernName": "山西省临汾市",
        "ancientName": "平阳县"
      }
    },
    {
      "type": "Feature",
      "geometry": {
        "type": "Point",
        "coordinates": [
          108.9398,
          34.3416
        ]
      },
      "properties": {
        "person": "霍去病",
        "name": "长安",
        "type": "normal",
        "time": "约公元前123年起",
        "modernName": "陕西省西安市",
        "ancientName": "长安"
      }
    },
    {
      "type": "Feature",
      "geometry": {
        "type": "Point",
        "coordinates": [
          104.6263,
          35.5811
        ]
      },
      "properties": {
        "person": "霍去病",
        "name": "陇西",
        "type": "normal",
        "time": "公元前121年",
        "modernName": "甘肃省定西市",
        "ancientName": "陇西郡"
      }
    },
    {
      "type": "Feature",
      "geometry": {
        "type": "Point",
        "coordinates": [
          100.4498,
          38.9259
        ]
      },
      "properties": {
        "person": "霍去病",
        "name": "河西走廊",
        "type": "normal",
        "time": "公元前121年",
        "modernName": "甘肃省张掖市",
        "ancientName": "河西地区"
      }
    },
    {
      "type": "Feature",
      "geometry": {
        "type": "Point",
        "coordinates": [
          111.7492,
          40.8426
        ]
      },
      "properties": {
        "person": "霍去病",
        "name": "漠北",
        "type": "normal",
        "time": "公元前119年",
        "modernName": "内蒙古自治区呼和浩特市",
        "ancientName": "漠北"
      }
    },
    {
      "type": "Feature",
      "geometry": {
        "type": "Point",
        "coordinates": [
          108.9398,
          34.3416
        ]
      },
      "properties": {
        "person": "霍去病",
        "name": "长安",
        "type": "death",
        "time": "公元前117年",
        "modernName": "陕西省西安市",
        "ancientName": "长安"
      }
    },
    {
      "type": "Feature",
      "geometry": {
        "type": "LineString",
        "coordinates": [
          [
            111.518,
            36.088
          ],
          [
            108.9398,
            34.3416
          ],
          [
            104.6263,
            35.5811
          ],
          [
            100.4498,
            38.9259
          ],
          [
            111.7492,
            40.8426
          ],
          [
            108.9398,
            34.3416
          ]
        ]
      },
      "properties": {
        "person": "霍去病",
        "name": "轨迹"
      }
    }
  ]
}