{
  "type": "FeatureCollection",
  "features": [
    {
      "type": "Feature",
      "geometry": {
        "type": "Point",
        "coordinates": [
          121.469144,
          31.232467
        ]
      },
      "properties": {
        "person": "顾准",
        "name": "上海",
        "type": "normal",
        "time": "1915年",
        "modernName": "上海",
        "ancientName": "上海"
      }
    },
    {
      "type": "Feature",
      "geometry": {
        "type": "Point",
        "coordinates": [
          121.469144,
          31.232467
        ]
      },
      "properties": {
        "person": "顾准",
        "name": "上海、苏区",
        "type": "normal",
        "time": "1930年代",
        "modernName": "上海",
        "ancientName": "上海、苏区"
      }
    },
    {
      "type": "Feature",
      "geometry": {
        "type": "Point",
        "coordinates": [
          121.469144,
          31.232467
        ]
      },
      "properties": {
        "person": "顾准",
        "name": "上海",
        "type": "normal",
        "time": "1940年代",
        "modernName": "上海",
        "ancientName": "上海"
      }
    },
    {
      "type": "Feature",
      "geometry": {
        "type": "Point",
        "coordinates": [
          116.401145,
          39.902776
        ]
      },
      "properties": {
        "person": "顾准",
        "name": "北京",
        "type": "normal",
        "time": "1952年后",
        "modernName": "北京",
        "ancientName": "北京"
      }
    },
    {
      "type": "Feature",
      "geometry": {
        "type": "Point",
        "coordinates": [
          116.401145,
          39.902776
        ]
      },
      "properties": {
        "person": "顾准",
        "name": "北京",
        "type": "normal",
        "time": "1957年",
        "modernName": "北京",
        "ancientName": "北京"
      }
    },
    {
      "type": "Feature",
      "geometry": {
        "type": "Point",
        "coordinates": [
          113.746911,
          34.768042
        ]
      },
      "properties": {
        "person": "顾准",
        "name": "河南等地",
        "type": "normal",
        "time": "1960年代",
        "modernName": "河南等地",
        "ancientName": "河南等地"
      }
    },
    {
      "type": "Feature",
      "geometry": {
        "type": "Point",
        "coordinates": [
          116.401145,
          39.902776
        ]
      },
      "properties": {
        "person": "顾准",
        "name": "北京",
        "type": "death",
        "time": "1974年12月3日",
        "modernName": "北京",
        "ancientName": "北京"
      }
    },
    {
      "type": "Feature",
      "geometry": {
        "type": "LineString",
        "coordinates": [
          [
            121.469144,
            31.232467
          ],
          [
            121.469144,
            31.232467
          ],
          [
            121.469144,
            31.232467
          ],
          [
            116.401145,
            39.902776
          ],
          [
            116.401145,
            39.902776
          ],
          [
            113.746911,
            34.768042
          ],
          [
            116.401145,
            39.902776
          ]
        ]
      },
      "properties": {
        "person": "顾准",
        "name": "轨迹"
      }
    }
  ]
}