{
  "type": "FeatureCollection",
  "features": [
    {
      "type": "Feature",
      "geometry": {
        "type": "Point",
        "coordinates": [
          6.64,
          49.75
        ]
      },
      "properties": {
        "person": "卡尔·马克思",
        "name": "特里尔",
        "type": "birth",
        "time": "公元1818年5月5日",
        "modernName": "德国莱茵兰-普法尔茨州特里尔市",
        "ancientName": "特里尔"
      }
    },
    {
      "type": "Feature",
      "geometry": {
        "type": "Point",
        "coordinates": [
          6.96,
          50.94
        ]
      },
      "properties": {
        "person": "卡尔·马克思",
        "name": "科隆（《莱茵报》编辑部）",
        "type": "normal",
        "time": "公元1842年 - 1843年",
        "modernName": "德国北莱茵-威斯特法伦州科隆市",
        "ancientName": "科隆"
      }
    },
    {
      "type": "Feature",
      "geometry": {
        "type": "Point",
        "coordinates": [
          2.35,
          48.86
        ]
      },
      "properties": {
        "person": "卡尔·马克思",
        "name": "巴黎",
        "type": "normal",
        "time": "公元1843年10月 - 1845年2月（第一次）；1848年3月 - 1849年（短暂返回）",
        "modernName": "法国巴黎",
        "ancientName": "巴黎"
      }
    },
    {
      "type": "Feature",
      "geometry": {
        "type": "Point",
        "coordinates": [
          4.35,
          50.85
        ]
      },
      "properties": {
        "person": "卡尔·马克思",
        "name": "布鲁塞尔",
        "type": "normal",
        "time": "公元1845年2月 - 1848年3月",
        "modernName": "比利时布鲁塞尔",
        "ancientName": "布鲁塞尔"
      }
    },
    {
      "type": "Feature",
      "geometry": {
        "type": "Point",
        "coordinates": [
          -0.13,
          51.51
        ]
      },
      "properties": {
        "person": "卡尔·马克思",
        "name": "伦敦（长期流亡与写作地）",
        "type": "normal",
        "time": "公元1849年8月 - 1883年3月",
        "modernName": "英国伦敦",
        "ancientName": "伦敦"
      }
    },
    {
      "type": "Feature",
      "geometry": {
        "type": "Point",
        "coordinates": [
          -2.24,
          53.48
        ]
      },
      "properties": {
        "person": "卡尔·马克思",
        "name": "曼彻斯特（恩格斯居所及考察）",
        "type": "normal",
        "time": "公元1845年夏（考察）；多次短期访问",
        "modernName": "英国曼彻斯特",
        "ancientName": "曼彻斯特"
      }
    },
    {
      "type": "Feature",
      "geometry": {
        "type": "Point",
        "coordinates": [
          -0.13,
          51.51
        ]
      },
      "properties": {
        "person": "卡尔·马克思",
        "name": "伦敦",
        "type": "death",
        "time": "公元1883年3月14日",
        "modernName": "英国伦敦",
        "ancientName": "伦敦"
      }
    },
    {
      "type": "Feature",
      "geometry": {
        "type": "LineString",
        "coordinates": [
          [
            6.64,
            49.75
          ],
          [
            6.96,
            50.94
          ],
          [
            2.35,
            48.86
          ],
          [
            4.35,
            50.85
          ],
          [
            -0.13,
            51.51
          ],
          [
            -2.24,
            53.48
          ],
          [
            -0.13,
            51.51
          ]
        ]
      },
      "properties": {
        "person": "卡尔·马克思",
        "name": "轨迹"
      }
    }
  ]
}