{
  "type": "FeatureCollection",
  "features": [
    {
      "type": "Feature",
      "geometry": {
        "type": "Point",
        "coordinates": [
          108.488519,
          34.3037713
        ]
      },
      "properties": {
        "person": "马超",
        "name": "扶风茂陵",
        "type": "birth",
        "time": "约公元176年",
        "modernName": "陕西省兴平市东北",
        "ancientName": "扶风茂陵"
      }
    },
    {
      "type": "Feature",
      "geometry": {
        "type": "Point",
        "coordinates": [
          102.6347,
          37.92692
        ]
      },
      "properties": {
        "person": "马超",
        "name": "凉州（陇西）",
        "type": "normal",
        "time": "约196年-211年",
        "modernName": "甘肃省武威市一带",
        "ancientName": "凉州"
      }
    },
    {
      "type": "Feature",
      "geometry": {
        "type": "Point",
        "coordinates": [
          117.2077296,
          31.7454817
        ]
      },
      "properties": {
        "person": "马超",
        "name": "潼关",
        "type": "normal",
        "time": "211年",
        "modernName": "陕西省渭南市潼关县北",
        "ancientName": "潼关"
      }
    },
    {
      "type": "Feature",
      "geometry": {
        "type": "Point",
        "coordinates": [
          103.85794,
          35.37915
        ]
      },
      "properties": {
        "person": "马超",
        "name": "陇西",
        "type": "normal",
        "time": "211年-213年",
        "modernName": "甘肃省东南部",
        "ancientName": "陇西郡"
      }
    },
    {
      "type": "Feature",
      "geometry": {
        "type": "Point",
        "coordinates": [
          107.08756,
          33.02875
        ]
      },
      "properties": {
        "person": "马超",
        "name": "汉中",
        "type": "normal",
        "time": "214年",
        "modernName": "陕西省汉中市",
        "ancientName": "汉中"
      }
    },
    {
      "type": "Feature",
      "geometry": {
        "type": "Point",
        "coordinates": [
          104.078,
          30.65038
        ]
      },
      "properties": {
        "person": "马超",
        "name": "成都",
        "type": "normal",
        "time": "214年-222年",
        "modernName": "四川省成都市",
        "ancientName": "成都"
      }
    },
    {
      "type": "Feature",
      "geometry": {
        "type": "Point",
        "coordinates": [
          104.078,
          30.65038
        ]
      },
      "properties": {
        "person": "马超",
        "name": "成都",
        "type": "death",
        "time": "222年",
        "modernName": "四川省成都市",
        "ancientName": "成都"
      }
    },
    {
      "type": "Feature",
      "geometry": {
        "type": "LineString",
        "coordinates": [
          [
            108.488519,
            34.3037713
          ],
          [
            102.6347,
            37.92692
          ],
          [
            117.2077296,
            31.7454817
          ],
          [
            103.85794,
            35.37915
          ],
          [
            107.08756,
            33.02875
          ],
          [
            104.078,
            30.65038
          ],
          [
            104.078,
            30.65038
          ]
        ]
      },
      "properties": {
        "person": "马超",
        "name": "轨迹"
      }
    }
  ]
}