{
  "type": "FeatureCollection",
  "features": [
    {
      "type": "Feature",
      "geometry": {
        "type": "Point",
        "coordinates": [
          114.5,
          29.0
        ]
      },
      "properties": {
        "person": "黄庭坚",
        "name": "洪州分宁",
        "type": "birth",
        "time": "公元1045年",
        "modernName": "江西省九江市修水县",
        "ancientName": "洪州分宁"
      }
    },
    {
      "type": "Feature",
      "geometry": {
        "type": "Point",
        "coordinates": [
          113.3,
          33.6
        ]
      },
      "properties": {
        "person": "黄庭坚",
        "name": "叶县",
        "type": "normal",
        "time": "公元1063年 - 公元1067年",
        "modernName": "河南省平顶山市叶县",
        "ancientName": "汝州叶县"
      }
    },
    {
      "type": "Feature",
      "geometry": {
        "type": "Point",
        "coordinates": [
          114.3,
          34.8
        ]
      },
      "properties": {
        "person": "黄庭坚",
        "name": "汴京",
        "type": "normal",
        "time": "公元1067年",
        "modernName": "河南省开封市",
        "ancientName": "开封府"
      }
    },
    {
      "type": "Feature",
      "geometry": {
        "type": "Point",
        "coordinates": [
          115.1,
          36.3
        ]
      },
      "properties": {
        "person": "黄庭坚",
        "name": "大名府",
        "type": "normal",
        "time": "公元1072年 - 公元1079年",
        "modernName": "河北省邯郸市大名县",
        "ancientName": "大名府"
      }
    },
    {
      "type": "Feature",
      "geometry": {
        "type": "Point",
        "coordinates": [
          114.9,
          26.8
        ]
      },
      "properties": {
        "person": "黄庭坚",
        "name": "太和县",
        "type": "normal",
        "time": "公元1080年 - 公元1083年",
        "modernName": "江西省吉安市泰和县",
        "ancientName": "吉州太和县"
      }
    },
    {
      "type": "Feature",
      "geometry": {
        "type": "Point",
        "coordinates": [
          116.9,
          37.2
        ]
      },
      "properties": {
        "person": "黄庭坚",
        "name": "德州德平镇",
        "type": "normal",
        "time": "公元1084年 - 公元1085年",
        "modernName": "山东省德州市临邑县德平镇",
        "ancientName": "德州德平镇"
      }
    },
    {
      "type": "Feature",
      "geometry": {
        "type": "Point",
        "coordinates": [
          114.3,
          34.8
        ]
      },
      "properties": {
        "person": "黄庭坚",
        "name": "汴京（馆阁时期）",
        "type": "normal",
        "time": "公元1086年 - 公元1093年",
        "modernName": "河南省开封市",
        "ancientName": "开封府"
      }
    },
    {
      "type": "Feature",
      "geometry": {
        "type": "Point",
        "coordinates": [
          108.2,
          29.3
        ]
      },
      "properties": {
        "person": "黄庭坚",
        "name": "黔州",
        "type": "normal",
        "time": "公元1094年 - 公元1098年",
        "modernName": "重庆市彭水苗族土家族自治县",
        "ancientName": "黔州"
      }
    },
    {
      "type": "Feature",
      "geometry": {
        "type": "Point",
        "coordinates": [
          108.6,
          24.5
        ]
      },
      "properties": {
        "person": "黄庭坚",
        "name": "宜州",
        "type": "death",
        "time": "公元1100年 - 公元1105年",
        "modernName": "广西壮族自治区河池市宜州区",
        "ancientName": "宜州"
      }
    },
    {
      "type": "Feature",
      "geometry": {
        "type": "LineString",
        "coordinates": [
          [
            114.5,
            29.0
          ],
          [
            113.3,
            33.6
          ],
          [
            114.3,
            34.8
          ],
          [
            115.1,
            36.3
          ],
          [
            114.9,
            26.8
          ],
          [
            116.9,
            37.2
          ],
          [
            114.3,
            34.8
          ],
          [
            108.2,
            29.3
          ],
          [
            108.6,
            24.5
          ]
        ]
      },
      "properties": {
        "person": "黄庭坚",
        "name": "轨迹"
      }
    }
  ]
}