{
  "type": "FeatureCollection",
  "features": [
    {
      "type": "Feature",
      "geometry": {
        "type": "Point",
        "coordinates": [
          118.303542,
          36.826428
        ]
      },
      "properties": {
        "person": "齐桓公",
        "name": "齐国",
        "type": "birth",
        "time": "约前716年（存疑/说法不一）",
        "modernName": "山东省淄博市临淄区）",
        "ancientName": "齐国（都城临淄，"
      }
    },
    {
      "type": "Feature",
      "geometry": {
        "type": "Point",
        "coordinates": [
          118.86367,
          35.591512
        ]
      },
      "properties": {
        "person": "齐桓公",
        "name": "莒国",
        "type": "normal",
        "time": "约前698年—前685年",
        "modernName": "山东省日照市莒县一带",
        "ancientName": "莒国"
      }
    },
    {
      "type": "Feature",
      "geometry": {
        "type": "Point",
        "coordinates": [
          118.303542,
          36.826428
        ]
      },
      "properties": {
        "person": "齐桓公",
        "name": "齐国（临淄）",
        "type": "normal",
        "time": "前685年起",
        "modernName": "山东省淄博市临淄区",
        "ancientName": "齐国都城临淄"
      }
    },
    {
      "type": "Feature",
      "geometry": {
        "type": "Point",
        "coordinates": [
          116.820803,
          40.566037
        ]
      },
      "properties": {
        "person": "齐桓公",
        "name": "北燕",
        "type": "normal",
        "time": "约前663年—前662年",
        "modernName": "北京市密云区、怀柔区及河北北部一带",
        "ancientName": "北燕"
      }
    },
    {
      "type": "Feature",
      "geometry": {
        "type": "Point",
        "coordinates": [
          114.087852,
          33.587858
        ]
      },
      "properties": {
        "person": "齐桓公",
        "name": "召陵",
        "type": "normal",
        "time": "前656年",
        "modernName": "河南省漯河市召陵区",
        "ancientName": "召陵"
      }
    },
    {
      "type": "Feature",
      "geometry": {
        "type": "Point",
        "coordinates": [
          115.169212,
          34.649374
        ]
      },
      "properties": {
        "person": "齐桓公",
        "name": "葵丘",
        "type": "normal",
        "time": "前651年",
        "modernName": "河南省商丘市民权县一带，存疑/说法不一",
        "ancientName": "葵丘"
      }
    },
    {
      "type": "Feature",
      "geometry": {
        "type": "Point",
        "coordinates": [
          118.303542,
          36.826428
        ]
      },
      "properties": {
        "person": "齐桓公",
        "name": "齐国（临淄）",
        "type": "death",
        "time": "前643年",
        "modernName": "山东省淄博市临淄区",
        "ancientName": "齐国都城临淄"
      }
    },
    {
      "type": "Feature",
      "geometry": {
        "type": "LineString",
        "coordinates": [
          [
            118.303542,
            36.826428
          ],
          [
            118.86367,
            35.591512
          ],
          [
            118.303542,
            36.826428
          ],
          [
            116.820803,
            40.566037
          ],
          [
            114.087852,
            33.587858
          ],
          [
            115.169212,
            34.649374
          ],
          [
            118.303542,
            36.826428
          ]
        ]
      },
      "properties": {
        "person": "齐桓公",
        "name": "轨迹"
      }
    }
  ]
}